station,valid,tmpf,dwpf,relh,drct,sknt,p01i,alti,mslp,vsby,gust,skyc1,skyc2,skyc3,skyc4,skyl1,skyl2,skyl3,skyl4,wxcodes,ice_accretion_1hr,ice_accretion_3hr,ice_accretion_6hr,peak_wind_gust,peak_wind_drct,peak_wind_time,feel,metar,snowdepth
SBGR,2025-01-01 00:00,69.80,66.20,88.34,120.00,3.00,0.00,30.00,M,6.21,M,SCT,BKN,M,M,1300.00,1700.00,M,M,M,M,M,M,M,M,M,69.80,SBGR 010000Z 12003KT 9999 SCT013 BKN017 21/19 Q1016,M
SBAN,2025-01-01 00:00,69.80,68.00,94.01,0.00,0.00,0.00,30.06,M,6.21,M,SCT,FEW,BKN,M,3500.00,4000.00,10000.00,M,M,M,M,M,M,M,M,69.80,SBAN 010000Z 00000KT 9999 SCT035 FEW040TCU BKN100 21/20 Q1018,M
SBGR,2025-01-01 00:06,69.80,66.20,88.34,110.00,3.00,0.00,30.00,M,6.21,M,BKN,M,M,M,1300.00,M,M,M,M,M,M,M,M,M,M,69.80,SBGR 010006Z 11003KT 9999 BKN013 21/19 Q1016,M
SBAN,2025-01-01 01:00,69.80,68.00,94.01,0.00,0.00,0.00,30.06,M,6.21,M,SCT,FEW,BKN,M,2000.00,2500.00,7000.00,M,M,M,M,M,M,M,M,69.80,COR SBAN 010100Z 00000KT 9999 SCT020 FEW025TCU BKN070 21/20 Q1018,M
SBGR,2025-01-01 01:00,69.80,66.20,88.34,100.00,4.00,0.00,30.03,M,6.21,M,BKN,M,M,M,1000.00,M,M,M,M,M,M,M,M,M,M,69.80,SBGR 010100Z 10004KT 9999 BKN010 21/19 Q1017,M
SBGR,2025-01-01 02:00,68.00,66.20,93.97,70.00,6.00,0.00,30.03,M,4.97,M,SCT,M,M,M,900.00,M,M,M,M,M,M,M,M,M,M,68.00,SBGR 010200Z 07006KT 8000 SCT009 20/19 Q1017,M
SBAN,2025-01-01 02:00,68.00,68.00,100.00,350.00,3.00,0.00,30.06,M,2.49,M,BKN,SCT,FEW,M,200.00,500.00,2500.00,M,-RA,M,M,M,M,M,M,68.00,SBAN 010200Z 35003KT 4000 -RA BKN002 SCT005 FEW025TCU 20/20 Q1018 RERA,M
SBAN,2025-01-01 03:00,68.00,68.00,100.00,350.00,2.00,0.00,30.06,M,6.21,M,SCT,SCT,M,M,500.00,1000.00,M,M,M,M,M,M,M,M,M,68.00,SBAN 010300Z 35002KT 9999 SCT005 SCT010 20/20 Q1018,M
SBGR,2025-01-01 03:00,66.20,64.40,93.92,80.00,6.00,0.00,30.00,M,6.21,M,BKN,M,M,M,900.00,M,M,M,M,M,M,M,M,M,M,66.20,SBGR 010300Z 08006KT 9999 BKN009 19/18 Q1016,M
SBGR,2025-01-01 04:00,66.20,64.40,93.92,90.00,3.00,0.00,30.00,M,4.35,M,BKN,M,M,M,700.00,M,M,M,M,M,M,M,M,M,M,66.20,SBGR 010400Z 09003KT 7000 BKN007 19/18 Q1016,M
SBAN,2025-01-01 04:00,64.40,64.40,100.00,360.00,2.00,0.00,30.06,M,6.21,M,SCT,BKN,M,M,1200.00,7000.00,M,M,M,M,M,M,M,M,M,64.40,SBAN 010400Z 36002KT 9999 SCT012 BKN070 18/18 Q1018,M
SBGR,2025-01-01 05:00,68.00,66.20,93.97,80.00,5.00,0.00,29.97,M,5.59,M,BKN,M,M,M,700.00,M,M,M,M,M,M,M,M,M,M,68.00,SBGR 010500Z 08005KT 9000 BKN007 20/19 Q1015,M
SBAN,2025-01-01 05:00,68.00,68.00,100.00,50.00,4.00,0.00,30.03,M,2.49,M,BKN,SCT,M,M,200.00,1000.00,M,M,-RA,M,M,M,M,M,M,68.00,SBAN 010500Z 05004KT 4000 -RA BKN002 SCT010 20/20 Q1017,M
SBAN,2025-01-01 06:00,68.00,68.00,100.00,20.00,2.00,0.00,30.03,M,6.21,M,SCT,SCT,M,M,1000.00,8000.00,M,M,M,M,M,M,M,M,M,68.00,SBAN 010600Z 02002KT 9999 SCT010 SCT080 20/20 Q1017,M
SBGR,2025-01-01 06:00,66.20,64.40,93.92,90.00,5.00,0.00,29.97,M,6.21,M,BKN,M,M,M,1000.00,M,M,M,M,M,M,M,M,M,M,66.20,SBGR 010600Z 09005KT 9999 BKN010 19/18 Q1015,M
SBGR,2025-01-01 07:00,66.20,64.40,93.92,70.00,3.00,0.00,29.97,M,6.21,M,SCT,BKN,M,M,1000.00,6600.00,M,M,M,M,M,M,M,M,M,66.20,SBGR 010700Z 07003KT 9999 SCT010 BKN066 19/18 Q1015,M
SBAN,2025-01-01 07:00,64.40,64.40,100.00,280.00,4.00,0.00,30.06,M,6.21,M,SCT,BKN,M,M,1200.00,7000.00,M,M,M,M,M,M,M,M,M,64.40,SBAN 010700Z 28004KT 9999 SCT012 BKN070 18/18 Q1018,M
SBGR,2025-01-01 08:00,66.20,64.40,93.92,80.00,2.00,0.00,29.97,M,6.21,M,BKN,M,M,M,1000.00,M,M,M,M,M,M,M,M,M,M,66.20,SBGR 010800Z 08002KT 9999 BKN010 19/18 Q1015,M
SBAN,2025-01-01 08:00,62.60,62.60,100.00,210.00,4.00,0.00,30.06,M,6.21,M,SCT,BKN,M,M,1500.00,8000.00,M,M,M,M,M,M,M,M,M,62.60,SBAN 010800Z 21004KT 9999 SCT015 BKN080 17/17 Q1018,M
SBAN,2025-01-01 09:00,66.20,66.20,100.00,0.00,0.00,0.00,30.06,M,6.21,M,FEW,BKN,M,M,400.00,8000.00,M,M,PRFG,M,M,M,M,M,M,66.20,SBAN 010900Z 00000KT 9999 PRFG FEW004 BKN080 19/19 Q1018,M
SBGR,2025-01-01 09:00,66.20,64.40,93.92,90.00,1.00,0.00,30.00,M,4.97,M,FEW,M,M,M,1000.00,M,M,M,M,M,M,M,M,M,M,66.20,SBGR 010900Z 09001KT 8000 FEW010 19/18 Q1016,M
SBAN,2025-01-01 10:00,68.00,68.00,100.00,110.00,3.00,0.00,30.06,M,0.25,M,BKN,BKN,M,M,200.00,8000.00,M,M,FG,M,M,M,M,M,M,68.00,SBAN 011000Z 11003KT 0400 R06L/P2000 R24R/P2000 FG BKN002 BKN080 20/20 Q1018,M
SBGR,2025-01-01 10:00,69.80,64.40,82.98,60.00,4.00,0.00,30.03,M,6.21,M,FEW,M,M,M,800.00,M,M,M,M,M,M,M,M,M,M,69.80,SBGR 011000Z 06004KT 9999 FEW008 21/18 Q1017,M
SBGR,2025-01-01 11:00,71.60,64.40,78.04,70.00,4.00,0.00,30.03,M,6.21,M,FEW,M,M,M,1500.00,M,M,M,M,M,M,M,M,M,M,71.60,SBGR 011100Z 07004KT 9999 FEW015 22/18 Q1017,M
SBAN,2025-01-01 11:00,68.00,68.00,100.00,110.00,4.00,0.00,30.09,M,3.11,M,BKN,SCT,BKN,M,300.00,700.00,8000.00,M,BR PRFG,M,M,M,M,M,M,68.00,SBAN 011100Z 11004KT 5000 2000NW BR PRFG BKN003 SCT007 BKN080 20/20 Q1019,M
SBAN,2025-01-01 12:00,71.60,69.80,94.06,90.00,4.00,0.00,30.12,M,3.11,M,BKN,BKN,M,M,400.00,8000.00,M,M,BR,M,M,M,M,M,M,71.60,SBAN 011200Z 09004KT 5000 BR BKN004 BKN080 22/21 Q1020,M
SBGR,2025-01-01 12:00,75.20,66.20,73.61,80.00,2.00,0.00,30.03,M,6.21,M,M,M,M,M,M,M,M,M,M,M,M,M,M,M,M,75.20,SBGR 011200Z 08002KT CAVOK 24/19 Q1017,M
SBAN,2025-01-01 13:00,73.40,69.80,88.51,M,4.00,0.00,30.12,M,6.21,M,BKN,SCT,FEW,M,1000.00,2000.00,3000.00,M,M,M,M,M,M,M,M,73.40,SBAN 011300Z VRB04KT 9999 BKN010 SCT020 FEW030TCU 23/21 Q1020,M
SBGR,2025-01-01 13:00,80.60,64.40,57.84,350.00,5.00,0.00,30.03,M,6.21,M,FEW,M,M,M,3000.00,M,M,M,M,M,M,M,M,M,M,82.27,SBGR 011300Z 35005KT 9999 FEW030 27/18 Q1017,M
SBGR,2025-01-01 14:00,82.40,62.60,51.21,340.00,7.00,0.00,30.03,M,6.21,M,BKN,M,M,M,4000.00,M,M,M,M,M,M,M,M,M,M,83.41,SBGR 011400Z 34007KT 9999 BKN040 28/17 Q1017,M
SBAN,2025-01-01 14:00,77.00,68.00,73.78,M,4.00,0.00,30.12,M,6.21,M,FEW,BKN,FEW,M,1200.00,2500.00,3500.00,M,SHRA,M,M,M,M,M,M,77.00,SBAN 011400Z VRB04KT 9999 SHRA FEW012 BKN025 FEW035TCU 25/20 Q1020,M
SBGR,2025-01-01 15:00,86.00,64.40,48.58,320.00,7.00,0.00,30.00,M,6.21,M,BKN,M,M,M,4500.00,M,M,M,M,M,M,M,M,M,M,87.49,SBGR 011500Z 32007KT 9999 BKN045 30/18 Q1016,M
SBAN,2025-01-01 15:00,78.80,66.20,65.33,360.00,4.00,0.00,30.09,M,6.21,M,FEW,BKN,FEW,M,1000.00,2500.00,3500.00,M,VCSH,M,M,M,M,M,M,78.80,SBAN 011500Z 36004KT 9999 VCSH FEW010 BKN025 FEW035TCU 26/19 Q1019 RESHRA,M
SBAN,2025-01-01 16:00,71.60,69.80,94.06,20.00,8.00,0.00,30.06,M,6.21,M,FEW,BKN,FEW,BKN,1000.00,2500.00,3500.00,7000.00,SHRA,M,M,M,M,M,M,71.60,SBAN 011600Z 02008KT 330V080 9999 SHRA FEW010 BKN025 FEW035TCU BKN070 22/21 Q1018,M
SBGR,2025-01-01 16:00,84.20,62.60,48.32,280.00,7.00,0.00,29.97,M,6.21,M,BKN,M,M,M,4500.00,M,M,M,M,M,M,M,M,M,M,85.03,SBGR 011600Z 28007KT 9999 BKN045 29/17 Q1015,M
SBGR,2025-01-01 17:00,84.20,64.40,51.47,170.00,5.00,0.00,29.94,M,6.21,M,BKN,FEW,M,M,4500.00,5000.00,M,M,M,M,M,M,M,M,M,85.71,SBGR 011700Z 17005KT 9999 BKN045 FEW050TCU 29/18 Q1014,M
SBAN,2025-01-01 17:00,78.80,66.20,65.33,10.00,5.00,0.00,30.06,M,6.21,M,SCT,FEW,BKN,M,2500.00,3500.00,7000.00,M,VCSH,M,M,M,M,M,M,78.80,SBAN 011700Z 01005KT 9999 VCSH SCT025 FEW035TCU BKN070 26/19 Q1018 RESHRA,M
SBAN,2025-01-01 18:00,75.20,66.20,73.61,M,4.00,0.00,30.03,M,6.21,M,FEW,SCT,FEW,BKN,1000.00,2500.00,3500.00,7000.00,VCSH,M,M,M,M,M,M,75.20,SBAN 011800Z VRB04KT 9999 VCSH FEW010 SCT025 FEW035TCU BKN070 24/19 Q1017,M
SBGR,2025-01-01 18:00,78.80,64.40,61.36,150.00,9.00,0.00,29.94,M,6.21,M,BKN,FEW,M,M,4500.00,5000.00,M,M,M,M,M,M,M,M,M,78.80,SBGR 011800Z 15009KT 9999 BKN045 FEW050TCU 26/18 Q1014,M
SBGR,2025-01-01 18:16,71.60,69.80,94.06,150.00,9.00,0.00,29.94,M,3.73,M,BKN,FEW,M,M,4500.00,5000.00,M,M,RA,M,M,M,M,M,M,71.60,SBGR 011816Z 15009KT 6000 RA BKN045 FEW050TCU 22/21 Q1014,M
SBGR,2025-01-01 19:00,73.40,69.80,88.51,210.00,3.00,0.00,29.97,M,3.73,M,BKN,M,M,M,1300.00,M,M,M,-RA,M,M,M,M,M,M,73.40,SBGR 011900Z 21003KT 6000 -RA BKN013 23/21 Q1015 RERA,M
SBAN,2025-01-01 19:00,77.00,64.40,65.12,M,3.00,0.00,30.00,M,6.21,M,FEW,SCT,FEW,BKN,1000.00,2500.00,3500.00,7000.00,VCTS,M,M,M,M,M,M,77.00,SBAN 011900Z VRB03KT 9999 VCTS FEW010 SCT025 FEW035CB BKN070 25/18 Q1016,M
SBAN,2025-01-01 20:00,75.20,68.00,78.34,330.00,2.00,0.00,29.97,M,6.21,M,FEW,SCT,FEW,BKN,1000.00,2500.00,3500.00,7000.00,M,M,M,M,M,M,M,75.20,SBAN 012000Z 33002KT 9999 FEW010 SCT025 FEW035TCU BKN070 24/20 Q1015,M
SBGR,2025-01-01 20:00,73.40,69.80,88.51,180.00,4.00,0.00,29.94,M,3.73,M,SCT,BKN,M,M,1300.00,2600.00,M,M,M,M,M,M,M,M,M,73.40,SBGR 012000Z 18004KT 6000 SCT013 BKN026 23/21 Q1014,M
SBAN,2025-01-01 21:00,73.40,68.00,83.21,M,1.00,0.00,29.97,M,6.21,M,FEW,FEW,BKN,M,2500.00,3500.00,7000.00,M,M,M,M,M,M,M,M,73.40,SBAN 012100Z VRB01KT 9999 FEW025 FEW035TCU BKN070 23/20 Q1015,M
SBGR,2025-01-01 21:00,73.40,69.80,88.51,130.00,4.00,0.00,29.94,M,5.59,M,FEW,M,M,M,1300.00,M,M,M,M,M,M,M,M,M,M,73.40,SBGR 012100Z 13004KT 9000 FEW013 23/21 Q1014,M
SBAN,2025-01-01 22:00,71.60,69.80,94.06,0.00,0.00,0.00,30.03,M,6.21,M,FEW,FEW,BKN,M,2500.00,3500.00,7000.00,M,M,M,M,M,M,M,M,71.60,SBAN 012200Z 00000KT 9999 FEW025 FEW035TCU BKN070 22/21 Q1017,M
SBGR,2025-01-01 22:00,71.60,68.00,88.43,110.00,6.00,0.00,29.97,M,6.21,M,BKN,M,M,M,1300.00,M,M,M,M,M,M,M,M,M,M,71.60,SBGR 012200Z 11006KT 9999 BKN013 22/20 Q1015,M
SBAN,2025-01-01 23:00,69.80,68.00,94.01,110.00,5.00,0.00,30.06,M,6.21,M,FEW,FEW,BKN,M,2500.00,3500.00,7000.00,M,M,M,M,M,M,M,M,69.80,SBAN 012300Z 11005KT 9999 FEW025 FEW035TCU BKN070 21/20 Q1018,M
SBGR,2025-01-01 23:00,71.60,68.00,88.43,140.00,4.00,0.00,30.00,M,6.21,M,SCT,BKN,M,M,1300.00,2100.00,M,M,M,M,M,M,M,M,M,71.60,SBGR 012300Z 14004KT 9999 SCT013 BKN021 22/20 Q1016,M
SBAN,2025-01-02 00:00,69.80,68.00,94.01,90.00,4.00,0.00,30.06,M,6.21,M,FEW,FEW,BKN,M,2500.00,3500.00,7000.00,M,M,M,M,M,M,M,M,69.80,SBAN 020000Z 09004KT 9999 FEW025 FEW035TCU BKN070 21/20 Q1018,M
SBGR,2025-01-02 00:00,71.60,68.00,88.43,140.00,3.00,0.00,30.00,M,6.21,M,BKN,BKN,M,M,1300.00,2100.00,M,M,M,M,M,M,M,M,M,71.60,SBGR 020000Z 14003KT 9999 BKN013 BKN021 22/20 Q1016,M
SBGR,2025-01-02 00:20,71.60,68.00,88.43,130.00,4.00,0.00,30.00,M,6.21,M,SCT,M,M,M,1700.00,M,M,M,M,M,M,M,M,M,M,71.60,SBGR 020020Z 13004KT 9999 SCT017 22/20 Q1016,M
SBAN,2025-01-02 01:00,69.80,68.00,94.01,70.00,6.00,0.00,30.06,M,6.21,M,FEW,BKN,M,M,2500.00,7000.00,M,M,M,M,M,M,M,M,M,69.80,SBAN 020100Z 07006KT 9999 FEW025 BKN070 21/20 Q1018,M
SBGR,2025-01-02 01:00,71.60,68.00,88.43,110.00,4.00,0.00,30.00,M,6.21,M,SCT,M,M,M,900.00,M,M,M,M,M,M,M,M,M,M,71.60,SBGR 020100Z 11004KT 9999 SCT009 22/20 Q1016,M
SBAN,2025-01-02 02:00,69.80,68.00,94.01,60.00,5.00,0.00,30.09,M,6.21,M,FEW,BKN,M,M,2500.00,7000.00,M,M,M,M,M,M,M,M,M,69.80,SBAN 020200Z 06005KT 9999 FEW025 BKN070 21/20 Q1019,M
SBGR,2025-01-02 02:00,69.80,68.00,94.01,70.00,5.00,0.00,30.03,M,6.21,M,BKN,M,M,M,900.00,M,M,M,M,M,M,M,M,M,M,69.80,SBGR 020200Z 07005KT 9999 BKN009 21/20 Q1017,M
SBGR,2025-01-02 03:00,69.80,68.00,94.01,70.00,7.00,0.00,30.03,M,6.21,M,BKN,M,M,M,900.00,M,M,M,M,M,M,M,M,M,M,69.80,SBGR 020300Z 07007KT 9999 BKN009 21/20 Q1017,M
SBAN,2025-01-02 03:00,68.00,62.60,82.86,50.00,8.00,0.00,30.09,M,6.21,M,FEW,BKN,M,M,1100.00,7000.00,M,M,M,M,M,M,M,M,M,68.00,SBAN 020300Z 05008KT 9999 FEW011 BKN070 20/17 Q1019,M
SBAN,2025-01-02 04:00,68.00,64.40,88.26,60.00,5.00,0.00,30.06,M,6.21,M,FEW,BKN,M,M,1100.00,7000.00,M,M,M,M,M,M,M,M,M,68.00,SBAN 020400Z 06005KT 9999 FEW011 BKN070 20/18 Q1018,M
SBGR,2025-01-02 04:00,69.80,66.20,88.34,70.00,8.00,0.00,29.97,M,6.21,M,FEW,BKN,M,M,500.00,900.00,M,M,M,M,M,M,M,M,M,69.80,SBGR 020400Z 07008KT 9999 FEW005 BKN009 21/19 Q1015,M
SBAN,2025-01-02 05:00,68.00,68.00,100.00,70.00,5.00,0.00,30.03,M,6.21,M,FEW,BKN,M,M,1100.00,7000.00,M,M,M,M,M,M,M,M,M,68.00,SBAN 020500Z 07005KT 9999 FEW011 BKN070 20/20 Q1017,M
SBGR,2025-01-02 05:00,68.00,66.20,93.97,70.00,8.00,0.00,29.97,M,6.21,M,FEW,M,M,M,500.00,M,M,M,M,M,M,M,M,M,M,68.00,SBGR 020500Z 07008KT 9999 FEW005 20/19 Q1015,M
SBGR,2025-01-02 06:00,66.20,64.40,93.92,70.00,8.00,0.00,29.97,M,6.21,M,M,M,M,M,M,M,M,M,M,M,M,M,M,M,M,66.20,SBGR 020600Z 07008KT CAVOK 19/18 Q1015,M
SBAN,2025-01-02 06:00,68.00,68.00,100.00,70.00,6.00,0.00,30.03,M,6.21,M,FEW,BKN,M,M,2500.00,7000.00,M,M,M,M,M,M,M,M,M,68.00,SBAN 020600Z 07006KT 9999 FEW025 BKN070 20/20 Q1017,M
SBAN,2025-01-02 07:00,68.00,68.00,100.00,60.00,6.00,0.00,30.03,M,6.21,M,FEW,BKN,M,M,2500.00,7000.00,M,M,M,M,M,M,M,M,M,68.00,SBAN 020700Z 06006KT 9999 FEW025 BKN070 20/20 Q1017,M
SBGR,2025-01-02 07:00,66.20,64.40,93.92,70.00,6.00,0.00,29.94,M,6.21,M,SCT,M,M,M,800.00,M,M,M,M,M,M,M,M,M,M,66.20,SBGR 020700Z 07006KT 9999 SCT008 19/18 Q1014,M
SBGR,2025-01-02 08:00,64.40,62.60,93.88,70.00,5.00,0.00,29.94,M,6.21,M,FEW,M,M,M,600.00,M,M,M,M,M,M,M,M,M,M,64.40,SBGR 020800Z 07005KT 9999 FEW006 18/17 Q1014,M
SBAN,2025-01-02 08:00,68.00,68.00,100.00,50.00,4.00,0.00,30.03,M,6.21,M,FEW,BKN,M,M,2500.00,7000.00,M,M,M,M,M,M,M,M,M,68.00,SBAN 020800Z 05004KT 9999 FEW025 BKN070 20/20 Q1017,M
SBGR,2025-01-02 09:00,66.20,64.40,93.92,0.00,0.00,0.00,30.00,M,5.59,M,NSC,M,M,M,M,M,M,M,M,M,M,M,M,M,M,66.20,SBGR 020900Z 00000KT 9000 4000E NSC 19/18 Q1016,M
SBAN,2025-01-02 09:00,66.20,66.20,100.00,30.00,7.00,0.00,30.06,M,6.21,M,SCT,BKN,M,M,2500.00,10000.00,M,M,M,M,M,M,M,M,M,66.20,SBAN 020900Z 03007KT 360V060 9999 SCT025 BKN100 19/19 Q1018,M
SBGR,2025-01-02 10:00,71.60,64.40,78.04,340.00,2.00,0.00,30.00,M,6.21,M,M,M,M,M,M,M,M,M,M,M,M,M,M,M,M,71.60,SBGR 021000Z 34002KT CAVOK 22/18 Q1016,M
SBAN,2025-01-02 10:00,68.00,66.20,93.97,50.00,4.00,0.00,30.09,M,6.21,M,FEW,SCT,BKN,M,1500.00,3000.00,10000.00,M,M,M,M,M,M,M,M,68.00,SBAN 021000Z 05004KT 9999 FEW015 SCT030 BKN100 20/19 Q1019,M
SBGR,2025-01-02 11:00,75.20,64.40,69.14,340.00,10.00,0.00,30.00,M,6.21,M,FEW,M,M,M,2300.00,M,M,M,M,M,M,M,M,M,M,75.20,COR SBGR 021100Z 34010KT 310V010 9999 FEW023 24/18 Q1016 WS R10R,M
SBAN,2025-01-02 11:00,69.80,66.20,88.34,50.00,6.00,0.00,30.09,M,6.21,M,SCT,SCT,BKN,M,700.00,3500.00,10000.00,M,M,M,M,M,M,M,M,69.80,SBAN 021100Z 05006KT 9999 SCT007 SCT035 BKN100 21/19 Q1019,M
SBGR,2025-01-02 12:00,78.80,64.40,61.36,360.00,6.00,0.00,29.97,M,6.21,M,FEW,M,M,M,3000.00,M,M,M,M,M,M,M,M,M,M,78.80,SBGR 021200Z 36006KT 300V100 9999 FEW030 26/18 Q1015,M
SBAN,2025-01-02 12:00,71.60,68.00,88.43,10.00,6.00,0.00,30.12,M,6.21,M,FEW,SCT,BKN,M,700.00,4000.00,10000.00,M,M,M,M,M,M,M,M,71.60,SBAN 021200Z 01006KT 9999 FEW007 SCT040 BKN100 22/20 Q1020,M
SBGR,2025-01-02 13:00,80.60,64.40,57.84,340.00,9.00,0.00,29.97,M,6.21,M,SCT,M,M,M,3300.00,M,M,M,M,M,M,M,M,M,M,82.27,SBGR 021300Z 34009KT 290V020 9999 SCT033 27/18 Q1015,M
SBAN,2025-01-02 13:00,73.40,66.20,78.19,330.00,4.00,0.00,30.15,M,6.21,M,BKN,FEW,SCT,BKN,900.00,3500.00,4000.00,8000.00,M,M,M,M,M,M,M,73.40,SBAN 021300Z 33004KT 9999 BKN009 FEW035TCU SCT040 BKN080 23/19 Q1021,M
SBAN,2025-01-02 13:04,73.40,66.20,78.19,330.00,8.00,0.00,30.15,M,6.21,19.00,BKN,FEW,SCT,BKN,900.00,3500.00,4000.00,8000.00,M,M,M,M,M,M,M,73.40,SBAN 021304Z 33008G19KT 9999 BKN009 FEW035TCU SCT040 BKN080 23/19 Q1021,M
SBGR,2025-01-02 14:00,84.20,64.40,51.47,300.00,12.00,0.00,29.97,M,6.21,M,M,M,M,M,M,M,M,M,M,M,M,M,M,M,M,85.71,SBGR 021400Z 30012KT CAVOK 29/18 Q1015,M
SBAN,2025-01-02 14:00,75.20,66.20,73.61,320.00,6.00,0.00,30.12,M,6.21,16.00,BKN,SCT,FEW,BKN,1200.00,2000.00,3000.00,8000.00,VCSH,M,M,M,M,M,M,75.20,SBAN 021400Z 32006G16KT 9999 VCSH BKN012 SCT020 FEW030TCU BKN080 24/19 Q1020,M
SBGR,2025-01-02 15:00,86.00,64.40,48.58,330.00,9.00,0.00,29.94,M,6.21,M,FEW,M,M,M,4700.00,M,M,M,M,M,M,M,M,M,M,87.49,SBGR 021500Z 33009KT 290V010 9999 FEW047 30/18 Q1014,M
SBAN,2025-01-02 15:00,77.00,68.00,73.78,320.00,5.00,0.00,30.12,M,6.21,M,BKN,SCT,BKN,M,1500.00,2500.00,8000.00,M,M,M,M,M,M,M,M,77.00,SBAN 021500Z 32005KT 9999 BKN015 SCT025 BKN080 25/20 Q1020,M
SBAN,2025-01-02 16:00,78.80,66.20,65.33,340.00,6.00,0.00,30.09,M,6.21,M,SCT,SCT,M,M,1800.00,10000.00,M,M,M,M,M,M,M,M,M,78.80,SBAN 021600Z 34006KT 9999 SCT018 SCT100 26/19 Q1019,M
SBGR,2025-01-02 16:00,87.80,60.80,40.41,330.00,10.00,0.00,29.91,M,6.21,M,SCT,M,M,M,4900.00,M,M,M,M,M,M,M,M,M,M,87.75,SBGR 021600Z 33010KT 280V360 9999 SCT049 31/16 Q1013,M
SBAN,2025-01-02 17:00,78.80,62.60,57.60,310.00,6.00,0.00,30.06,M,6.21,M,SCT,SCT,M,M,3000.00,10000.00,M,M,M,M,M,M,M,M,M,78.80,SBAN 021700Z 31006KT 9999 SCT030 SCT100 26/17 Q1018,M
SBGR,2025-01-02 17:00,87.80,60.80,40.41,280.00,14.00,0.00,29.88,M,6.21,M,M,M,M,M,M,M,M,M,M,M,M,M,M,M,M,87.75,SBGR 021700Z 28014KT CAVOK 31/16 Q1012,M
SBAN,2025-01-02 18:00,78.80,64.40,61.36,330.00,6.00,0.00,30.03,M,6.21,M,SCT,SCT,M,M,2000.00,10000.00,M,M,M,M,M,M,M,M,M,78.80,SBAN 021800Z 33006KT 9999 SCT020 SCT100 26/18 Q1017,M
SBGR,2025-01-02 18:00,87.80,62.60,43.07,290.00,13.00,0.00,29.88,M,6.21,M,M,M,M,M,M,M,M,M,M,M,M,M,M,M,M,88.48,SBGR 021800Z 29013KT CAVOK 31/17 Q1012,M
SBGR,2025-01-02 19:00,89.60,62.60,40.69,300.00,11.00,0.00,29.85,M,6.21,M,SCT,FEW,M,M,5000.00,5000.00,M,M,M,M,M,M,M,M,M,90.32,SBGR 021900Z 30011KT 9999 SCT050 FEW050TCU 32/17 Q1011,M
SBAN,2025-01-02 19:00,78.80,64.40,61.36,330.00,5.00,0.00,30.00,M,6.21,M,SCT,SCT,M,M,2000.00,10000.00,M,M,M,M,M,M,M,M,M,78.80,SBAN 021900Z 33005KT 9999 SCT020 SCT100 26/18 Q1016,M
SBAN,2025-01-02 20:00,77.00,64.40,65.12,330.00,3.00,0.00,30.00,M,6.21,M,FEW,FEW,SCT,M,2500.00,3000.00,10000.00,M,M,M,M,M,M,M,M,77.00,SBAN 022000Z 33003KT 9999 FEW025 FEW030TCU SCT100 25/18 Q1016,M
SBGR,2025-01-02 20:00,86.00,62.60,45.61,300.00,10.00,0.00,29.83,M,6.21,M,SCT,FEW,M,M,5000.00,5000.00,M,M,M,M,M,M,M,M,M,86.72,SBGR 022000Z 30010KT 9999 SCT050 FEW050TCU 30/17 Q1010,M
SBGR,2025-01-02 21:00,84.20,64.40,51.47,300.00,7.00,0.00,29.85,M,6.21,M,FEW,BKN,M,M,4000.00,7000.00,M,M,M,M,M,M,M,M,M,85.71,SBGR 022100Z 30007KT 9999 FEW040TCU BKN070 29/18 Q1011,M
SBAN,2025-01-02 21:00,75.20,66.20,73.61,320.00,2.00,0.00,30.00,M,6.21,M,FEW,FEW,SCT,M,3000.00,3500.00,10000.00,M,M,M,M,M,M,M,M,75.20,SBAN 022100Z 32002KT 9999 FEW030 FEW035TCU SCT100 24/19 Q1016,M
SBAN,2025-01-02 22:00,71.60,66.20,83.09,M,2.00,0.00,30.03,M,6.21,M,FEW,FEW,SCT,M,3000.00,3500.00,10000.00,M,M,M,M,M,M,M,M,71.60,SBAN 022200Z VRB02KT 9999 FEW030 FEW035TCU SCT100 22/19 Q1017,M
SBGR,2025-01-02 22:00,80.60,66.20,61.58,300.00,3.00,0.00,29.88,M,6.21,M,FEW,BKN,M,M,4000.00,7000.00,M,M,M,M,M,M,M,M,M,82.75,SBGR 022200Z 30003KT 9999 FEW040TCU BKN070 27/19 Q1012,M
SBGR,2025-01-02 22:36,78.80,62.60,57.60,10.00,8.00,0.00,29.88,M,5.59,M,BKN,BKN,SCT,BKN,3000.00,4300.00,5000.00,8300.00,TS,M,M,M,M,M,M,78.80,SBGR 022236Z 01008KT 9000 TS BKN030 BKN043 SCT050CB BKN083 26/17 Q1012,M
SBAN,2025-01-02 23:00,69.80,66.20,88.34,M,1.00,0.00,30.03,M,6.21,M,FEW,FEW,SCT,M,3000.00,3500.00,10000.00,M,VCTS,M,M,M,M,M,M,69.80,SBAN 022300Z VRB01KT 9999 VCTS FEW030 FEW035CB SCT100 21/19 Q1017,M
SBGR,2025-01-02 23:00,75.20,64.40,69.14,20.00,12.00,0.00,29.94,M,5.59,M,BKN,FEW,M,M,3000.00,4000.00,M,M,TS VCSH,M,M,M,M,M,M,75.20,SBGR 022300Z 02012KT 9000 TS VCSH BKN030 FEW040CB 24/18 Q1014,M
SBGR,2025-01-03 00:00,71.60,66.20,83.09,70.00,8.00,0.00,29.97,M,6.21,M,FEW,BKN,M,M,4000.00,8000.00,M,M,TS VCSH,M,M,M,M,M,M,71.60,SBGR 030000Z 07008KT 9999 TS VCSH FEW040CB BKN080 22/19 Q1015,M
SBAN,2025-01-03 00:00,68.00,66.20,93.97,0.00,0.00,0.00,30.06,M,6.21,M,FEW,SCT,M,M,3000.00,10000.00,M,M,M,M,M,M,M,M,M,68.00,SBAN 030000Z 00000KT 9999 FEW030 SCT100 20/19 Q1018,M
SBGR,2025-01-03 00:25,71.60,66.20,83.09,130.00,4.00,0.00,29.94,M,6.21,M,FEW,BKN,M,M,4000.00,7000.00,M,M,M,M,M,M,M,M,M,71.60,SBGR 030025Z 13004KT 9999 FEW040TCU BKN070 22/19 Q1014 RETS,M
SBAN,2025-01-03 01:00,66.20,66.20,100.00,0.00,0.00,0.00,30.09,M,6.21,M,FEW,SCT,M,M,3000.00,10000.00,M,M,M,M,M,M,M,M,M,66.20,SBAN 030100Z 00000KT 9999 FEW030 SCT100 19/19 Q1019,M
SBGR,2025-01-03 01:00,69.80,68.00,94.01,160.00,3.00,0.00,29.97,M,6.21,M,NSC,M,M,M,M,M,M,M,-RA,M,M,M,M,M,M,69.80,SBGR 030100Z 16003KT 9999 -RA NSC 21/20 Q1015 RETS,M
SBGR,2025-01-03 02:00,69.80,68.00,94.01,130.00,3.00,0.00,29.97,M,6.21,M,M,M,M,M,M,M,M,M,M,M,M,M,M,M,M,69.80,SBGR 030200Z 13003KT CAVOK 21/20 Q1015,M
SBAN,2025-01-03 02:00,68.00,66.20,93.97,310.00,2.00,0.00,30.12,M,6.21,M,FEW,BKN,M,M,2500.00,7000.00,M,M,M,M,M,M,M,M,M,68.00,SBAN 030200Z 31002KT 9999 FEW025 BKN070 20/19 Q1020,M
SBAN,2025-01-03 03:00,66.20,66.20,100.00,330.00,1.00,0.00,30.09,M,6.21,M,FEW,FEW,BKN,M,2500.00,3500.00,7000.00,M,M,M,M,M,M,M,M,66.20,SBAN 030300Z 33001KT 9999 FEW025 FEW035TCU BKN070 19/19 Q1019,M
SBGR,2025-01-03 03:00,69.80,66.20,88.34,70.00,5.00,0.00,29.97,M,6.21,M,FEW,BKN,M,M,1300.00,10000.00,M,M,M,M,M,M,M,M,M,69.80,SBGR 030300Z 07005KT 9999 FEW013 BKN100 21/19 Q1015,M
SBGR,2025-01-03 04:00,69.80,66.20,88.34,20.00,9.00,0.00,29.94,M,6.21,M,M,M,M,M,M,M,M,M,M,M,M,M,M,M,M,69.80,SBGR 030400Z 02009KT CAVOK 21/19 Q1014,M
SBAN,2025-01-03 04:00,66.20,64.40,93.92,320.00,2.00,0.00,30.12,M,6.21,M,FEW,SCT,M,M,1000.00,10000.00,M,M,M,M,M,M,M,M,M,66.20,SBAN 030400Z 32002KT 9999 FEW010 SCT100 19/18 Q1020,M
SBAN,2025-01-03 05:00,66.20,66.20,100.00,300.00,2.00,0.00,30.12,M,6.21,M,FEW,SCT,M,M,1000.00,10000.00,M,M,M,M,M,M,M,M,M,66.20,SBAN 030500Z 30002KT 9999 FEW010 SCT100 19/19 Q1020,M
SBGR,2025-01-03 05:00,69.80,66.20,88.34,90.00,3.00,0.00,29.88,M,6.21,M,M,M,M,M,M,M,M,M,M,M,M,M,M,M,M,69.80,SBGR 030500Z 09003KT CAVOK 21/19 Q1012,M
SBGR,2025-01-03 06:00,69.80,66.20,88.34,80.00,2.00,0.00,29.88,M,6.21,M,M,M,M,M,M,M,M,M,M,M,M,M,M,M,M,69.80,SBGR 030600Z 08002KT CAVOK 21/19 Q1012,M
SBAN,2025-01-03 06:00,64.40,64.40,100.00,320.00,2.00,0.00,30.06,M,6.21,M,FEW,SCT,M,M,1000.00,10000.00,M,M,M,M,M,M,M,M,M,64.40,SBAN 030600Z 32002KT 9999 FEW010 SCT100 18/18 Q1018,M
SBAN,2025-01-03 07:00,64.40,64.40,100.00,310.00,2.00,0.00,30.06,M,6.21,M,FEW,SCT,M,M,800.00,10000.00,M,M,M,M,M,M,M,M,M,64.40,SBAN 030700Z 31002KT 9999 FEW008 SCT100 18/18 Q1018,M
SBGR,2025-01-03 07:00,68.00,66.20,93.97,90.00,4.00,0.00,29.88,M,6.21,M,M,M,M,M,M,M,M,M,M,M,M,M,M,M,M,68.00,SBGR 030700Z 09004KT CAVOK 20/19 Q1012,M
SBGR,2025-01-03 08:00,69.80,62.60,77.90,40.00,2.00,0.00,29.88,M,6.21,M,M,M,M,M,M,M,M,M,M,M,M,M,M,M,M,69.80,SBGR 030800Z 04002KT CAVOK 21/17 Q1012,M
SBAN,2025-01-03 08:00,64.40,64.40,100.00,310.00,2.00,0.00,30.06,M,6.21,M,FEW,SCT,M,M,1000.00,10000.00,M,M,M,M,M,M,M,M,M,64.40,SBAN 030800Z 31002KT 9999 FEW010 SCT100 18/18 Q1018,M
SBGR,2025-01-03 09:00,69.80,64.40,82.98,20.00,6.00,0.00,29.88,M,6.21,M,M,M,M,M,M,M,M,M,M,M,M,M,M,M,M,69.80,SBGR 030900Z 02006KT CAVOK 21/18 Q1012,M
SBAN,2025-01-03 09:00,66.20,66.20,100.00,350.00,2.00,0.00,30.06,M,0.50,M,BKN,M,M,M,200.00,M,M,M,FG,M,M,M,M,M,M,66.20,SBAN 030900Z 35002KT 0800 R06L/P2000 R24R/P2000 FG BKN002 19/19 Q1018,M
SBGR,2025-01-03 10:00,71.60,64.40,78.04,330.00,4.00,0.00,29.91,M,6.21,M,M,M,M,M,M,M,M,M,M,M,M,M,M,M,M,71.60,SBGR 031000Z 33004KT CAVOK 22/18 Q1013,M
SBAN,2025-01-03 10:00,66.20,66.20,100.00,320.00,2.00,0.00,30.09,M,6.21,M,SCT,SCT,M,M,200.00,7000.00,M,M,BCFG,M,M,M,M,M,M,66.20,SBAN 031000Z 32002KT 9999 3000N BCFG SCT002 SCT070 19/19 Q1019,M
SBGR,2025-01-03 11:00,77.00,64.40,65.12,310.00,5.00,0.00,29.94,M,6.21,M,FEW,M,M,M,4000.00,M,M,M,M,M,M,M,M,M,M,77.00,SBGR 031100Z 31005KT 9999 FEW040 25/18 Q1014,M
SBAN,2025-01-03 11:00,69.80,68.00,94.01,330.00,3.00,0.00,30.12,M,6.21,M,SCT,SCT,M,M,400.00,1000.00,M,M,M,M,M,M,M,M,M,69.80,SBAN 031100Z 33003KT 9999 SCT004 SCT010 21/20 Q1020,M
SBAN,2025-01-03 12:00,69.80,66.20,88.34,330.00,5.00,0.00,30.15,M,6.21,M,BKN,SCT,FEW,M,700.00,1500.00,2000.00,M,VCSH,M,M,M,M,M,M,69.80,SBAN 031200Z 33005KT 9999 VCSH BKN007 SCT015 FEW020TCU 21/19 Q1021,M
SBGR,2025-01-03 12:00,78.80,66.20,65.33,320.00,12.00,0.00,29.94,M,6.21,23.00,SCT,M,M,M,2000.00,M,M,M,M,M,M,M,M,M,M,78.80,SBGR 031200Z 32012G23KT 9999 SCT020 26/19 Q1014,M
SBAN,2025-01-03 13:00,71.60,69.80,94.06,320.00,4.00,0.00,30.15,M,6.21,M,FEW,BKN,FEW,M,500.00,700.00,2000.00,M,SHRA,M,M,M,M,M,M,71.60,SBAN 031300Z 32004KT 9999 4000N SHRA FEW005 BKN007 FEW020TCU 22/21 Q1021,M
SBGR,2025-01-03 13:00,80.60,66.20,61.58,330.00,13.00,0.00,29.91,M,6.21,M,SCT,M,M,M,3000.00,M,M,M,M,M,M,M,M,M,M,82.75,SBGR 031300Z 33013KT 9999 SCT030 27/19 Q1013,M
SBAN,2025-01-03 13:06,68.00,68.00,100.00,330.00,5.00,0.00,30.15,M,6.21,M,BKN,SCT,FEW,M,300.00,1500.00,2000.00,M,SHRA,M,M,M,M,M,M,68.00,SBAN 031306Z 33005KT 9999 4000N SHRA BKN003 SCT015 FEW020TCU 20/20 Q1021,M
SBGR,2025-01-03 14:00,82.40,68.00,61.81,310.00,11.00,0.00,29.91,M,6.21,M,BKN,M,M,M,3500.00,M,M,M,M,M,M,M,M,M,M,85.38,SBGR 031400Z 31011KT 9999 BKN035 28/20 Q1013,M
SBAN,2025-01-03 14:00,68.00,68.00,100.00,340.00,5.00,0.00,30.15,M,6.21,M,BKN,SCT,M,M,400.00,2000.00,M,M,VCSH,M,M,M,M,M,M,68.00,SBAN 031400Z 34005KT 9999 VCSH BKN004 SCT020 20/20 Q1021 RESHRA,M
SBAN,2025-01-03 14:06,69.80,68.00,94.01,340.00,5.00,0.00,30.12,M,6.21,M,FEW,SCT,M,M,500.00,1500.00,M,M,M,M,M,M,M,M,M,69.80,SBAN 031406Z 34005KT 9999 FEW005 SCT015 21/20 Q1020,M
SBAN,2025-01-03 15:00,75.20,66.20,73.61,330.00,5.00,0.00,30.12,M,6.21,15.00,FEW,SCT,M,M,1500.00,3000.00,M,M,M,M,M,M,M,M,M,75.20,SBAN 031500Z 33005G15KT 9999 FEW015 SCT030 24/19 Q1020,M
SBGR,2025-01-03 15:00,84.20,66.20,54.80,320.00,12.00,0.00,29.91,M,6.21,M,BKN,M,M,M,4000.00,M,M,M,M,M,M,M,M,M,M,86.50,SBGR 031500Z 32012KT 9999 BKN040 29/19 Q1013,M
SBAN,2025-01-03 16:00,78.80,66.20,65.33,330.00,5.00,0.00,30.09,M,6.21,M,FEW,FEW,M,M,2000.00,3000.00,M,M,M,M,M,M,M,M,M,78.80,SBAN 031600Z 33005KT 9999 FEW020 FEW030TCU 26/19 Q1019,M
SBGR,2025-01-03 16:00,86.00,68.00,55.04,290.00,12.00,0.00,29.88,M,6.21,M,BKN,M,M,M,4000.00,M,M,M,M,M,M,M,M,M,M,89.41,SBGR 031600Z 29012KT 9999 BKN040 30/20 Q1012,M
SBAN,2025-01-03 17:00,80.60,66.20,61.58,340.00,5.00,0.00,30.06,M,6.21,M,SCT,SCT,M,M,2000.00,7000.00,M,M,M,M,M,M,M,M,M,82.75,SBAN 031700Z 34005KT 9999 SCT020 SCT070 27/19 Q1018,M
SBGR,2025-01-03 17:00,86.00,66.20,51.72,270.00,9.00,0.00,29.85,M,6.21,M,BKN,M,M,M,4400.00,M,M,M,M,M,M,M,M,M,M,88.39,SBGR 031700Z 27009KT 240V320 9999 BKN044 30/19 Q1011,M
SBGR,2025-01-03 18:00,86.00,68.00,55.04,310.00,13.00,0.00,29.85,M,6.21,M,BKN,M,M,M,4500.00,M,M,M,M,M,M,M,M,M,M,89.41,SBGR 031800Z 31013KT 280V340 9999 BKN045 30/20 Q1011,M
SBAN,2025-01-03 18:00,80.60,66.20,61.58,330.00,4.00,0.00,30.00,M,6.21,M,SCT,M,M,M,2500.00,M,M,M,M,M,M,M,M,M,M,82.75,SBAN 031800Z 33004KT 9999 SCT025 27/19 Q1016,M
SBGR,2025-01-03 18:17,82.40,68.00,61.81,330.00,17.00,0.00,29.85,M,6.21,M,SCT,FEW,BKN,M,3500.00,5000.00,6600.00,M,TS,M,M,M,M,M,M,85.38,COR SBGR 031817Z 33017KT 9999 TS SCT035 FEW050CB BKN066 28/20 Q1011,M
SBGR,2025-01-03 18:28,80.60,68.00,65.54,330.00,19.00,0.00,29.85,M,6.21,31.00,SCT,FEW,BKN,M,3500.00,5000.00,6600.00,M,-TSRA,M,M,M,M,M,M,83.29,SBGR 031828Z 33019G31KT 9999 3000NW -TSRA SCT035 FEW050CB BKN066 27/20 Q1011,M
SBGR,2025-01-03 19:00,73.40,62.60,68.94,320.00,15.00,0.00,29.83,M,6.21,28.00,SCT,FEW,BKN,M,3200.00,5000.00,6600.00,M,-TSRA,M,M,M,M,M,M,73.40,SBGR 031900Z 32015G28KT 290V350 9999 -TSRA SCT032 FEW050CB BKN066 23/17 Q1010,M
SBAN,2025-01-03 19:00,80.60,66.20,61.58,350.00,3.00,0.00,29.97,M,6.21,M,SCT,M,M,M,3000.00,M,M,M,M,M,M,M,M,M,M,82.75,SBAN 031900Z 35003KT 9999 SCT030 27/19 Q1015,M
SBGR,2025-01-03 19:30,75.20,68.00,78.34,240.00,6.00,0.00,29.83,M,6.21,M,BKN,BKN,M,M,4300.00,10000.00,M,M,M,M,M,M,M,M,M,75.20,SBGR 031930Z 24006KT 9999 BKN043 BKN100 24/20 Q1010 RETS,M
SBAN,2025-01-03 20:00,80.60,66.20,61.58,330.00,3.00,0.00,29.97,M,6.21,M,SCT,SCT,M,M,3500.00,7000.00,M,M,M,M,M,M,M,M,M,82.75,SBAN 032000Z 33003KT 9999 SCT035 SCT070 27/19 Q1015,M
SBGR,2025-01-03 20:00,77.00,69.80,78.48,270.00,6.00,0.00,29.83,M,6.21,M,BKN,BKN,M,M,4300.00,10000.00,M,M,M,M,M,M,M,M,M,77.00,SBGR 032000Z 27006KT 9999 BKN043 BKN100 25/21 Q1010 RETS,M
SBGR,2025-01-03 21:00,77.00,68.00,73.78,20.00,1.00,0.00,29.83,M,6.21,M,M,M,M,M,M,M,M,M,M,M,M,M,M,M,M,77.00,SBGR 032100Z 02001KT CAVOK 25/20 Q1010,M
SBAN,2025-01-03 21:00,77.00,64.40,65.12,320.00,2.00,0.00,29.97,M,6.21,M,FEW,FEW,SCT,M,3000.00,3500.00,7000.00,M,M,M,M,M,M,M,M,77.00,SBAN 032100Z 32002KT 9999 FEW030 FEW035TCU SCT070 25/18 Q1015,M
SBAN,2025-01-03 22:00,75.20,68.00,78.34,10.00,2.00,0.00,30.00,M,6.21,M,FEW,FEW,SCT,M,4000.00,4500.00,10000.00,M,M,M,M,M,M,M,M,75.20,SBAN 032200Z 01002KT 9999 FEW040 FEW045TCU SCT100 24/20 Q1016,M
SBGR,2025-01-03 22:00,77.00,68.00,73.78,360.00,5.00,0.00,29.85,M,6.21,M,M,M,M,M,M,M,M,M,M,M,M,M,M,M,M,77.00,SBGR 032200Z 36005KT 340V040 CAVOK 25/20 Q1011,M
SBGR,2025-01-03 23:00,75.20,68.00,78.34,30.00,7.00,0.00,29.85,M,6.21,M,M,M,M,M,M,M,M,M,M,M,M,M,M,M,M,75.20,SBGR 032300Z 03007KT CAVOK 24/20 Q1011,M
SBAN,2025-01-03 23:00,73.40,68.00,83.21,350.00,1.00,0.00,30.00,M,6.21,M,FEW,FEW,SCT,M,4000.00,4500.00,10000.00,M,M,M,M,M,M,M,M,73.40,SBAN 032300Z 35001KT 9999 FEW040 FEW045TCU SCT100 23/20 Q1016,M
SBGR,2025-01-04 00:00,75.20,68.00,78.34,360.00,6.00,0.00,29.88,M,6.21,M,M,M,M,M,M,M,M,M,M,M,M,M,M,M,M,75.20,SBGR 040000Z 36006KT 320V050 CAVOK 24/20 Q1012,M
SBAN,2025-01-04 00:00,69.80,69.80,100.00,0.00,0.00,0.00,30.03,M,6.21,M,FEW,FEW,SCT,M,2000.00,3000.00,10000.00,M,M,M,M,M,M,M,M,69.80,SBAN 040000Z 00000KT 9999 FEW020 FEW030TCU SCT100 21/21 Q1017,M
SBGR,2025-01-04 01:00,75.20,66.20,73.61,360.00,6.00,0.00,29.91,M,6.21,M,M,M,M,M,M,M,M,M,M,M,M,M,M,M,M,75.20,SBGR 040100Z 36006KT CAVOK 24/19 Q1013,M
SBAN,2025-01-04 01:00,69.80,69.80,100.00,310.00,1.00,0.00,30.06,M,6.21,M,FEW,FEW,SCT,M,4000.00,4500.00,7000.00,M,M,M,M,M,M,M,M,69.80,SBAN 040100Z 31001KT 9999 FEW040 FEW045TCU SCT070 21/21 Q1018,M
SBGR,2025-01-04 02:00,75.20,66.20,73.61,40.00,5.00,0.00,29.91,M,6.21,M,M,M,M,M,M,M,M,M,M,M,M,M,M,M,M,75.20,SBGR 040200Z 04005KT CAVOK 24/19 Q1013,M
SBAN,2025-01-04 02:00,69.80,69.80,100.00,190.00,5.00,0.00,30.09,M,6.21,M,FEW,FEW,SCT,M,2000.00,3000.00,7000.00,M,VCTS,M,M,M,M,M,M,69.80,SBAN 040200Z 19005KT 9999 VCTS FEW020 FEW030CB SCT070 21/21 Q1019,M
SBGR,2025-01-04 03:00,73.40,66.20,78.19,320.00,3.00,0.00,29.91,M,6.21,M,M,M,M,M,M,M,M,M,M,M,M,M,M,M,M,73.40,SBGR 040300Z 32003KT CAVOK 23/19 Q1013,M
SBAN,2025-01-04 03:00,68.00,68.00,100.00,150.00,3.00,0.00,30.09,M,6.21,M,SCT,FEW,SCT,M,2000.00,3000.00,7000.00,M,VCTS,M,M,M,M,M,M,68.00,SBAN 040300Z 15003KT 9999 VCTS SCT020 FEW030CB SCT070 20/20 Q1019,M
SBAN,2025-01-04 04:00,69.80,69.80,100.00,180.00,5.00,0.00,30.09,M,6.21,M,FEW,SCT,M,M,2000.00,10000.00,M,M,M,M,M,M,M,M,M,69.80,SBAN 040400Z 18005KT 9999 FEW020 SCT100 21/21 Q1019,M
SBGR,2025-01-04 04:00,73.40,66.20,78.19,310.00,4.00,0.00,29.88,M,6.21,M,M,M,M,M,M,M,M,M,M,M,M,M,M,M,M,73.40,SBGR 040400Z 31004KT CAVOK 23/19 Q1012,M
SBGR,2025-01-04 05:00,71.60,64.40,78.04,310.00,6.00,0.00,29.85,M,6.21,M,M,M,M,M,M,M,M,M,M,M,M,M,M,M,M,71.60,SBGR 040500Z 31006KT CAVOK 22/18 Q1011 WS R10L,M
SBAN,2025-01-04 05:00,69.80,69.80,100.00,140.00,4.00,0.00,30.09,M,6.21,M,FEW,SCT,M,M,2000.00,10000.00,M,M,M,M,M,M,M,M,M,69.80,SBAN 040500Z 14004KT 9999 FEW020 SCT100 21/21 Q1019,M
SBGR,2025-01-04 06:00,71.60,64.40,78.04,310.00,6.00,0.00,29.85,M,6.21,M,M,M,M,M,M,M,M,M,M,M,M,M,M,M,M,71.60,SBGR 040600Z 31006KT CAVOK 22/18 Q1011,M
SBAN,2025-01-04 06:00,68.00,68.00,100.00,130.00,5.00,0.00,30.09,M,6.21,M,SCT,SCT,M,M,2000.00,10000.00,M,M,M,M,M,M,M,M,M,68.00,SBAN 040600Z 13005KT 9999 SCT020 SCT100 20/20 Q1019,M
SBAN,2025-01-04 07:00,68.00,68.00,100.00,180.00,5.00,0.00,30.09,M,6.21,M,SCT,SCT,M,M,2000.00,10000.00,M,M,M,M,M,M,M,M,M,68.00,SBAN 040700Z 18005KT 9999 SCT020 SCT100 20/20 Q1019,M
SBGR,2025-01-04 07:00,71.60,64.40,78.04,0.00,0.00,0.00,29.85,M,6.21,M,M,M,M,M,M,M,M,M,M,M,M,M,M,M,M,71.60,SBGR 040700Z 00000KT CAVOK 22/18 Q1011,M
SBAN,2025-01-04 08:00,66.20,66.20,100.00,170.00,6.00,0.00,30.09,M,6.21,M,SCT,BKN,M,M,2000.00,10000.00,M,M,M,M,M,M,M,M,M,66.20,SBAN 040800Z 17006KT 9999 SCT020 BKN100 19/19 Q1019,M
SBGR,2025-01-04 08:00,73.40,64.40,73.44,350.00,6.00,0.00,29.88,M,6.21,16.00,FEW,FEW,BKN,M,2300.00,4500.00,8300.00,M,VCTS,M,M,M,M,M,M,73.40,SBGR 040800Z 35006G16KT 9999 VCTS FEW023 FEW045CB BKN083 23/18 Q1012,M
SBGR,2025-01-04 09:00,71.60,64.40,78.04,280.00,4.00,0.00,29.88,M,6.21,M,BKN,FEW,BKN,M,1700.00,4500.00,8300.00,M,VCTS,M,M,M,M,M,M,71.60,SBGR 040900Z 28004KT 9999 VCTS BKN017 FEW045CB BKN083 22/18 Q1012,M
SBAN,2025-01-04 09:00,68.00,68.00,100.00,340.00,1.00,0.00,30.03,M,6.21,M,FEW,M,M,M,4000.00,M,M,M,M,M,M,M,M,M,M,68.00,SBAN 040900Z 34001KT 9999 FEW040 20/20 Q1017,M
SBGR,2025-01-04 10:00,71.60,66.20,83.09,340.00,7.00,0.00,29.91,M,6.21,M,SCT,M,M,M,1500.00,M,M,M,M,M,M,M,M,M,M,71.60,SBGR 041000Z 34007KT 9999 SCT015 22/19 Q1013,M
SBAN,2025-01-04 10:00,69.80,69.80,100.00,0.00,0.00,0.00,30.06,M,6.21,M,FEW,M,M,M,4000.00,M,M,M,M,M,M,M,M,M,M,69.80,SBAN 041000Z 00000KT 9999 FEW040 21/21 Q1018,M
SBAN,2025-01-04 11:00,71.60,69.80,94.06,320.00,2.00,0.00,30.06,M,6.21,M,M,M,M,M,M,M,M,M,M,M,M,M,M,M,M,71.60,SBAN 041100Z 32002KT CAVOK 22/21 Q1018,M
SBGR,2025-01-04 11:00,75.20,66.20,73.61,330.00,4.00,0.00,29.91,M,6.21,M,SCT,M,M,M,1900.00,M,M,M,M,M,M,M,M,M,M,75.20,SBGR 041100Z 33004KT 9999 SCT019 24/19 Q1013,M
SBGR,2025-01-04 12:00,78.80,66.20,65.33,320.00,9.00,0.00,29.91,M,6.21,M,SCT,M,M,M,2000.00,M,M,M,M,M,M,M,M,M,M,78.80,SBGR 041200Z 32009KT 9999 SCT020 26/19 Q1013,M
SBAN,2025-01-04 12:00,77.00,68.00,73.78,320.00,3.00,0.00,30.06,M,6.21,M,FEW,BKN,M,M,2000.00,10000.00,M,M,M,M,M,M,M,M,M,77.00,SBAN 041200Z 32003KT 9999 FEW020 BKN100 25/20 Q1018,M
SBAN,2025-01-04 13:00,78.80,68.00,69.52,M,3.00,0.00,30.06,M,6.21,M,SCT,BKN,M,M,2000.00,10000.00,M,M,M,M,M,M,M,M,M,78.80,SBAN 041300Z VRB03KT 9999 SCT020 BKN100 26/20 Q1018,M
SBGR,2025-01-04 13:00,78.80,66.20,65.33,320.00,8.00,0.00,29.91,M,6.21,M,BKN,M,M,M,2500.00,M,M,M,M,M,M,M,M,M,M,78.80,SBGR 041300Z 32008KT 9999 BKN025 26/19 Q1013,M
SBGR,2025-01-04 14:00,82.40,66.20,58.08,300.00,11.00,0.00,29.91,M,6.21,M,BKN,M,M,M,3000.00,M,M,M,M,M,M,M,M,M,M,84.63,SBGR 041400Z 30011KT 9999 BKN030 28/19 Q1013,M
SBAN,2025-01-04 14:00,80.60,66.20,61.58,M,4.00,0.00,30.06,M,6.21,M,SCT,SCT,M,M,2500.00,10000.00,M,M,M,M,M,M,M,M,M,82.75,SBAN 041400Z VRB04KT 9999 SCT025 SCT100 27/19 Q1018,M
SBAN,2025-01-04 15:00,82.40,66.20,58.08,M,4.00,0.00,30.03,M,6.21,M,BKN,M,M,M,3000.00,M,M,M,M,M,M,M,M,M,M,84.63,SBAN 041500Z VRB04KT 9999 BKN030 28/19 Q1017,M
SBGR,2025-01-04 15:00,80.60,66.20,61.58,290.00,9.00,0.00,29.88,M,6.21,M,BKN,M,M,M,3000.00,M,M,M,M,M,M,M,M,M,M,82.75,SBGR 041500Z 29009KT 9999 BKN030 27/19 Q1012,M
SBAN,2025-01-04 16:00,82.40,66.20,58.08,M,3.00,0.00,30.00,M,6.21,M,BKN,FEW,M,M,3000.00,3500.00,M,M,VCSH,M,M,M,M,M,M,84.63,SBAN 041600Z VRB03KT 9999 VCSH BKN030 FEW035TCU 28/19 Q1016,M
SBGR,2025-01-04 16:00,84.20,68.00,58.32,310.00,10.00,0.00,29.88,M,6.21,M,BKN,M,M,M,3500.00,M,M,M,M,M,M,M,M,M,M,87.40,SBGR 041600Z 31010KT 9999 BKN035 29/20 Q1012,M
SBAN,2025-01-04 17:00,78.80,68.00,69.52,260.00,5.00,0.00,30.00,M,6.21,M,SCT,FEW,SCT,M,3000.00,3500.00,10000.00,M,VCSH,M,M,M,M,M,M,78.80,SBAN 041700Z 26005KT 180V350 9999 VCSH SCT030 FEW035TCU SCT100 26/20 Q1016,M
SBGR,2025-01-04 17:00,86.00,68.00,55.04,300.00,11.00,0.00,29.85,M,6.21,M,BKN,M,M,M,4000.00,M,M,M,M,M,M,M,M,M,M,89.41,SBGR 041700Z 30011KT 9999 BKN040 30/20 Q1011,M
SBAN,2025-01-04 18:00,75.20,66.20,73.61,M,4.00,0.00,30.00,M,6.21,M,FEW,FEW,SCT,M,3000.00,3500.00,10000.00,M,VCTS VCSH,M,M,M,M,M,M,75.20,SBAN 041800Z VRB04KT 9999 VCTS VCSH FEW030 FEW035CB SCT100 24/19 Q1016,M
SBGR,2025-01-04 18:00,84.20,66.20,54.80,320.00,11.00,0.00,29.85,M,6.21,M,SCT,FEW,M,M,3500.00,4000.00,M,M,M,M,M,M,M,M,M,86.50,SBGR 041800Z 32011KT 9999 SCT035 FEW040TCU 29/19 Q1011,M
SBGR,2025-01-04 19:00,82.40,66.20,58.08,290.00,11.00,0.00,29.83,M,6.21,M,SCT,FEW,M,M,3500.00,4000.00,M,M,M,M,M,M,M,M,M,84.63,SBGR 041900Z 29011KT 9999 SCT035 FEW040TCU 28/19 Q1010,M
SBAN,2025-01-04 19:00,73.40,66.20,78.19,330.00,3.00,0.00,29.97,M,6.21,M,FEW,FEW,SCT,M,3000.00,3500.00,10000.00,M,M,M,M,M,M,M,M,73.40,SBAN 041900Z 33003KT 260V070 9999 FEW030 FEW035TCU SCT100 23/19 Q1015,M
SBGR,2025-01-04 20:00,80.60,64.40,57.84,300.00,8.00,0.00,29.83,M,6.21,M,SCT,M,M,M,4000.00,M,M,M,M,M,M,M,M,M,M,82.27,SBGR 042000Z 30008KT 9999 SCT040 27/18 Q1010,M
SBAN,2025-01-04 20:00,75.20,64.40,69.14,M,3.00,0.00,29.97,M,6.21,M,FEW,SCT,M,M,3000.00,10000.00,M,M,M,M,M,M,M,M,M,75.20,SBAN 042000Z VRB03KT 9999 FEW030 SCT100 24/18 Q1015,M
SBGR,2025-01-04 21:00,80.60,62.60,54.30,310.00,8.00,0.00,29.80,M,6.21,M,FEW,M,M,M,4000.00,M,M,M,M,M,M,M,M,M,M,81.84,SBGR 042100Z 31008KT 9999 FEW040 27/17 Q1009,M
SBAN,2025-01-04 21:00,71.60,68.00,88.43,M,4.00,0.00,29.97,M,6.21,M,FEW,SCT,M,M,3000.00,10000.00,M,M,M,M,M,M,M,M,M,71.60,SBAN 042100Z VRB04KT 9999 FEW030 SCT100 22/20 Q1015,M
SBAN,2025-01-04 22:00,71.60,66.20,83.09,220.00,7.00,0.00,30.00,M,6.21,M,M,M,M,M,M,M,M,M,M,M,M,M,M,M,M,71.60,SBAN 042200Z 22007KT CAVOK 22/19 Q1016,M
SBGR,2025-01-04 22:00,77.00,69.80,78.48,130.00,5.00,0.00,29.83,M,6.21,M,FEW,M,M,M,4000.00,M,M,M,M,M,M,M,M,M,M,77.00,SBGR 042200Z 13005KT 9999 FEW040 25/21 Q1010,M
SBAN,2025-01-04 23:00,69.80,64.40,82.98,190.00,3.00,0.00,30.03,M,6.21,M,M,M,M,M,M,M,M,M,M,M,M,M,M,M,M,69.80,SBAN 042300Z 19003KT CAVOK 21/18 Q1017,M
SBGR,2025-01-04 23:00,75.20,69.80,83.32,130.00,5.00,0.00,29.88,M,6.21,M,M,M,M,M,M,M,M,M,M,M,M,M,M,M,M,75.20,SBGR 042300Z 13005KT CAVOK 24/21 Q1012,M
SBAN,2025-01-05 00:00,69.80,66.20,88.34,60.00,2.00,0.00,30.03,M,6.21,M,FEW,SCT,M,M,4000.00,10000.00,M,M,M,M,M,M,M,M,M,69.80,SBAN 050000Z 06002KT 9999 FEW040 SCT100 21/19 Q1017,M
SBGR,2025-01-05 00:00,73.40,69.80,88.51,90.00,3.00,0.00,29.88,M,6.21,M,SCT,M,M,M,1700.00,M,M,M,M,M,M,M,M,M,M,73.40,SBGR 050000Z 09003KT 9999 SCT017 23/21 Q1012,M
SBAN,2025-01-05 01:00,69.80,66.20,88.34,100.00,4.00,0.00,30.06,M,6.21,M,FEW,SCT,M,M,4000.00,10000.00,M,M,M,M,M,M,M,M,M,69.80,SBAN 050100Z 10004KT 9999 FEW040 SCT100 21/19 Q1018,M
SBGR,2025-01-05 01:00,73.40,69.80,88.51,300.00,3.00,0.00,29.91,M,6.21,M,BKN,M,M,M,4000.00,M,M,M,M,M,M,M,M,M,M,73.40,SBGR 050100Z 30003KT 250V330 9999 BKN040 23/21 Q1013,M
SBAN,2025-01-05 02:00,69.80,68.00,94.01,100.00,4.00,0.00,30.06,M,6.21,M,FEW,SCT,M,M,3000.00,10000.00,M,M,M,M,M,M,M,M,M,69.80,SBAN 050200Z 10004KT 9999 FEW030 SCT100 21/20 Q1018,M
SBGR,2025-01-05 02:00,73.40,69.80,88.51,310.00,2.00,0.00,29.88,M,6.21,M,BKN,M,M,M,2600.00,M,M,M,M,M,M,M,M,M,M,73.40,SBGR 050200Z 31002KT 9999 BKN026 23/21 Q1012,M
SBGR,2025-01-05 03:00,73.40,69.80,88.51,110.00,4.00,0.00,29.88,M,6.21,M,BKN,BKN,M,M,900.00,2300.00,M,M,M,M,M,M,M,M,M,73.40,SBGR 050300Z 11004KT 050V180 9999 BKN009 BKN023 23/21 Q1012,M
SBAN,2025-01-05 03:00,69.80,68.00,94.01,80.00,4.00,0.00,30.06,M,6.21,M,FEW,SCT,M,M,3000.00,10000.00,M,M,M,M,M,M,M,M,M,69.80,SBAN 050300Z 08004KT 9999 FEW030 SCT100 21/20 Q1018,M
SBGR,2025-01-05 03:43,71.60,64.40,78.04,40.00,10.00,0.00,29.85,M,6.21,M,BKN,FEW,BKN,M,1400.00,5000.00,8300.00,M,TS,M,M,M,M,M,M,71.60,SBGR 050343Z 04010KT 9999 TS BKN014 FEW050CB BKN083 22/18 Q1011,M
SBGR,2025-01-05 04:00,69.80,64.40,82.98,40.00,12.00,0.00,29.85,M,6.21,M,SCT,FEW,BKN,M,2500.00,5000.00,6600.00,M,TS,M,M,M,M,M,M,69.80,SBGR 050400Z 04012KT 9999 TS SCT025 FEW050CB BKN066 21/18 Q1011,M
SBAN,2025-01-05 04:00,69.80,68.00,94.01,120.00,2.00,0.00,30.06,M,6.21,M,SCT,SCT,M,M,2000.00,10000.00,M,M,M,M,M,M,M,M,M,69.80,SBAN 050400Z 12002KT 9999 SCT020 SCT100 21/20 Q1018,M
SBGR,2025-01-05 04:36,66.20,62.60,88.18,150.00,9.00,0.00,29.88,M,1.86,M,BKN,SCT,BKN,M,2300.00,5000.00,6600.00,M,TSRA BR,M,M,M,M,M,M,66.20,SBGR 050436Z 15009KT 3000 TSRA BR BKN023 SCT050CB BKN066 19/17 Q1012,M
SBGR,2025-01-05 05:00,66.20,64.40,93.92,100.00,6.00,0.00,29.88,M,2.49,M,BKN,BKN,FEW,M,2300.00,4000.00,5000.00,M,TSRA BR,M,M,M,M,M,M,66.20,SBGR 050500Z 10006KT 010V150 4000 TSRA BR BKN023 BKN040 FEW050CB 19/18 Q1012,M
SBAN,2025-01-05 05:00,68.00,66.20,93.97,100.00,2.00,0.00,30.06,M,6.21,M,SCT,SCT,M,M,2000.00,10000.00,M,M,M,M,M,M,M,M,M,68.00,SBAN 050500Z 10002KT 9999 SCT020 SCT100 20/19 Q1018,M
SBGR,2025-01-05 06:00,68.00,66.20,93.97,50.00,8.00,0.00,29.88,M,6.21,M,BKN,BKN,FEW,M,900.00,3400.00,5000.00,M,TS,M,M,M,M,M,M,68.00,SBGR 050600Z 05008KT 9999 TS BKN009 BKN034 FEW050CB 20/19 Q1012 RERA,M
SBAN,2025-01-05 06:00,66.20,66.20,100.00,70.00,5.00,0.00,30.00,M,0.50,M,SCT,SCT,M,M,200.00,900.00,M,M,FG,M,M,M,M,M,M,66.20,SBAN 050600Z 07005KT 0800 R24R/M0050 R06L/M0050 FG SCT002 SCT009 19/19 Q1016,M
SBGR,2025-01-05 06:31,66.20,64.40,93.92,60.00,9.00,0.00,29.88,M,6.21,M,SCT,M,M,M,800.00,M,M,M,-RA,M,M,M,M,M,M,66.20,SBGR 050631Z 06009KT 9999 -RA SCT008 19/18 Q1012 RETS,M
SBGR,2025-01-05 07:00,66.20,62.60,88.18,30.00,5.00,0.00,29.88,M,6.21,M,M,M,M,M,M,M,M,M,M,M,M,M,M,M,M,66.20,SBGR 050700Z 03005KT CAVOK 19/17 Q1012,M
SBAN,2025-01-05 07:00,66.20,66.20,100.00,130.00,2.00,0.00,30.06,M,6.21,M,FEW,BKN,M,M,2000.00,10000.00,M,M,M,M,M,M,M,M,M,66.20,SBAN 050700Z 13002KT 9999 FEW020 BKN100 19/19 Q1018,M
SBGR,2025-01-05 08:00,68.00,62.60,82.86,20.00,4.00,0.00,29.91,M,6.21,M,M,M,M,M,M,M,M,M,M,M,M,M,M,M,M,68.00,SBGR 050800Z 02004KT 340V060 CAVOK 20/17 Q1013,M
SBAN,2025-01-05 08:00,66.20,66.20,100.00,110.00,4.00,0.00,30.06,M,6.21,M,FEW,BKN,M,M,2000.00,10000.00,M,M,M,M,M,M,M,M,M,66.20,SBAN 050800Z 11004KT 9999 FEW020 BKN100 19/19 Q1018,M
SBGR,2025-01-05 09:00,66.20,62.60,88.18,70.00,2.00,0.00,29.91,M,6.21,M,M,M,M,M,M,M,M,M,M,M,M,M,M,M,M,66.20,SBGR 050900Z 07002KT CAVOK 19/17 Q1013,M
SBAN,2025-01-05 09:00,66.20,66.20,100.00,40.00,4.00,0.00,30.00,M,6.21,M,FEW,SCT,M,M,4000.00,10000.00,M,M,M,M,M,M,M,M,M,66.20,SBAN 050900Z 04004KT 9999 FEW040 SCT100 19/19 Q1016,M
SBGR,2025-01-05 10:00,69.80,64.40,82.98,160.00,2.00,0.00,29.91,M,6.21,M,M,M,M,M,M,M,M,M,M,M,M,M,M,M,M,69.80,SBGR 051000Z 16002KT CAVOK 21/18 Q1013,M
SBAN,2025-01-05 10:00,68.00,68.00,100.00,M,2.00,0.00,30.03,M,6.21,M,FEW,BKN,M,M,4000.00,10000.00,M,M,M,M,M,M,M,M,M,68.00,SBAN 051000Z VRB02KT 9999 FEW040 BKN100 20/20 Q1017,M
SBGR,2025-01-05 11:00,73.40,66.20,78.19,0.00,0.00,0.00,29.91,M,6.21,M,M,M,M,M,M,M,M,M,M,M,M,M,M,M,M,73.40,SBGR 051100Z 00000KT CAVOK 23/19 Q1013,M
SBAN,2025-01-05 11:00,71.60,68.00,88.43,M,2.00,0.00,30.06,M,6.21,M,M,M,M,M,M,M,M,M,M,M,M,M,M,M,M,71.60,SBAN 051100Z VRB02KT CAVOK 22/20 Q1018,M
SBGR,2025-01-05 12:00,78.80,66.20,65.33,300.00,5.00,0.00,29.94,M,6.21,M,FEW,M,M,M,2500.00,M,M,M,M,M,M,M,M,M,M,78.80,SBGR 051200Z 30005KT 9999 FEW025 26/19 Q1014,M
SBAN,2025-01-05 12:00,73.40,68.00,83.21,M,3.00,0.00,30.09,M,6.21,M,M,M,M,M,M,M,M,M,M,M,M,M,M,M,M,73.40,SBAN 051200Z VRB03KT CAVOK 23/20 Q1019,M
SBGR,2025-01-05 13:00,80.60,64.40,57.84,280.00,9.00,0.00,29.94,M,6.21,M,BKN,M,M,M,3000.00,M,M,M,M,M,M,M,M,M,M,82.27,SBGR 051300Z 28009KT 9999 BKN030 27/18 Q1014,M
SBAN,2025-01-05 13:00,73.40,68.00,83.21,350.00,4.00,0.00,30.09,M,6.21,M,SCT,BKN,M,M,2000.00,10000.00,M,M,M,M,M,M,M,M,M,73.40,SBAN 051300Z 35004KT 9999 SCT020 BKN100 23/20 Q1019,M
SBGR,2025-01-05 14:00,82.40,66.20,58.08,290.00,10.00,0.00,29.94,M,6.21,M,BKN,M,M,M,3500.00,M,M,M,M,M,M,M,M,M,M,84.63,SBGR 051400Z 29010KT 9999 BKN035 28/19 Q1014,M
SBAN,2025-01-05 14:00,77.00,68.00,73.78,M,5.00,0.00,30.09,M,6.21,M,FEW,BKN,M,M,2000.00,10000.00,M,M,M,M,M,M,M,M,M,77.00,SBAN 051400Z VRB05KT 9999 FEW020 BKN100 25/20 Q1019,M
SBGR,2025-01-05 15:00,84.20,62.60,48.32,310.00,11.00,0.00,29.91,M,6.21,M,BKN,M,M,M,4000.00,M,M,M,M,M,M,M,M,M,M,85.03,SBGR 051500Z 31011KT 9999 BKN040 29/17 Q1013,M
SBAN,2025-01-05 15:00,80.60,68.00,65.54,M,4.00,0.00,30.06,M,6.21,M,SCT,BKN,M,M,2000.00,10000.00,M,M,M,M,M,M,M,M,M,83.29,SBAN 051500Z VRB04KT 9999 SCT020 BKN100 27/20 Q1018,M
SBAN,2025-01-05 16:00,82.40,66.20,58.08,M,6.00,0.00,30.03,M,6.21,M,SCT,FEW,BKN,M,2500.00,4000.00,10000.00,M,M,M,M,M,M,M,M,84.63,SBAN 051600Z VRB06KT 9999 SCT025 FEW040TCU BKN100 28/19 Q1017,M
SBGR,2025-01-05 16:00,80.60,66.20,61.58,170.00,4.00,0.00,29.91,M,6.21,M,BKN,FEW,M,M,4000.00,4500.00,M,M,M,M,M,M,M,M,M,82.75,SBGR 051600Z 17004KT 100V230 9999 BKN040 FEW045TCU 27/19 Q1013 WS R28L,M
SBGR,2025-01-05 17:00,77.00,68.00,73.78,170.00,7.00,0.00,29.91,M,5.59,M,BKN,FEW,M,M,3500.00,4000.00,M,M,M,M,M,M,M,M,M,77.00,SBGR 051700Z 17007KT 9000 BKN035 FEW040TCU 25/20 Q1013,M
SBAN,2025-01-05 17:00,80.60,68.00,65.54,M,4.00,0.00,30.00,M,6.21,M,SCT,FEW,BKN,M,3000.00,4000.00,10000.00,M,M,M,M,M,M,M,M,83.29,SBAN 051700Z VRB04KT 9999 SCT030 FEW040TCU BKN100 27/20 Q1016,M
SBGR,2025-01-05 18:00,77.00,66.20,69.33,150.00,5.00,0.00,29.88,M,6.21,M,BKN,BKN,M,M,2500.00,4000.00,M,M,M,M,M,M,M,M,M,77.00,SBGR 051800Z 15005KT 9999 BKN025 BKN040 25/19 Q1012,M
SBAN,2025-01-05 18:00,82.40,66.20,58.08,360.00,4.00,0.00,29.97,M,6.21,M,SCT,FEW,BKN,M,3000.00,4000.00,10000.00,M,M,M,M,M,M,M,M,84.63,SBAN 051800Z 36004KT 9999 SCT030 FEW040TCU BKN100 28/19 Q1015,M
SBGR,2025-01-05 19:00,75.20,66.20,73.61,170.00,8.00,0.00,29.88,M,6.21,M,FEW,BKN,FEW,M,1900.00,3000.00,5000.00,M,VCSH,M,M,M,M,M,M,75.20,SBGR 051900Z 17008KT 9999 VCSH FEW019 BKN030 FEW050TCU 24/19 Q1012,M
SBAN,2025-01-05 19:00,80.60,64.40,57.84,310.00,3.00,0.00,29.97,M,6.21,M,SCT,FEW,BKN,M,3000.00,4000.00,10000.00,M,M,M,M,M,M,M,M,82.27,SBAN 051900Z 31003KT 9999 SCT030 FEW040TCU BKN100 27/18 Q1015,M
SBGR,2025-01-05 20:00,73.40,66.20,78.19,170.00,9.00,0.00,29.91,M,6.21,M,BKN,SCT,M,M,1700.00,3000.00,M,M,M,M,M,M,M,M,M,73.40,SBGR 052000Z 17009KT 9999 BKN017 SCT030 23/19 Q1013,M
SBAN,2025-01-05 20:00,78.80,66.20,65.33,M,4.00,0.00,29.97,M,6.21,M,SCT,FEW,BKN,M,3000.00,4000.00,10000.00,M,M,M,M,M,M,M,M,78.80,SBAN 052000Z VRB04KT 9999 SCT030 FEW040TCU BKN100 26/19 Q1015,M
SBGR,2025-01-05 21:00,71.60,66.20,83.09,160.00,7.00,0.00,29.91,M,6.21,M,BKN,M,M,M,1500.00,M,M,M,M,M,M,M,M,M,M,71.60,SBGR 052100Z 16007KT 9999 BKN015 22/19 Q1013,M
SBAN,2025-01-05 21:00,73.40,69.80,88.51,M,2.00,0.00,29.97,M,6.21,M,SCT,FEW,BKN,M,3000.00,4000.00,10000.00,M,-RA,M,M,M,M,M,M,73.40,SBAN 052100Z VRB02KT 9999 -RA SCT030 FEW040TCU BKN100 23/21 Q1015,M
SBAN,2025-01-05 22:00,73.40,69.80,88.51,230.00,2.00,0.00,30.00,M,6.21,M,FEW,FEW,BKN,M,3000.00,4000.00,10000.00,M,M,M,M,M,M,M,M,73.40,SBAN 052200Z 23002KT 9999 FEW030 FEW040TCU BKN100 23/21 Q1016,M
SBGR,2025-01-05 22:00,71.60,66.20,83.09,150.00,6.00,0.00,29.91,M,6.21,M,BKN,M,M,M,1300.00,M,M,M,M,M,M,M,M,M,M,71.60,SBGR 052200Z 15006KT 9999 BKN013 22/19 Q1013,M
SBAN,2025-01-05 23:00,71.60,69.80,94.06,210.00,4.00,0.00,30.00,M,6.21,M,FEW,FEW,BKN,M,3000.00,4000.00,10000.00,M,VCTS,M,M,M,M,M,M,71.60,SBAN 052300Z 21004KT 9999 VCTS FEW030 FEW040CB BKN100 22/21 Q1016,M
SBGR,2025-01-05 23:00,69.80,64.40,82.98,170.00,5.00,0.00,29.94,M,6.21,M,OVC,M,M,M,1300.00,M,M,M,M,M,M,M,M,M,M,69.80,SBGR 052300Z 17005KT 9999 OVC013 21/18 Q1014,M
SBGR,2025-01-06 00:00,69.80,64.40,82.98,110.00,7.00,0.00,29.97,M,6.21,M,FEW,OVC,M,M,1300.00,2100.00,M,M,M,M,M,M,M,M,M,69.80,SBGR 060000Z 11007KT 9999 FEW013 OVC021 21/18 Q1015,M
SBAN,2025-01-06 00:00,71.60,68.00,88.43,210.00,3.00,0.00,30.03,M,6.21,M,FEW,FEW,BKN,M,3000.00,4000.00,10000.00,M,VCTS,M,M,M,M,M,M,71.60,SBAN 060000Z 21003KT 9999 VCTS FEW030 FEW040CB BKN100 22/20 Q1017,M
SBGR,2025-01-06 00:20,69.80,64.40,82.98,110.00,8.00,0.00,29.97,M,6.21,M,BKN,OVC,M,M,1300.00,2500.00,M,M,M,M,M,M,M,M,M,69.80,SBGR 060020Z 11008KT 9999 BKN013 OVC025 21/18 Q1015,M
SBGR,2025-01-06 01:00,69.80,64.40,82.98,120.00,6.00,0.00,29.97,M,6.21,M,BKN,OVC,M,M,1100.00,2300.00,M,M,M,M,M,M,M,M,M,69.80,SBGR 060100Z 12006KT 9999 BKN011 OVC023 21/18 Q1015,M
SBAN,2025-01-06 01:00,71.60,68.00,88.43,130.00,2.00,0.00,30.06,M,6.21,M,FEW,FEW,BKN,M,3000.00,4000.00,10000.00,M,M,M,M,M,M,M,M,71.60,SBAN 060100Z 13002KT 9999 FEW030 FEW040TCU BKN100 22/20 Q1018,M
SBGR,2025-01-06 02:00,69.80,66.20,88.34,110.00,5.00,0.00,29.97,M,6.21,M,BKN,OVC,M,M,1100.00,2300.00,M,M,M,M,M,M,M,M,M,69.80,SBGR 060200Z 11005KT 9999 BKN011 OVC023 21/19 Q1015,M
SBAN,2025-01-06 02:00,71.60,68.00,88.43,100.00,3.00,0.00,30.06,M,6.21,M,FEW,FEW,SCT,M,3000.00,4000.00,10000.00,M,M,M,M,M,M,M,M,71.60,SBAN 060200Z 10003KT 9999 FEW030 FEW040TCU SCT100 22/20 Q1018,M
SBAN,2025-01-06 03:00,68.00,66.20,93.97,10.00,2.00,0.00,30.03,M,6.21,M,FEW,SCT,M,M,2000.00,10000.00,M,M,M,M,M,M,M,M,M,68.00,COR SBAN 060300Z 01002KT 9999 FEW020 SCT100 20/19 Q1017,M
SBGR,2025-01-06 03:00,69.80,64.40,82.98,90.00,5.00,0.00,29.94,M,6.21,M,BKN,OVC,M,M,1300.00,1700.00,M,M,M,M,M,M,M,M,M,69.80,SBGR 060300Z 09005KT 9999 BKN013 OVC017 21/18 Q1014,M
SBAN,2025-01-06 04:00,68.00,66.20,93.97,350.00,2.00,0.00,30.03,M,6.21,M,FEW,SCT,M,M,2000.00,10000.00,M,M,M,M,M,M,M,M,M,68.00,SBAN 060400Z 35002KT 9999 FEW020 SCT100 20/19 Q1017,M
SBGR,2025-01-06 04:00,69.80,64.40,82.98,90.00,5.00,0.00,29.94,M,6.21,M,OVC,M,M,M,1200.00,M,M,M,M,M,M,M,M,M,M,69.80,SBGR 060400Z 09005KT 9999 OVC012 21/18 Q1014,M
SBAN,2025-01-06 05:00,68.00,66.20,93.97,10.00,4.00,0.00,30.00,M,6.21,M,FEW,SCT,M,M,1000.00,10000.00,M,M,M,M,M,M,M,M,M,68.00,SBAN 060500Z 01004KT 9999 FEW010 SCT100 20/19 Q1016,M
SBGR,2025-01-06 05:00,69.80,64.40,82.98,90.00,5.00,0.00,29.91,M,6.21,M,FEW,OVC,M,M,1100.00,1400.00,M,M,M,M,M,M,M,M,M,69.80,SBGR 060500Z 09005KT 9999 FEW011 OVC014 21/18 Q1013,M
SBGR,2025-01-06 06:00,69.80,64.40,82.98,100.00,4.00,0.00,29.91,M,6.21,M,SCT,BKN,M,M,1700.00,7000.00,M,M,M,M,M,M,M,M,M,69.80,SBGR 060600Z 10004KT 9999 SCT017 BKN070 21/18 Q1013,M
SBAN,2025-01-06 06:00,68.00,68.00,100.00,0.00,0.00,0.00,30.00,M,6.21,M,FEW,SCT,M,M,1000.00,10000.00,M,M,M,M,M,M,M,M,M,68.00,SBAN 060600Z 00000KT 9999 FEW010 SCT100 20/20 Q1016,M
SBAN,2025-01-06 07:00,68.00,66.20,93.97,330.00,3.00,0.00,30.00,M,6.21,M,FEW,SCT,M,M,1000.00,10000.00,M,M,M,M,M,M,M,M,M,68.00,SBAN 060700Z 33003KT 9999 FEW010 SCT100 20/19 Q1016,M
SBGR,2025-01-06 07:00,69.80,64.40,82.98,100.00,5.00,0.00,29.91,M,6.21,M,BKN,BKN,M,M,1500.00,7000.00,M,M,M,M,M,M,M,M,M,69.80,SBGR 060700Z 10005KT 9999 BKN015 BKN070 21/18 Q1013,M
SBGR,2025-01-06 08:00,68.00,64.40,88.26,70.00,6.00,0.00,29.91,M,6.21,M,SCT,BKN,M,M,1100.00,7000.00,M,M,M,M,M,M,M,M,M,68.00,SBGR 060800Z 07006KT 9999 SCT011 BKN070 20/18 Q1013,M
SBAN,2025-01-06 08:00,66.20,64.40,93.92,340.00,2.00,0.00,30.03,M,6.21,M,FEW,BKN,M,M,1000.00,10000.00,M,M,M,M,M,M,M,M,M,66.20,SBAN 060800Z 34002KT 9999 FEW010 BKN100 19/18 Q1017,M
SBGR,2025-01-06 09:00,68.00,64.40,88.26,70.00,6.00,0.00,29.94,M,6.21,M,FEW,BKN,M,M,1300.00,7000.00,M,M,M,M,M,M,M,M,M,68.00,SBGR 060900Z 07006KT 9999 FEW013 BKN070 20/18 Q1014,M
SBAN,2025-01-06 09:00,69.80,69.80,100.00,M,2.00,0.00,30.03,M,6.21,M,BKN,SCT,M,M,1300.00,10000.00,M,M,M,M,M,M,M,M,M,69.80,SBAN 060900Z VRB02KT 9999 BKN013 SCT100 21/21 Q1017,M
SBAN,2025-01-06 10:00,69.80,69.80,100.00,350.00,3.00,0.00,30.06,M,6.21,M,BKN,SCT,M,M,400.00,1000.00,M,M,M,M,M,M,M,M,M,69.80,SBAN 061000Z 35003KT 280V090 9999 BKN004 SCT010 21/21 Q1018,M
SBGR,2025-01-06 10:00,69.80,64.40,82.98,70.00,9.00,0.00,29.94,M,6.21,M,FEW,BKN,M,M,1300.00,7000.00,M,M,M,M,M,M,M,M,M,69.80,SBGR 061000Z 07009KT 9999 FEW013 BKN070 21/18 Q1014,M
SBAN,2025-01-06 11:00,71.60,69.80,94.06,340.00,4.00,0.00,30.06,M,6.21,M,BKN,SCT,M,M,500.00,1000.00,M,M,M,M,M,M,M,M,M,71.60,SBAN 061100Z 34004KT 9999 BKN005 SCT010 22/21 Q1018,M
SBGR,2025-01-06 11:00,71.60,64.40,78.04,40.00,9.00,0.00,29.97,M,6.21,M,FEW,SCT,M,M,1100.00,7000.00,M,M,M,M,M,M,M,M,M,71.60,SBGR 061100Z 04009KT 9999 FEW011 SCT070 22/18 Q1015,M
SBGR,2025-01-06 12:00,75.20,66.20,73.61,60.00,7.00,0.00,29.94,M,6.21,M,M,M,M,M,M,M,M,M,M,M,M,M,M,M,M,75.20,SBGR 061200Z 06007KT CAVOK 24/19 Q1014,M
SBAN,2025-01-06 12:00,73.40,71.60,94.10,M,4.00,0.00,30.09,M,6.21,M,BKN,SCT,M,M,500.00,1000.00,M,M,SHRA,M,M,M,M,M,M,73.40,COR SBAN 061200Z VRB04KT 9999 4000N SHRA BKN005 SCT010 23/22 Q1019,M
SBGR,2025-01-06 13:00,78.80,66.20,65.33,110.00,4.00,0.00,29.94,M,6.21,M,M,M,M,M,M,M,M,M,M,M,M,M,M,M,M,78.80,SBGR 061300Z 11004KT CAVOK 26/19 Q1014,M
SBAN,2025-01-06 13:00,71.60,68.00,88.43,M,6.00,0.00,30.12,M,6.21,M,BKN,SCT,M,M,400.00,1000.00,M,M,M,M,M,M,M,M,M,71.60,SBAN 061300Z VRB06KT 9999 BKN004 SCT010 22/20 Q1020 RESHRA,M
SBAN,2025-01-06 14:00,75.20,68.00,78.34,M,6.00,0.00,30.12,M,6.21,M,FEW,BKN,M,M,500.00,800.00,M,M,M,M,M,M,M,M,M,75.20,SBAN 061400Z VRB06KT 9999 FEW005 BKN008 24/20 Q1020,M
SBGR,2025-01-06 14:00,86.00,64.40,48.58,330.00,9.00,0.00,29.94,M,6.21,M,SCT,M,M,M,4000.00,M,M,M,M,M,M,M,M,M,M,87.49,SBGR 061400Z 33009KT 9999 SCT040 30/18 Q1014,M
SBAN,2025-01-06 15:00,77.00,68.00,73.78,M,8.00,0.00,30.09,M,6.21,M,FEW,SCT,FEW,M,700.00,1200.00,3000.00,M,M,M,M,M,M,M,M,77.00,SBAN 061500Z VRB08KT 9999 FEW007 SCT012 FEW030TCU 25/20 Q1019,M
SBGR,2025-01-06 15:00,86.00,62.60,45.61,320.00,12.00,0.00,29.91,M,6.21,23.00,BKN,FEW,M,M,4000.00,4500.00,M,M,M,M,M,M,M,M,M,86.72,SBGR 061500Z 32012G23KT 9999 BKN040 FEW045TCU 30/17 Q1013,M
SBGR,2025-01-06 16:00,87.80,57.20,35.53,300.00,16.00,0.00,29.91,M,6.21,M,BKN,FEW,M,M,4000.00,4500.00,M,M,M,M,M,M,M,M,M,86.58,SBGR 061600Z 30016KT 9999 BKN040 FEW045TCU 31/14 Q1013,M
SBAN,2025-01-06 16:00,78.80,68.00,69.52,M,4.00,0.00,30.06,M,6.21,M,FEW,SCT,FEW,M,800.00,1200.00,3000.00,M,SHRA,M,M,M,M,M,M,78.80,SBAN 061600Z VRB04KT 9999 SHRA FEW008 SCT012 FEW030TCU 26/20 Q1018,M
SBAN,2025-01-06 17:00,71.60,71.60,100.00,M,6.00,0.00,30.03,M,6.21,M,SCT,SCT,FEW,BKN,1200.00,1500.00,3000.00,7000.00,VCSH,M,M,M,M,M,M,71.60,COR SBAN 061700Z VRB06KT 9999 VCSH SCT012 SCT015 FEW030TCU BKN070 22/22 Q1017 RESHRA,M
SBGR,2025-01-06 17:00,89.60,59.00,35.81,280.00,15.00,0.00,29.88,M,6.21,M,M,M,M,M,M,M,M,M,M,M,M,M,M,M,M,88.86,SBGR 061700Z 28015KT CAVOK 32/15 Q1012,M
SBAN,2025-01-06 18:00,73.40,68.00,83.21,M,4.00,0.00,30.03,M,6.21,M,FEW,SCT,FEW,BKN,1200.00,1500.00,3000.00,7000.00,VCSH,M,M,M,M,M,M,73.40,SBAN 061800Z VRB04KT 9999 VCSH FEW012 SCT015 FEW030TCU BKN070 23/20 Q1017,M
SBGR,2025-01-06 18:00,78.80,68.00,69.52,180.00,10.00,0.00,29.88,M,5.59,M,NSC,M,M,M,M,M,M,M,M,M,M,M,M,M,M,78.80,SBGR 061800Z 18010KT 9000 NSC 26/20 Q1012,M
SBAN,2025-01-06 19:00,73.40,69.80,88.51,M,3.00,0.00,29.97,M,6.21,M,FEW,SCT,FEW,BKN,1200.00,2000.00,3000.00,7000.00,VCSH,M,M,M,M,M,M,73.40,SBAN 061900Z VRB03KT 9999 VCSH FEW012 SCT020 FEW030TCU BKN070 23/21 Q1015,M
SBGR,2025-01-06 19:00,75.20,66.20,73.61,170.00,9.00,0.00,29.88,M,5.59,M,BKN,M,M,M,1900.00,M,M,M,M,M,M,M,M,M,M,75.20,SBGR 061900Z 17009KT 9000 BKN019 24/19 Q1012,M
SBAN,2025-01-06 20:00,73.40,68.00,83.21,310.00,4.00,0.00,29.97,M,6.21,M,FEW,SCT,FEW,BKN,1000.00,2500.00,3500.00,7000.00,M,M,M,M,M,M,M,73.40,SBAN 062000Z 31004KT 9999 FEW010 SCT025 FEW035TCU BKN070 23/20 Q1015,M
SBGR,2025-01-06 20:00,73.40,66.20,78.19,140.00,8.00,0.00,29.88,M,6.21,M,BKN,M,M,M,1900.00,M,M,M,M,M,M,M,M,M,M,73.40,SBGR 062000Z 14008KT 9999 BKN019 23/19 Q1012,M
SBAN,2025-01-06 21:00,73.40,68.00,83.21,M,2.00,0.00,30.00,M,6.21,M,FEW,FEW,BKN,M,1000.00,3500.00,7000.00,M,M,M,M,M,M,M,M,73.40,SBAN 062100Z VRB02KT 9999 FEW010 FEW035TCU BKN070 23/20 Q1016,M
SBGR,2025-01-06 21:00,73.40,66.20,78.19,160.00,8.00,0.00,29.91,M,6.21,M,OVC,M,M,M,1700.00,M,M,M,M,M,M,M,M,M,M,73.40,SBGR 062100Z 16008KT 9999 OVC017 23/19 Q1013,M
SBAN,2025-01-06 22:00,71.60,69.80,94.06,310.00,1.00,0.00,30.00,M,6.21,M,FEW,FEW,BKN,M,700.00,3500.00,7000.00,M,M,M,M,M,M,M,M,71.60,COR SBAN 062200Z 31001KT 9999 FEW007 FEW035TCU BKN070 22/21 Q1016,M
SBGR,2025-01-06 22:00,73.40,66.20,78.19,150.00,7.00,0.00,29.91,M,6.21,M,BKN,BKN,M,M,1700.00,4000.00,M,M,M,M,M,M,M,M,M,73.40,SBGR 062200Z 15007KT 9999 BKN017 BKN040 23/19 Q1013,M
SBAN,2025-01-06 23:00,69.80,69.80,100.00,210.00,5.00,0.00,30.00,M,4.97,M,SCT,BKN,FEW,BKN,900.00,2000.00,3500.00,7000.00,VCTS,M,M,M,M,M,M,69.80,COR SBAN 062300Z 21005KT 8000 VCTS SCT009 BKN020 FEW035CB BKN070 21/21 Q1016,M
SBGR,2025-01-06 23:00,71.60,66.20,83.09,120.00,7.00,0.00,29.94,M,6.21,M,SCT,BKN,M,M,1700.00,3300.00,M,M,M,M,M,M,M,M,M,71.60,SBGR 062300Z 12007KT 9999 SCT017 BKN033 22/19 Q1014,M
SBGR,2025-01-07 00:00,71.60,66.20,83.09,90.00,6.00,0.00,29.97,M,6.21,M,SCT,BKN,M,M,1300.00,3600.00,M,M,M,M,M,M,M,M,M,71.60,SBGR 070000Z 09006KT 9999 SCT013 BKN036 22/19 Q1015,M
SBAN,2025-01-07 00:00,69.80,69.80,100.00,310.00,4.00,0.00,30.03,M,6.21,M,BKN,BKN,M,M,2000.00,7000.00,M,M,M,M,M,M,M,M,M,69.80,SBAN 070000Z 31004KT 9999 BKN020 BKN070 21/21 Q1017,M
SBGR,2025-01-07 01:00,71.60,66.20,83.09,90.00,7.00,0.00,29.97,M,6.21,M,BKN,M,M,M,1700.00,M,M,M,M,M,M,M,M,M,M,71.60,SBGR 070100Z 09007KT 9999 BKN017 22/19 Q1015,M
SBAN,2025-01-07 01:00,68.00,68.00,100.00,0.00,0.00,0.00,30.06,M,6.21,M,SCT,BKN,M,M,2000.00,7000.00,M,M,M,M,M,M,M,M,M,68.00,SBAN 070100Z 00000KT 9999 SCT020 BKN070 20/20 Q1018,M
SBAN,2025-01-07 02:00,68.00,68.00,100.00,0.00,0.00,0.00,30.06,M,6.21,M,SCT,BKN,M,M,2000.00,7000.00,M,M,M,M,M,M,M,M,M,68.00,SBAN 070200Z 00000KT 9999 SCT020 BKN070 20/20 Q1018,M
SBGR,2025-01-07 02:00,69.80,66.20,88.34,60.00,7.00,0.00,29.97,M,6.21,M,FEW,M,M,M,1500.00,M,M,M,M,M,M,M,M,M,M,69.80,SBGR 070200Z 06007KT 9999 FEW015 21/19 Q1015,M
SBAN,2025-01-07 03:00,68.00,68.00,100.00,0.00,0.00,0.00,30.06,M,6.21,M,SCT,BKN,M,M,2000.00,7000.00,M,M,M,M,M,M,M,M,M,68.00,SBAN 070300Z 00000KT 9999 SCT020 BKN070 20/20 Q1018,M
SBGR,2025-01-07 03:00,69.80,66.20,88.34,100.00,7.00,0.00,29.94,M,6.21,M,M,M,M,M,M,M,M,M,M,M,M,M,M,M,M,69.80,SBGR 070300Z 10007KT CAVOK 21/19 Q1014,M
SBGR,2025-01-07 04:00,69.80,64.40,82.98,110.00,5.00,0.00,29.94,M,6.21,M,BKN,M,M,M,1100.00,M,M,M,M,M,M,M,M,M,M,69.80,SBGR 070400Z 11005KT 9999 BKN011 21/18 Q1014,M
SBAN,2025-01-07 04:00,66.20,66.20,100.00,0.00,0.00,0.00,30.06,M,6.21,M,SCT,SCT,M,M,2000.00,10000.00,M,M,M,M,M,M,M,M,M,66.20,SBAN 070400Z 00000KT 9999 SCT020 SCT100 19/19 Q1018,M
SBAN,2025-01-07 05:00,66.20,66.20,100.00,300.00,2.00,0.00,30.06,M,6.21,M,SCT,SCT,M,M,1500.00,10000.00,M,M,M,M,M,M,M,M,M,66.20,SBAN 070500Z 30002KT 9999 SCT015 SCT100 19/19 Q1018,M
SBGR,2025-01-07 05:00,69.80,66.20,88.34,130.00,7.00,0.00,29.91,M,6.21,M,OVC,M,M,M,1100.00,M,M,M,M,M,M,M,M,M,M,69.80,SBGR 070500Z 13007KT 9999 OVC011 21/19 Q1013,M
SBAN,2025-01-07 06:00,66.20,66.20,100.00,310.00,2.00,0.00,30.03,M,5.59,M,SCT,SCT,M,M,1500.00,10000.00,M,M,M,M,M,M,M,M,M,66.20,SBAN 070600Z 31002KT 9000 SCT015 SCT100 19/19 Q1017,M
SBGR,2025-01-07 06:00,69.80,64.40,82.98,110.00,6.00,0.00,29.91,M,6.21,M,OVC,M,M,M,1700.00,M,M,M,M,M,M,M,M,M,M,69.80,SBGR 070600Z 11006KT 9999 OVC017 21/18 Q1013,M
SBAN,2025-01-07 07:00,66.20,64.40,93.92,60.00,2.00,0.00,30.03,M,6.21,M,SCT,BKN,M,M,1500.00,10000.00,M,M,M,M,M,M,M,M,M,66.20,SBAN 070700Z 06002KT 9999 SCT015 BKN100 19/18 Q1017,M
SBGR,2025-01-07 07:00,69.80,64.40,82.98,100.00,4.00,0.00,29.91,M,6.21,M,OVC,M,M,M,1300.00,M,M,M,M,M,M,M,M,M,M,69.80,SBGR 070700Z 10004KT 9999 OVC013 21/18 Q1013,M
SBGR,2025-01-07 08:00,69.80,64.40,82.98,80.00,4.00,0.00,29.91,M,6.21,M,OVC,M,M,M,1300.00,M,M,M,M,M,M,M,M,M,M,69.80,SBGR 070800Z 08004KT 9999 OVC013 21/18 Q1013,M
SBAN,2025-01-07 08:00,66.20,64.40,93.92,50.00,4.00,0.00,30.03,M,4.97,M,SCT,BKN,M,M,1500.00,10000.00,M,M,M,M,M,M,M,M,M,66.20,SBAN 070800Z 05004KT 8000 SCT015 BKN100 19/18 Q1017,M
SBGR,2025-01-07 09:00,69.80,66.20,88.34,50.00,5.00,0.00,29.91,M,6.21,M,OVC,M,M,M,1400.00,M,M,M,M,M,M,M,M,M,M,69.80,SBGR 070900Z 05005KT 9999 OVC014 21/19 Q1013,M
SBAN,2025-01-07 09:00,66.20,66.20,100.00,M,2.00,0.00,30.00,M,0.06,M,VV ,M,M,M,1000.00,M,M,M,FG,M,M,M,M,M,M,66.20,SBAN 070900Z VRB02KT 0100 R24R/0150N R06L/0150N FG VV010 19/19 Q1016,M
SBGR,2025-01-07 10:00,69.80,66.20,88.34,50.00,7.00,0.00,29.94,M,5.59,M,SCT,OVC,M,M,1300.00,1900.00,M,M,M,M,M,M,M,M,M,69.80,SBGR 071000Z 05007KT 9000 SCT013 OVC019 21/19 Q1014,M
SBAN,2025-01-07 10:00,68.00,68.00,100.00,M,2.00,0.00,30.03,M,0.75,M,BKN,SCT,M,M,300.00,10000.00,M,M,BR,M,M,M,M,M,M,68.00,SBAN 071000Z VRB02KT 1200 R06L/1400D R24R/2000U BR BKN003 SCT100 20/20 Q1017,M
SBAN,2025-01-07 11:00,69.80,69.80,100.00,M,4.00,0.00,30.06,M,6.21,M,BKN,SCT,M,M,500.00,10000.00,M,M,M,M,M,M,M,M,M,69.80,SBAN 071100Z VRB04KT 9999 BKN005 SCT100 21/21 Q1018,M
SBGR,2025-01-07 11:00,71.60,64.40,78.04,70.00,9.00,0.00,29.94,M,6.21,M,SCT,M,M,M,1300.00,M,M,M,M,M,M,M,M,M,M,71.60,SBGR 071100Z 07009KT 9999 SCT013 22/18 Q1014,M
SBGR,2025-01-07 12:00,75.20,66.20,73.61,90.00,4.00,0.00,29.94,M,6.21,M,BKN,M,M,M,1900.00,M,M,M,M,M,M,M,M,M,M,75.20,SBGR 071200Z 09004KT 9999 BKN019 24/19 Q1014,M
SBAN,2025-01-07 12:00,71.60,69.80,94.06,M,4.00,0.00,30.09,M,6.21,M,BKN,SCT,M,M,900.00,10000.00,M,M,M,M,M,M,M,M,M,71.60,SBAN 071200Z VRB04KT 9999 BKN009 SCT100 22/21 Q1019,M
SBGR,2025-01-07 13:00,77.00,66.20,69.33,210.00,3.00,0.00,29.94,M,6.21,M,BKN,M,M,M,2300.00,M,M,M,M,M,M,M,M,M,M,77.00,SBGR 071300Z 21003KT 9999 BKN023 25/19 Q1014,M
SBAN,2025-01-07 13:00,73.40,68.00,83.21,360.00,4.00,0.00,30.09,M,6.21,M,BKN,SCT,M,M,900.00,10000.00,M,M,M,M,M,M,M,M,M,73.40,SBAN 071300Z 36004KT 9999 BKN009 SCT100 23/20 Q1019,M
SBGR,2025-01-07 14:00,80.60,66.20,61.58,20.00,5.00,0.00,29.94,M,6.21,M,BKN,M,M,M,3000.00,M,M,M,M,M,M,M,M,M,M,82.75,SBGR 071400Z 02005KT 9999 BKN030 27/19 Q1014,M
SBAN,2025-01-07 14:00,77.00,68.00,73.78,M,5.00,0.00,30.06,M,6.21,M,SCT,SCT,M,M,1500.00,10000.00,M,M,M,M,M,M,M,M,M,77.00,SBAN 071400Z VRB05KT 9999 SCT015 SCT100 25/20 Q1018,M
SBAN,2025-01-07 15:00,78.80,68.00,69.52,340.00,5.00,0.00,30.06,M,6.21,M,SCT,FEW,SCT,M,2000.00,2500.00,10000.00,M,SHRA,M,M,M,M,M,M,78.80,SBAN 071500Z 34005KT 9999 SHRA SCT020 FEW025TCU SCT100 26/20 Q1018,M
SBGR,2025-01-07 15:00,82.40,66.20,58.08,340.00,4.00,0.00,29.91,M,6.21,M,BKN,M,M,M,3600.00,M,M,M,M,M,M,M,M,M,M,84.63,SBGR 071500Z 34004KT 9999 BKN036 28/19 Q1013,M
SBGR,2025-01-07 16:00,87.80,64.40,45.88,310.00,10.00,0.00,29.88,M,6.21,M,SCT,SCT,M,M,4300.00,5000.00,M,M,TS,M,M,M,M,M,M,89.33,SBGR 071600Z 31010KT 9999 TS SCT043 SCT050CB 31/18 Q1012,M
SBAN,2025-01-07 16:00,77.00,68.00,73.78,330.00,5.00,0.00,30.03,M,6.21,M,SCT,FEW,SCT,M,2000.00,2500.00,10000.00,M,SHRA,M,M,M,M,M,M,77.00,SBAN 071600Z 33005KT 9999 SHRA SCT020 FEW025TCU SCT100 25/20 Q1017,M
SBAN,2025-01-07 17:00,77.00,66.20,69.33,M,4.00,0.00,30.00,M,6.21,M,SCT,FEW,SCT,M,2000.00,2500.00,10000.00,M,VCSH,M,M,M,M,M,M,77.00,SBAN 071700Z VRB04KT 9999 VCSH SCT020 FEW025TCU SCT100 25/19 Q1016 RESHRA,M
SBGR,2025-01-07 17:00,77.00,62.60,61.13,190.00,9.00,0.00,29.91,M,6.21,M,BKN,FEW,M,M,4500.00,5000.00,M,M,TS,M,M,M,M,M,M,77.00,SBGR 071700Z 19009KT 9999 TS BKN045 FEW050CB 25/17 Q1013 WS R10R,M
SBGR,2025-01-07 18:00,73.40,68.00,83.21,160.00,5.00,0.00,29.91,M,4.97,M,SCT,BKN,FEW,M,1500.00,4000.00,4500.00,M,-RA,M,M,M,M,M,M,73.40,SBGR 071800Z 16005KT 8000 -RA SCT015 BKN040 FEW045TCU 23/20 Q1013 RETS,M
SBAN,2025-01-07 18:00,80.60,66.20,61.58,350.00,5.00,0.00,29.97,M,6.21,M,SCT,FEW,M,M,2500.00,3000.00,M,M,M,M,M,M,M,M,M,82.75,SBAN 071800Z 35005KT 9999 SCT025 FEW030TCU 27/19 Q1015,M
SBAN,2025-01-07 19:00,77.00,69.80,78.48,280.00,2.00,0.00,29.94,M,6.21,M,FEW,FEW,M,M,2500.00,3000.00,M,M,M,M,M,M,M,M,M,77.00,SBAN 071900Z 28002KT 9999 FEW025 FEW030TCU 25/21 Q1014,M
SBGR,2025-01-07 19:00,71.60,68.00,88.43,170.00,8.00,0.00,29.91,M,2.49,M,BKN,OVC,M,M,1500.00,7000.00,M,M,-RA,M,M,M,M,M,M,71.60,SBGR 071900Z 17008KT 4000 -RA BKN015 OVC070 22/20 Q1013,M
SBAN,2025-01-07 20:00,77.00,68.00,73.78,280.00,2.00,0.00,29.94,M,6.21,M,FEW,FEW,M,M,2500.00,3000.00,M,M,M,M,M,M,M,M,M,77.00,SBAN 072000Z 28002KT 9999 FEW025 FEW030TCU 25/20 Q1014,M
SBGR,2025-01-07 20:00,69.80,66.20,88.34,170.00,5.00,0.00,29.91,M,4.35,M,BKN,BKN,M,M,1000.00,7000.00,M,M,M,M,M,M,M,M,M,69.80,SBGR 072000Z 17005KT 7000 BKN010 BKN070 21/19 Q1013,M
SBGR,2025-01-07 20:20,71.60,66.20,83.09,180.00,6.00,0.00,29.91,M,6.21,M,SCT,BKN,M,M,1500.00,10000.00,M,M,M,M,M,M,M,M,M,71.60,SBGR 072020Z 18006KT 9999 SCT015 BKN100 22/19 Q1013,M
SBGR,2025-01-07 21:00,71.60,66.20,83.09,180.00,6.00,0.00,29.91,M,6.21,M,SCT,BKN,M,M,2000.00,10000.00,M,M,M,M,M,M,M,M,M,71.60,SBGR 072100Z 18006KT 9999 SCT020 BKN100 22/19 Q1013,M
SBAN,2025-01-07 21:00,75.20,68.00,78.34,270.00,2.00,0.00,29.94,M,6.21,M,FEW,FEW,SCT,M,2500.00,3000.00,10000.00,M,M,M,M,M,M,M,M,75.20,SBAN 072100Z 27002KT 9999 FEW025 FEW030TCU SCT100 24/20 Q1014,M
SBGR,2025-01-07 22:00,71.60,64.40,78.04,170.00,5.00,0.00,29.94,M,6.21,M,BKN,BKN,M,M,2000.00,10000.00,M,M,M,M,M,M,M,M,M,71.60,SBGR 072200Z 17005KT 9999 BKN020 BKN100 22/18 Q1014,M
SBAN,2025-01-07 22:00,73.40,68.00,83.21,M,2.00,0.00,29.97,M,6.21,M,FEW,FEW,SCT,M,1000.00,3000.00,10000.00,M,VCTS VCSH,M,M,M,M,M,M,73.40,SBAN 072200Z VRB02KT 9999 VCTS VCSH FEW010 FEW030CB SCT100 23/20 Q1015,M
SBGR,2025-01-07 23:00,68.00,62.60,82.86,130.00,7.00,0.00,29.97,M,6.21,M,M,M,M,M,M,M,M,M,M,M,M,M,M,M,M,68.00,SBGR 072300Z 13007KT CAVOK 20/17 Q1015,M
SBAN,2025-01-07 23:00,69.80,69.80,100.00,310.00,3.00,0.00,30.00,M,6.21,M,BKN,SCT,M,M,400.00,600.00,M,M,M,M,M,M,M,M,M,69.80,SBAN 072300Z 31003KT 9999 BKN004 SCT006 21/21 Q1016 RESHRA,M
SBGR,2025-01-08 00:00,69.80,62.60,77.90,110.00,6.00,0.00,29.97,M,6.21,M,FEW,M,M,M,3000.00,M,M,M,M,M,M,M,M,M,M,69.80,SBGR 080000Z 11006KT 9999 FEW030 21/17 Q1015,M
SBAN,2025-01-08 00:00,69.80,69.80,100.00,310.00,2.00,0.00,30.03,M,6.21,M,BKN,SCT,M,M,400.00,1000.00,M,M,M,M,M,M,M,M,M,69.80,SBAN 080000Z 31002KT 9999 BKN004 SCT010 21/21 Q1017,M
SBAN,2025-01-08 01:00,69.80,69.80,100.00,310.00,3.00,0.00,30.03,M,6.21,M,BKN,SCT,M,M,400.00,700.00,M,M,M,M,M,M,M,M,M,69.80,SBAN 080100Z 31003KT 9999 BKN004 SCT007 21/21 Q1017,M
SBGR,2025-01-08 01:00,69.80,64.40,82.98,130.00,5.00,0.00,29.97,M,6.21,M,BKN,M,M,M,3000.00,M,M,M,M,M,M,M,M,M,M,69.80,SBGR 080100Z 13005KT 9999 BKN030 21/18 Q1015,M
SBAN,2025-01-08 01:07,69.80,69.80,100.00,320.00,2.00,0.00,30.03,M,6.21,M,SCT,FEW,BKN,M,1000.00,3000.00,10000.00,M,VCTS,M,M,M,M,M,M,69.80,SBAN 080107Z 32002KT 9999 VCTS SCT010 FEW030CB BKN100 21/21 Q1017,M
SBAN,2025-01-08 02:00,68.00,68.00,100.00,320.00,2.00,0.00,30.03,M,6.21,M,BKN,SCT,FEW,M,200.00,600.00,3000.00,M,VCTS,M,M,M,M,M,M,68.00,SBAN 080200Z 32002KT 9999 VCTS BKN002 SCT006 FEW030CB 20/20 Q1017,M
SBGR,2025-01-08 02:00,69.80,64.40,82.98,80.00,8.00,0.00,29.97,M,6.21,M,FEW,BKN,M,M,1100.00,4000.00,M,M,M,M,M,M,M,M,M,69.80,SBGR 080200Z 08008KT 9999 FEW011 BKN040 21/18 Q1015,M
SBGR,2025-01-08 03:00,68.00,64.40,88.26,70.00,5.00,0.00,29.97,M,6.21,M,SCT,M,M,M,1100.00,M,M,M,M,M,M,M,M,M,M,68.00,SBGR 080300Z 07005KT 9999 SCT011 20/18 Q1015,M
SBAN,2025-01-08 03:00,68.00,68.00,100.00,330.00,3.00,0.00,30.03,M,6.21,M,SCT,SCT,M,M,400.00,800.00,M,M,M,M,M,M,M,M,M,68.00,SBAN 080300Z 33003KT 9999 SCT004 SCT008 20/20 Q1017,M
SBAN,2025-01-08 04:00,68.00,68.00,100.00,330.00,4.00,0.00,30.03,M,6.21,M,BKN,SCT,M,M,500.00,1000.00,M,M,M,M,M,M,M,M,M,68.00,SBAN 080400Z 33004KT 9999 BKN005 SCT010 20/20 Q1017,M
SBGR,2025-01-08 04:00,66.20,64.40,93.92,80.00,4.00,0.00,29.94,M,6.21,M,M,M,M,M,M,M,M,M,M,M,M,M,M,M,M,66.20,SBGR 080400Z 08004KT CAVOK 19/18 Q1014,M
SBGR,2025-01-08 05:00,66.20,64.40,93.92,120.00,3.00,0.00,29.94,M,6.21,M,SCT,M,M,M,900.00,M,M,M,M,M,M,M,M,M,M,66.20,SBGR 080500Z 12003KT 9999 SCT009 19/18 Q1014,M
SBAN,2025-01-08 05:00,68.00,68.00,100.00,290.00,4.00,0.00,30.03,M,6.21,M,BKN,SCT,M,M,500.00,1000.00,M,M,M,M,M,M,M,M,M,68.00,SBAN 080500Z 29004KT 9999 BKN005 SCT010 20/20 Q1017,M
SBGR,2025-01-08 06:00,66.20,64.40,93.92,90.00,2.00,0.00,29.91,M,6.21,M,FEW,BKN,M,M,700.00,900.00,M,M,M,M,M,M,M,M,M,66.20,SBGR 080600Z 09002KT 9999 FEW007 BKN009 19/18 Q1013,M
SBAN,2025-01-08 06:00,68.00,68.00,100.00,330.00,2.00,0.00,29.97,M,6.21,M,BKN,SCT,M,M,400.00,1000.00,M,M,M,M,M,M,M,M,M,68.00,SBAN 080600Z 33002KT 9999 BKN004 SCT010 20/20 Q1015,M
SBGR,2025-01-08 07:00,66.20,64.40,93.92,110.00,4.00,0.00,29.91,M,6.21,M,FEW,BKN,M,M,900.00,1300.00,M,M,M,M,M,M,M,M,M,66.20,SBGR 080700Z 11004KT 9999 FEW009 BKN013 19/18 Q1013,M
SBAN,2025-01-08 07:00,66.20,66.20,100.00,290.00,4.00,0.00,30.00,M,6.21,M,BKN,SCT,M,M,300.00,1000.00,M,M,M,M,M,M,M,M,M,66.20,SBAN 080700Z 29004KT 9999 BKN003 SCT010 19/19 Q1016,M
SBGR,2025-01-08 08:00,68.00,64.40,88.26,110.00,2.00,0.00,29.94,M,6.21,M,FEW,BKN,M,M,700.00,900.00,M,M,M,M,M,M,M,M,M,68.00,SBGR 080800Z 11002KT 9999 FEW007 BKN009 20/18 Q1014,M
SBAN,2025-01-08 08:00,66.20,66.20,100.00,250.00,4.00,0.00,30.00,M,6.21,M,SCT,SCT,M,M,500.00,1000.00,M,M,M,M,M,M,M,M,M,66.20,SBAN 080800Z 25004KT 9999 SCT005 SCT010 19/19 Q1016,M
SBAN,2025-01-08 09:00,68.00,68.00,100.00,320.00,3.00,0.00,30.00,M,6.21,M,BKN,SCT,M,M,300.00,500.00,M,M,M,M,M,M,M,M,M,68.00,SBAN 080900Z 32003KT 9999 BKN003 SCT005 20/20 Q1016,M
SBGR,2025-01-08 09:00,66.20,64.40,93.92,80.00,5.00,0.00,29.94,M,4.35,M,BKN,OVC,M,M,1100.00,1900.00,M,M,M,M,M,M,M,M,M,66.20,SBGR 080900Z 08005KT 7000 BKN011 OVC019 19/18 Q1014,M
SBGR,2025-01-08 09:34,68.00,64.40,88.26,60.00,5.00,0.00,29.94,M,6.21,M,SCT,BKN,M,M,1300.00,1700.00,M,M,M,M,M,M,M,M,M,68.00,SBGR 080934Z 06005KT 020V080 9999 SCT013 BKN017 20/18 Q1014,M
SBGR,2025-01-08 10:00,68.00,64.40,88.26,120.00,5.00,0.00,29.94,M,6.21,M,SCT,BKN,M,M,1300.00,1600.00,M,M,M,M,M,M,M,M,M,68.00,SBGR 081000Z 12005KT 100V170 9999 SCT013 BKN016 20/18 Q1014,M
SBAN,2025-01-08 10:00,68.00,68.00,100.00,330.00,3.00,0.00,30.00,M,6.21,M,BKN,M,M,M,300.00,M,M,M,M,M,M,M,M,M,M,68.00,SBAN 081000Z 33003KT 9999 BKN003 20/20 Q1016,M
SBGR,2025-01-08 11:00,69.80,64.40,82.98,70.00,8.00,0.00,29.97,M,6.21,M,SCT,BKN,M,M,1300.00,1500.00,M,M,M,M,M,M,M,M,M,69.80,SBGR 081100Z 07008KT 040V100 9999 SCT013 BKN015 21/18 Q1015,M
SBAN,2025-01-08 11:00,69.80,68.00,94.01,330.00,5.00,0.00,30.03,M,6.21,M,BKN,M,M,M,600.00,M,M,M,M,M,M,M,M,M,M,69.80,SBAN 081100Z 33005KT 9999 BKN006 21/20 Q1017,M
SBGR,2025-01-08 12:00,69.80,64.40,82.98,70.00,8.00,0.00,29.97,M,6.21,M,BKN,M,M,M,1700.00,M,M,M,M,M,M,M,M,M,M,69.80,SBGR 081200Z 07008KT 9999 BKN017 21/18 Q1015,M
SBAN,2025-01-08 12:00,69.80,68.00,94.01,330.00,5.00,0.00,30.03,M,6.21,M,BKN,M,M,M,600.00,M,M,M,M,M,M,M,M,M,M,69.80,SBAN 081200Z 33005KT 9999 BKN006 21/20 Q1017,M
SBAN,2025-01-08 13:00,69.80,68.00,94.01,320.00,4.00,0.00,30.06,M,6.21,M,BKN,M,M,M,500.00,M,M,M,VCSH,M,M,M,M,M,M,69.80,SBAN 081300Z 32004KT 9999 VCSH BKN005 21/20 Q1018,M
SBGR,2025-01-08 13:00,71.60,64.40,78.04,70.00,6.00,0.00,29.97,M,6.21,M,BKN,M,M,M,1900.00,M,M,M,M,M,M,M,M,M,M,71.60,SBGR 081300Z 07006KT 020V110 9999 BKN019 22/18 Q1015,M
SBAN,2025-01-08 14:00,73.40,69.80,88.51,340.00,3.00,0.00,30.06,M,6.21,M,BKN,BKN,FEW,M,500.00,1500.00,2000.00,M,SHRA,M,M,M,M,M,M,73.40,SBAN 081400Z 34003KT 9999 SHRA BKN005 BKN015 FEW020TCU 23/21 Q1018,M
SBGR,2025-01-08 14:00,77.00,64.40,65.12,80.00,6.00,0.00,29.97,M,6.21,16.00,BKN,M,M,M,2600.00,M,M,M,M,M,M,M,M,M,M,77.00,SBGR 081400Z 08006G16KT 030V110 9999 BKN026 25/18 Q1015,M
SBAN,2025-01-08 15:00,75.20,68.00,78.34,330.00,5.00,0.00,30.03,M,6.21,M,BKN,BKN,FEW,M,900.00,1500.00,2000.00,M,VCSH,M,M,M,M,M,M,75.20,SBAN 081500Z 33005KT 9999 VCSH BKN009 BKN015 FEW020TCU 24/20 Q1017 RESHRA,M
SBGR,2025-01-08 15:00,78.80,64.40,61.36,130.00,5.00,0.00,29.94,M,6.21,M,BKN,M,M,M,3000.00,M,M,M,M,M,M,M,M,M,M,78.80,SBGR 081500Z 13005KT 9999 BKN030 26/18 Q1014,M
SBAN,2025-01-08 16:00,77.00,69.80,78.48,330.00,5.00,0.00,30.00,M,6.21,M,BKN,BKN,FEW,M,900.00,1500.00,2000.00,M,VCSH,M,M,M,M,M,M,77.00,SBAN 081600Z 33005KT 9999 VCSH BKN009 BKN015 FEW020TCU 25/21 Q1016,M
SBGR,2025-01-08 16:00,82.40,64.40,54.55,120.00,6.00,0.00,29.94,M,6.21,M,BKN,M,M,M,3600.00,M,M,M,M,M,M,M,M,M,M,83.98,SBGR 081600Z 12006KT 090V160 9999 BKN036 28/18 Q1014,M
SBGR,2025-01-08 17:00,82.40,62.60,51.21,140.00,4.00,0.00,29.88,M,6.21,M,BKN,M,M,M,4000.00,M,M,M,M,M,M,M,M,M,M,83.41,COR SBGR 081700Z 14004KT 9999 BKN040 28/17 Q1012,M
SBAN,2025-01-08 17:00,75.20,68.00,78.34,330.00,4.00,0.00,29.97,M,6.21,M,SCT,BKN,FEW,M,900.00,1500.00,2000.00,M,VCSH,M,M,M,M,M,M,75.20,SBAN 081700Z 33004KT 9999 VCSH SCT009 BKN015 FEW020TCU 24/20 Q1015,M
SBGR,2025-01-08 18:00,77.00,66.20,69.33,140.00,11.00,0.00,29.88,M,6.21,M,BKN,FEW,M,M,2300.00,3000.00,M,M,M,M,M,M,M,M,M,77.00,SBGR 081800Z 14011KT 9999 BKN023 FEW030TCU 25/19 Q1012,M
SBAN,2025-01-08 18:00,71.60,69.80,94.06,350.00,4.00,0.00,29.91,M,6.21,M,SCT,BKN,FEW,M,900.00,1500.00,2000.00,M,SHRA,M,M,M,M,M,M,71.60,SBAN 081800Z 35004KT 9999 SHRA SCT009 BKN015 FEW020TCU 22/21 Q1013,M
SBGR,2025-01-08 18:20,73.40,66.20,78.19,160.00,19.00,0.00,29.88,M,3.73,M,BKN,SCT,M,M,2300.00,3000.00,M,M,TSRA,M,M,M,M,M,M,73.40,SBGR 081820Z 16019KT 6000 1500W TSRA BKN023 SCT030CB 23/19 Q1012,M
SBGR,2025-01-08 18:42,71.60,69.80,94.06,130.00,4.00,0.00,29.88,M,4.97,M,SCT,BKN,FEW,M,1700.00,2100.00,3000.00,M,-TSRA,M,M,M,M,M,M,71.60,COR SBGR 081842Z 13004KT 8000 -TSRA SCT017 BKN021 FEW030CB 22/21 Q1012 RERA,M
SBGR,2025-01-08 19:00,73.40,69.80,88.51,140.00,5.00,0.00,29.88,M,6.21,M,BKN,BKN,M,M,1900.00,2100.00,M,M,M,M,M,M,M,M,M,73.40,COR SBGR 081900Z 14005KT 9999 BKN019 BKN021 23/21 Q1012 RETS RETSRA,M
SBAN,2025-01-08 19:00,71.60,68.00,88.43,350.00,4.00,0.00,29.94,M,6.21,M,BKN,BKN,FEW,M,600.00,1500.00,2000.00,M,SHRA,M,M,M,M,M,M,71.60,SBAN 081900Z 35004KT 9999 SHRA BKN006 BKN015 FEW020TCU 22/20 Q1014,M
SBAN,2025-01-08 20:00,69.80,69.80,100.00,320.00,2.00,0.00,29.91,M,6.21,M,BKN,SCT,FEW,M,600.00,1500.00,2000.00,M,VCSH,M,M,M,M,M,M,69.80,COR SBAN 082000Z 32002KT 9999 VCSH BKN006 SCT015 FEW020TCU 21/21 Q1013,M
SBGR,2025-01-08 20:00,71.60,66.20,83.09,120.00,10.00,0.00,29.88,M,6.21,M,BKN,BKN,M,M,1900.00,2300.00,M,M,M,M,M,M,M,M,M,71.60,SBGR 082000Z 12010KT 9999 BKN019 BKN023 22/19 Q1012,M
SBAN,2025-01-08 21:00,68.00,68.00,100.00,0.00,0.00,0.00,29.94,M,6.21,M,FEW,BKN,FEW,M,900.00,1500.00,2000.00,M,VCSH VCTS,M,M,M,M,M,M,68.00,SBAN 082100Z 00000KT 9999 VCSH VCTS FEW009 BKN015 FEW020CB 20/20 Q1014,M
SBGR,2025-01-08 21:00,71.60,66.20,83.09,130.00,7.00,0.00,29.88,M,6.21,M,BKN,BKN,M,M,4000.00,10000.00,M,M,M,M,M,M,M,M,M,71.60,SBGR 082100Z 13007KT 9999 BKN040 BKN100 22/19 Q1012,M
SBAN,2025-01-08 22:00,68.00,68.00,100.00,M,2.00,0.00,29.97,M,1.86,M,SCT,BKN,FEW,BKN,100.00,1000.00,3000.00,7000.00,TSRA BR,M,M,M,M,M,M,68.00,SBAN 082200Z VRB02KT 3000 TSRA BR SCT001 BKN010 FEW030CB BKN070 20/20 Q1015,M
SBGR,2025-01-08 22:00,71.60,66.20,83.09,140.00,6.00,0.00,29.91,M,6.21,M,BKN,BKN,M,M,1700.00,3000.00,M,M,M,M,M,M,M,M,M,71.60,SBGR 082200Z 14006KT 9999 BKN017 BKN030 22/19 Q1013,M
SBAN,2025-01-08 23:00,68.00,68.00,100.00,M,2.00,0.00,30.00,M,3.73,M,FEW,BKN,FEW,BKN,100.00,400.00,3000.00,7000.00,-TSRA,M,M,M,M,M,M,68.00,SBAN 082300Z VRB02KT 6000 -TSRA FEW001 BKN004 FEW030CB BKN070 20/20 Q1016 RERA,M
SBGR,2025-01-08 23:00,69.80,66.20,88.34,140.00,6.00,0.00,29.94,M,6.21,M,FEW,BKN,BKN,M,1300.00,3300.00,9000.00,M,M,M,M,M,M,M,M,69.80,SBGR 082300Z 14006KT 9999 FEW013 BKN033 BKN090 21/19 Q1014,M
SBAN,2025-01-09 00:00,68.00,68.00,100.00,180.00,5.00,0.00,30.00,M,1.86,M,FEW,BKN,FEW,BKN,100.00,400.00,3000.00,7000.00,-RA,M,M,M,M,M,M,68.00,SBAN 090000Z 18005KT 3000 -RA FEW001 BKN004 FEW030TCU BKN070 20/20 Q1016 RETS,M
SBGR,2025-01-09 00:00,69.80,64.40,82.98,130.00,6.00,0.00,29.94,M,6.21,M,FEW,SCT,BKN,M,3000.00,4000.00,7000.00,M,M,M,M,M,M,M,M,69.80,SBGR 090000Z 13006KT 9999 FEW030 SCT040 BKN070 21/18 Q1014,M
SBAN,2025-01-09 01:00,66.20,66.20,100.00,140.00,5.00,0.00,30.03,M,1.86,M,FEW,BKN,FEW,BKN,100.00,400.00,3000.00,7000.00,RA,M,M,M,M,M,M,66.20,SBAN 090100Z 14005KT 3000 RA FEW001 BKN004 FEW030TCU BKN070 19/19 Q1017,M
SBGR,2025-01-09 01:00,68.00,64.40,88.26,110.00,7.00,0.00,29.97,M,6.21,M,BKN,BKN,M,M,1100.00,7000.00,M,M,M,M,M,M,M,M,M,68.00,SBGR 090100Z 11007KT 9999 BKN011 BKN070 20/18 Q1015,M
SBGR,2025-01-09 02:00,68.00,64.40,88.26,140.00,4.00,0.00,29.97,M,6.21,M,OVC,M,M,M,900.00,M,M,M,M,M,M,M,M,M,M,68.00,SBGR 090200Z 14004KT 9999 OVC009 20/18 Q1015,M
SBAN,2025-01-09 02:00,66.20,66.20,100.00,80.00,6.00,0.00,30.00,M,1.86,M,FEW,BKN,FEW,BKN,300.00,400.00,3000.00,7000.00,-RA BR,M,M,M,M,M,M,66.20,SBAN 090200Z 08006KT 3000 -RA BR FEW003 BKN004 FEW030TCU BKN070 19/19 Q1016 RERA,M
SBGR,2025-01-09 03:00,68.00,64.40,88.26,130.00,4.00,0.00,29.94,M,6.21,M,OVC,M,M,M,900.00,M,M,M,M,M,M,M,M,M,M,68.00,SBGR 090300Z 13004KT 9999 OVC009 20/18 Q1014,M
SBAN,2025-01-09 03:00,66.20,66.20,100.00,70.00,8.00,0.00,30.00,M,2.49,M,BKN,SCT,FEW,M,200.00,600.00,3000.00,M,-RA BR,M,M,M,M,M,M,66.20,SBAN 090300Z 07008KT 4000 -RA BR BKN002 SCT006 FEW030TCU 19/19 Q1016,M
SBGR,2025-01-09 04:00,68.00,64.40,88.26,90.00,7.00,0.00,29.91,M,6.21,M,OVC,M,M,M,1300.00,M,M,M,M,M,M,M,M,M,M,68.00,SBGR 090400Z 09007KT 9999 OVC013 20/18 Q1013,M
SBAN,2025-01-09 04:00,66.20,66.20,100.00,290.00,5.00,0.00,30.00,M,6.21,M,BKN,BKN,M,M,400.00,10000.00,M,M,-RA,M,M,M,M,M,M,66.20,SBAN 090400Z 29005KT 9999 -RA BKN004 BKN100 19/19 Q1016,M
SBGR,2025-01-09 05:00,68.00,64.40,88.26,90.00,6.00,0.00,29.91,M,6.21,M,OVC,M,M,M,1300.00,M,M,M,M,M,M,M,M,M,M,68.00,SBGR 090500Z 09006KT 9999 OVC013 20/18 Q1013,M
SBAN,2025-01-09 05:00,66.20,66.20,100.00,250.00,4.00,0.00,29.97,M,3.73,M,BKN,BKN,M,M,500.00,10000.00,M,M,-RA,M,M,M,M,M,M,66.20,SBAN 090500Z 25004KT 6000 -RA BKN005 BKN100 19/19 Q1015,M
SBGR,2025-01-09 06:00,66.20,64.40,93.92,150.00,4.00,0.00,29.91,M,5.59,M,OVC,M,M,M,900.00,M,M,M,-DZ,M,M,M,M,M,M,66.20,SBGR 090600Z 15004KT 9000 -DZ OVC009 19/18 Q1013,M
SBAN,2025-01-09 06:00,66.20,66.20,100.00,360.00,3.00,0.00,29.94,M,4.97,M,BKN,BKN,M,M,400.00,10000.00,M,M,-RA,M,M,M,M,M,M,66.20,SBAN 090600Z 36003KT 8000 3000SW -RA BKN004 BKN100 19/19 Q1014,M
SBGR,2025-01-09 07:00,66.20,64.40,93.92,150.00,4.00,0.00,29.88,M,6.21,M,BKN,OVC,M,M,900.00,2000.00,M,M,M,M,M,M,M,M,M,66.20,SBGR 090700Z 15004KT 9999 BKN009 OVC020 19/18 Q1012,M
SBAN,2025-01-09 07:00,64.40,64.40,100.00,270.00,4.00,0.00,29.97,M,2.49,M,BKN,BKN,M,M,600.00,10000.00,M,M,BR,M,M,M,M,M,M,64.40,SBAN 090700Z 27004KT 4000 BR BKN006 BKN100 18/18 Q1015,M
SBAN,2025-01-09 08:00,66.20,66.20,100.00,360.00,4.00,0.00,29.94,M,4.97,M,FEW,BKN,BKN,M,200.00,400.00,10000.00,M,-RA,M,M,M,M,M,M,66.20,SBAN 090800Z 36004KT 8000 -RA FEW002 BKN004 BKN100 19/19 Q1014,M
SBGR,2025-01-09 08:00,66.20,62.60,88.18,120.00,5.00,0.00,29.88,M,6.21,M,BKN,BKN,M,M,2000.00,7000.00,M,M,M,M,M,M,M,M,M,66.20,SBGR 090800Z 12005KT 9999 BKN020 BKN070 19/17 Q1012,M
SBGR,2025-01-09 09:00,66.20,62.60,88.18,130.00,4.00,0.00,29.91,M,6.21,M,BKN,OVC,M,M,1100.00,7000.00,M,M,M,M,M,M,M,M,M,66.20,SBGR 090900Z 13004KT 9999 BKN011 OVC070 19/17 Q1013,M
SBAN,2025-01-09 09:00,66.20,66.20,100.00,350.00,4.00,0.00,29.94,M,0.56,M,FEW,BKN,BKN,M,200.00,400.00,10000.00,M,FG,M,M,M,M,M,M,66.20,SBAN 090900Z 35004KT 0900 R06L/P2000 R24R/P2000 FG FEW002 BKN004 BKN100 19/19 Q1014,M
SBAN,2025-01-09 10:00,66.20,66.20,100.00,350.00,4.00,0.00,29.97,M,0.56,M,BKN,M,M,M,300.00,M,M,M,-DZ FG,M,M,M,M,M,M,66.20,SBAN 091000Z 35004KT 0900 R06L/1800 R24R/P2000 -DZ FG BKN003 19/19 Q1015,M
SBGR,2025-01-09 10:00,68.00,62.60,82.86,110.00,5.00,0.00,29.94,M,6.21,M,BKN,BKN,M,M,1300.00,7000.00,M,M,M,M,M,M,M,M,M,68.00,SBGR 091000Z 11005KT 9999 BKN013 BKN070 20/17 Q1014,M
SBAN,2025-01-09 11:00,68.00,68.00,100.00,350.00,4.00,0.00,29.97,M,0.31,M,BKN,M,M,M,300.00,M,M,M,-DZ FG,M,M,M,M,M,M,68.00,SBAN 091100Z 35004KT 0500 R06L/0900 R24R/P2000 -DZ FG BKN003 20/20 Q1015,M
SBGR,2025-01-09 11:00,68.00,62.60,82.86,140.00,4.00,0.00,29.94,M,6.21,M,BKN,BKN,M,M,1300.00,1700.00,M,M,M,M,M,M,M,M,M,68.00,SBGR 091100Z 14004KT 9999 BKN013 BKN017 20/17 Q1014,M
SBAN,2025-01-09 12:00,68.00,68.00,100.00,350.00,5.00,0.00,30.00,M,0.62,M,BKN,M,M,M,300.00,M,M,M,BR BCFG,M,M,M,M,M,M,68.00,SBAN 091200Z 35005KT 1000 R06L/P2000 R24R/P2000 BR BCFG BKN003 20/20 Q1016,M
SBGR,2025-01-09 12:00,69.80,62.60,77.90,110.00,4.00,0.00,29.94,M,6.21,M,OVC,M,M,M,1500.00,M,M,M,M,M,M,M,M,M,M,69.80,SBGR 091200Z 11004KT 9999 OVC015 21/17 Q1014,M
SBAN,2025-01-09 13:00,69.80,69.80,100.00,340.00,6.00,0.00,30.00,M,1.24,M,BKN,M,M,M,300.00,M,M,M,-DZ BR,M,M,M,M,M,M,69.80,SBAN 091300Z 34006KT 2000 -DZ BR BKN003 21/21 Q1016,M
SBGR,2025-01-09 13:00,71.60,64.40,78.04,110.00,4.00,0.00,29.94,M,6.21,M,OVC,M,M,M,1900.00,M,M,M,M,M,M,M,M,M,M,71.60,SBGR 091300Z 11004KT 9999 OVC019 22/18 Q1014,M
SBAN,2025-01-09 14:00,73.40,68.00,83.21,330.00,6.00,0.00,30.00,M,6.21,18.00,BKN,SCT,M,M,400.00,1500.00,M,M,-DZ,M,M,M,M,M,M,73.40,SBAN 091400Z 33006G18KT 9999 4000NE -DZ BKN004 SCT015 23/20 Q1016,M
SBGR,2025-01-09 14:00,73.40,64.40,73.44,120.00,5.00,0.00,29.94,M,6.21,M,BKN,M,M,M,2000.00,M,M,M,M,M,M,M,M,M,M,73.40,SBGR 091400Z 12005KT 9999 BKN020 23/18 Q1014,M
SBAN,2025-01-09 15:00,73.40,68.00,83.21,340.00,5.00,0.00,29.97,M,6.21,M,SCT,BKN,BKN,FEW,400.00,600.00,1500.00,2000.00,VCSH,M,M,M,M,M,M,73.40,SBAN 091500Z 34005KT 9999 VCSH SCT004 BKN006 BKN015 FEW020TCU 23/20 Q1015,M
SBGR,2025-01-09 15:00,75.20,64.40,69.14,130.00,5.00,0.00,29.94,M,6.21,M,OVC,M,M,M,2500.00,M,M,M,M,M,M,M,M,M,M,75.20,SBGR 091500Z 13005KT 9999 OVC025 24/18 Q1014,M
SBGR,2025-01-09 16:00,73.40,64.40,73.44,150.00,8.00,0.00,29.91,M,6.21,M,OVC,M,M,M,2500.00,M,M,M,M,M,M,M,M,M,M,73.40,SBGR 091600Z 15008KT 9999 OVC025 23/18 Q1013,M
SBAN,2025-01-09 16:00,73.40,68.00,83.21,340.00,5.00,0.00,29.97,M,6.21,M,BKN,BKN,FEW,M,800.00,1500.00,2000.00,M,VCSH,M,M,M,M,M,M,73.40,COR SBAN 091600Z 34005KT 9999 VCSH BKN008 BKN015 FEW020TCU 23/20 Q1015,M
SBGR,2025-01-09 17:00,75.20,64.40,69.14,150.00,8.00,0.00,29.91,M,6.21,M,BKN,OVC,M,M,2600.00,4000.00,M,M,M,M,M,M,M,M,M,75.20,SBGR 091700Z 15008KT 110V180 9999 BKN026 OVC040 24/18 Q1013,M
SBAN,2025-01-09 17:00,71.60,69.80,94.06,340.00,5.00,0.00,29.94,M,4.35,M,BKN,BKN,FEW,M,800.00,1500.00,2000.00,M,-DZ VCSH,M,M,M,M,M,M,71.60,SBAN 091700Z 34005KT 7000 -DZ VCSH BKN008 BKN015 FEW020TCU 22/21 Q1014,M
SBAN,2025-01-09 18:00,71.60,69.80,94.06,350.00,5.00,0.00,29.91,M,6.21,M,BKN,BKN,FEW,M,400.00,1300.00,2000.00,M,VCSH,M,M,M,M,M,M,71.60,SBAN 091800Z 35005KT 9999 2000W VCSH BKN004 BKN013 FEW020TCU 22/21 Q1013,M
SBGR,2025-01-09 18:00,73.40,62.60,68.94,140.00,7.00,0.00,29.88,M,6.21,M,BKN,M,M,M,2600.00,M,M,M,M,M,M,M,M,M,M,73.40,SBGR 091800Z 14007KT 090V180 9999 BKN026 23/17 Q1012,M
SBGR,2025-01-09 19:00,73.40,64.40,73.44,160.00,10.00,0.00,29.88,M,6.21,M,BKN,M,M,M,2100.00,M,M,M,M,M,M,M,M,M,M,73.40,SBGR 091900Z 16010KT 120V200 9999 BKN021 23/18 Q1012,M
SBAN,2025-01-09 19:00,68.00,68.00,100.00,350.00,5.00,0.00,29.91,M,1.24,M,BKN,BKN,FEW,M,200.00,1300.00,2000.00,M,RA BR,M,M,M,M,M,M,68.00,SBAN 091900Z 35005KT 2000 RA BR BKN002 BKN013 FEW020TCU 20/20 Q1013,M
SBAN,2025-01-09 20:00,69.80,68.00,94.01,320.00,4.00,0.00,29.91,M,6.21,M,BKN,BKN,FEW,M,300.00,1300.00,2000.00,M,VCSH,M,M,M,M,M,M,69.80,SBAN 092000Z 32004KT 9999 VCSH BKN003 BKN013 FEW020TCU 21/20 Q1013,M
SBGR,2025-01-09 20:00,71.60,62.60,73.27,130.00,7.00,0.00,29.91,M,6.21,M,BKN,BKN,M,M,2100.00,3000.00,M,M,M,M,M,M,M,M,M,71.60,SBGR 092000Z 13007KT 100V170 9999 BKN021 BKN030 22/17 Q1013,M
SBAN,2025-01-09 21:00,68.00,68.00,100.00,330.00,5.00,0.00,29.91,M,6.21,M,BKN,BKN,FEW,M,300.00,1300.00,2000.00,M,-RA,M,M,M,M,M,M,68.00,SBAN 092100Z 33005KT 9999 4000NE -RA BKN003 BKN013 FEW020TCU 20/20 Q1013,M
SBGR,2025-01-09 21:00,69.80,62.60,77.90,130.00,9.00,0.00,29.91,M,6.21,M,BKN,M,M,M,1700.00,M,M,M,M,M,M,M,M,M,M,69.80,SBGR 092100Z 13009KT 100V160 9999 BKN017 21/17 Q1013,M
SBGR,2025-01-09 22:00,68.00,62.60,82.86,130.00,8.00,0.00,29.94,M,6.21,M,BKN,BKN,M,M,1500.00,2300.00,M,M,M,M,M,M,M,M,M,68.00,SBGR 092200Z 13008KT 100V160 9999 BKN015 BKN023 20/17 Q1014,M
SBAN,2025-01-09 22:00,66.20,66.20,100.00,320.00,5.00,0.00,29.94,M,6.21,M,BKN,BKN,FEW,M,300.00,1300.00,2000.00,M,SHRA,M,M,M,M,M,M,66.20,SBAN 092200Z 32005KT 9999 2000NE SHRA BKN003 BKN013 FEW020TCU 19/19 Q1014,M
SBGR,2025-01-09 23:00,68.00,62.60,82.86,130.00,7.00,0.00,29.94,M,6.21,M,BKN,BKN,M,M,1300.00,2000.00,M,M,M,M,M,M,M,M,M,68.00,SBGR 092300Z 13007KT 100V170 9999 BKN013 BKN020 20/17 Q1014,M
SBAN,2025-01-09 23:00,66.20,66.20,100.00,M,3.00,0.00,29.94,M,1.86,M,BKN,BKN,FEW,M,300.00,1300.00,2000.00,M,-DZ BR,M,M,M,M,M,M,66.20,SBAN 092300Z VRB03KT 3000 -DZ BR BKN003 BKN013 FEW020TCU 19/19 Q1014 RESHRA,M
SBGR,2025-01-10 00:00,68.00,62.60,82.86,110.00,7.00,0.00,29.94,M,6.21,M,BKN,M,M,M,1300.00,M,M,M,M,M,M,M,M,M,M,68.00,SBGR 100000Z 11007KT 090V150 9999 BKN013 20/17 Q1014,M
SBAN,2025-01-10 00:00,66.20,66.20,100.00,310.00,3.00,0.00,29.97,M,1.86,M,BKN,BKN,FEW,M,200.00,1500.00,3000.00,M,BR,M,M,M,M,M,M,66.20,SBAN 100000Z 31003KT 3000 BR BKN002 BKN015 FEW030TCU 19/19 Q1015,M
SBAN,2025-01-10 01:00,66.20,66.20,100.00,330.00,2.00,0.00,29.97,M,6.21,M,BKN,SCT,M,M,300.00,1500.00,M,M,M,M,M,M,M,M,M,66.20,SBAN 100100Z 33002KT 9999 BKN003 SCT015 19/19 Q1015,M
SBGR,2025-01-10 01:00,68.00,62.60,82.86,110.00,5.00,0.00,29.94,M,6.21,M,OVC,M,M,M,1300.00,M,M,M,M,M,M,M,M,M,M,68.00,SBGR 100100Z 11005KT 9999 OVC013 20/17 Q1014,M
SBAN,2025-01-10 02:00,66.20,66.20,100.00,330.00,2.00,0.00,30.00,M,1.86,M,BKN,SCT,M,M,300.00,1000.00,M,M,BR,M,M,M,M,M,M,66.20,SBAN 100200Z 33002KT 3000 BR BKN003 SCT010 19/19 Q1016,M
SBGR,2025-01-10 02:00,66.20,62.60,88.18,100.00,7.00,0.00,29.97,M,6.21,M,OVC,M,M,M,1300.00,M,M,M,M,M,M,M,M,M,M,66.20,SBGR 100200Z 10007KT 9999 OVC013 19/17 Q1015,M
SBAN,2025-01-10 03:00,66.20,66.20,100.00,330.00,2.00,0.00,30.00,M,1.86,M,BKN,SCT,M,M,300.00,1000.00,M,M,BR,M,M,M,M,M,M,66.20,SBAN 100300Z 33002KT 3000 BR BKN003 SCT010 19/19 Q1016,M
SBGR,2025-01-10 03:00,66.20,62.60,88.18,100.00,4.00,0.00,29.94,M,6.21,M,FEW,BKN,BKN,M,2500.00,4600.00,10000.00,M,M,M,M,M,M,M,M,66.20,SBGR 100300Z 10004KT 9999 FEW025 BKN046 BKN100 19/17 Q1014,M
SBGR,2025-01-10 04:00,66.20,62.60,88.18,110.00,5.00,0.00,29.94,M,6.21,M,SCT,BKN,BKN,M,1300.00,2000.00,3000.00,M,M,M,M,M,M,M,M,66.20,SBGR 100400Z 11005KT 9999 SCT013 BKN020 BKN030 19/17 Q1014,M
SBAN,2025-01-10 04:00,64.40,64.40,100.00,320.00,3.00,0.00,30.00,M,2.49,M,BKN,SCT,M,M,300.00,1000.00,M,M,BR,M,M,M,M,M,M,64.40,SBAN 100400Z 32003KT 4000 BR BKN003 SCT010 18/18 Q1016,M
SBGR,2025-01-10 05:00,66.20,62.60,88.18,120.00,6.00,0.00,29.94,M,6.21,M,BKN,BKN,M,M,1300.00,1700.00,M,M,M,M,M,M,M,M,M,66.20,SBGR 100500Z 12006KT 9999 BKN013 BKN017 19/17 Q1014,M
SBAN,2025-01-10 05:00,64.40,64.40,100.00,300.00,3.00,0.00,30.00,M,3.11,M,BKN,SCT,M,M,300.00,1000.00,M,M,BR,M,M,M,M,M,M,64.40,SBAN 100500Z 30003KT 5000 BR BKN003 SCT010 18/18 Q1016,M
SBGR,2025-01-10 06:00,66.20,62.60,88.18,150.00,3.00,0.00,29.91,M,6.21,M,BKN,BKN,M,M,1000.00,2000.00,M,M,M,M,M,M,M,M,M,66.20,SBGR 100600Z 15003KT 9999 BKN010 BKN020 19/17 Q1013,M
SBAN,2025-01-10 06:00,66.20,66.20,100.00,350.00,3.00,0.00,29.94,M,0.50,M,BKN,SCT,M,M,300.00,1000.00,M,M,FG,M,M,M,M,M,M,66.20,SBAN 100600Z 35003KT 0800 R06L/M0050 R24R/M0050 FG BKN003 SCT010 19/19 Q1014,M
SBGR,2025-01-10 07:00,64.40,62.60,93.88,130.00,3.00,0.00,29.91,M,6.21,M,FEW,BKN,M,M,1000.00,2000.00,M,M,M,M,M,M,M,M,M,64.40,SBGR 100700Z 13003KT 9999 FEW010 BKN020 18/17 Q1013,M
SBAN,2025-01-10 07:00,66.20,66.20,100.00,320.00,2.00,0.00,29.94,M,0.50,M,BKN,SCT,M,M,300.00,1000.00,M,M,FG,M,M,M,M,M,M,66.20,SBAN 100700Z 32002KT 0800 R06L/M0050 R24R/M0050 FG BKN003 SCT010 19/19 Q1014,M
SBGR,2025-01-10 08:00,64.40,62.60,93.88,140.00,3.00,0.00,29.91,M,6.21,M,FEW,BKN,M,M,1000.00,2000.00,M,M,M,M,M,M,M,M,M,64.40,SBGR 100800Z 14003KT 9999 FEW010 BKN020 18/17 Q1013,M
SBAN,2025-01-10 08:00,66.20,66.20,100.00,320.00,2.00,0.00,29.94,M,0.50,M,BKN,SCT,M,M,200.00,1000.00,M,M,FG,M,M,M,M,M,M,66.20,SBAN 100800Z 32002KT 0800 R06L/M0050 R24R/M0050 FG BKN002 SCT010 19/19 Q1014,M
SBGR,2025-01-10 09:00,64.40,60.80,88.09,120.00,3.00,0.00,29.94,M,6.21,M,FEW,BKN,M,M,1000.00,2300.00,M,M,M,M,M,M,M,M,M,64.40,SBGR 100900Z 12003KT 9999 FEW010 BKN023 18/16 Q1014,M
SBAN,2025-01-10 09:00,66.20,66.20,100.00,350.00,3.00,0.00,29.97,M,0.25,M,BKN,SCT,M,M,200.00,1000.00,M,M,FG,M,M,M,M,M,M,66.20,SBAN 100900Z 35003KT 0400 R06L/M0050 R24R/M0050 FG BKN002 SCT010 19/19 Q1015,M
SBGR,2025-01-10 10:00,66.20,62.60,88.18,170.00,4.00,0.00,29.97,M,6.21,M,FEW,OVC,M,M,1100.00,3000.00,M,M,M,M,M,M,M,M,M,66.20,SBGR 101000Z 17004KT 9999 FEW011 OVC030 19/17 Q1015,M
SBAN,2025-01-10 10:00,66.20,66.20,100.00,M,3.00,0.00,29.97,M,0.25,M,BKN,SCT,M,M,200.00,1000.00,M,M,FG,M,M,M,M,M,M,66.20,COR SBAN 101000Z VRB03KT 0400 R06L/P2000 R24R/P2000 FG BKN002 SCT010 19/19 Q1015,M
SBGR,2025-01-10 11:00,68.00,60.80,77.75,160.00,7.00,0.00,29.97,M,6.21,M,BKN,M,M,M,3000.00,M,M,M,M,M,M,M,M,M,M,68.00,SBGR 101100Z 16007KT 9999 BKN030 20/16 Q1015,M
SBAN,2025-01-10 11:00,66.20,66.20,100.00,M,2.00,0.00,30.00,M,3.11,M,BKN,SCT,M,M,400.00,1000.00,M,M,BR,M,M,M,M,M,M,66.20,SBAN 101100Z VRB02KT 5000 BR BKN004 SCT010 19/19 Q1016,M
SBAN,2025-01-10 12:00,69.80,68.00,94.01,M,2.00,0.00,30.03,M,6.21,M,BKN,SCT,M,M,600.00,1000.00,M,M,M,M,M,M,M,M,M,69.80,SBAN 101200Z VRB02KT 9999 BKN006 SCT010 21/20 Q1017,M
SBGR,2025-01-10 12:00,71.60,60.80,68.75,150.00,5.00,0.00,29.97,M,6.21,M,BKN,M,M,M,2500.00,M,M,M,M,M,M,M,M,M,M,71.60,SBGR 101200Z 15005KT 9999 BKN025 22/16 Q1015,M
SBAN,2025-01-10 13:00,71.60,69.80,94.06,330.00,3.00,0.00,30.03,M,6.21,M,BKN,SCT,M,M,800.00,1000.00,M,M,M,M,M,M,M,M,M,71.60,SBAN 101300Z 33003KT 9999 BKN008 SCT010 22/21 Q1017,M
SBGR,2025-01-10 13:00,73.40,59.00,60.67,90.00,4.00,0.00,29.97,M,6.21,M,BKN,M,M,M,4000.00,M,M,M,M,M,M,M,M,M,M,73.40,SBGR 101300Z 09004KT 9999 BKN040 23/15 Q1015,M
SBGR,2025-01-10 14:00,75.20,59.00,57.12,130.00,3.00,0.00,29.97,M,6.21,M,BKN,M,M,M,4000.00,M,M,M,M,M,M,M,M,M,M,75.20,SBGR 101400Z 13003KT 9999 BKN040 24/15 Q1015,M
SBAN,2025-01-10 14:00,75.20,68.00,78.34,M,3.00,0.00,30.03,M,6.21,M,BKN,BKN,FEW,M,1100.00,2500.00,3500.00,M,M,M,M,M,M,M,M,75.20,SBAN 101400Z VRB03KT 9999 BKN011 BKN025 FEW035TCU 24/20 Q1017,M
SBAN,2025-01-10 15:00,77.00,69.80,78.48,M,4.00,0.00,30.00,M,6.21,M,BKN,BKN,FEW,M,1300.00,2500.00,3500.00,M,VCSH,M,M,M,M,M,M,77.00,SBAN 101500Z VRB04KT 9999 VCSH BKN013 BKN025 FEW035TCU 25/21 Q1016,M
SBGR,2025-01-10 15:00,75.20,60.80,60.90,140.00,5.00,0.00,29.97,M,6.21,M,BKN,M,M,M,4000.00,M,M,M,M,M,M,M,M,M,M,75.20,SBGR 101500Z 14005KT 9999 BKN040 24/16 Q1015,M
SBAN,2025-01-10 16:00,78.80,69.80,73.95,M,4.00,0.00,30.00,M,6.21,M,FEW,BKN,FEW,M,1500.00,2000.00,3500.00,M,VCSH,M,M,M,M,M,M,78.80,SBAN 101600Z VRB04KT 9999 VCSH FEW015 BKN020 FEW035TCU 26/21 Q1016,M
SBGR,2025-01-10 16:00,77.00,60.80,57.36,100.00,6.00,0.00,29.94,M,6.21,M,FEW,BKN,M,M,4000.00,5000.00,M,M,M,M,M,M,M,M,M,77.00,SBGR 101600Z 10006KT 9999 FEW040 BKN050 25/16 Q1014,M
SBGR,2025-01-10 17:00,77.00,60.80,57.36,170.00,5.00,0.00,29.91,M,6.21,M,FEW,BKN,M,M,4000.00,5000.00,M,M,M,M,M,M,M,M,M,77.00,SBGR 101700Z 17005KT 9999 FEW040 BKN050 25/16 Q1013,M
SBAN,2025-01-10 17:00,80.60,69.80,69.71,270.00,6.00,0.00,29.94,M,6.21,M,FEW,BKN,FEW,M,1500.00,2000.00,3500.00,M,M,M,M,M,M,M,M,83.90,SBAN 101700Z 27006KT 9999 FEW015 BKN020 FEW035TCU 27/21 Q1014,M
SBAN,2025-01-10 18:00,80.60,66.20,61.58,M,4.00,0.00,29.94,M,6.21,M,SCT,FEW,M,M,2000.00,3500.00,M,M,M,M,M,M,M,M,M,82.75,SBAN 101800Z VRB04KT 9999 SCT020 FEW035TCU 27/19 Q1014,M
SBGR,2025-01-10 18:00,77.00,62.60,61.13,170.00,8.00,0.00,29.91,M,6.21,M,BKN,M,M,M,3500.00,M,M,M,M,M,M,M,M,M,M,77.00,SBGR 101800Z 17008KT 9999 BKN035 25/17 Q1013,M
SBGR,2025-01-10 19:00,75.20,62.60,64.91,160.00,7.00,0.00,29.91,M,6.21,M,BKN,M,M,M,3000.00,M,M,M,M,M,M,M,M,M,M,75.20,SBGR 101900Z 16007KT 9999 BKN030 24/17 Q1013,M
SBAN,2025-01-10 19:00,80.60,66.20,61.58,M,4.00,0.00,29.91,M,6.21,M,SCT,FEW,M,M,2000.00,3500.00,M,M,M,M,M,M,M,M,M,82.75,SBAN 101900Z VRB04KT 9999 SCT020 FEW035TCU 27/19 Q1013,M
SBAN,2025-01-10 20:00,80.60,68.00,65.54,M,4.00,0.00,29.91,M,6.21,M,SCT,FEW,SCT,M,3000.00,3500.00,7000.00,M,M,M,M,M,M,M,M,83.29,SBAN 102000Z VRB04KT 9999 SCT030 FEW035TCU SCT070 27/20 Q1013,M
SBGR,2025-01-10 20:00,73.40,60.80,64.69,170.00,8.00,0.00,29.91,M,6.21,M,SCT,M,M,M,2500.00,M,M,M,M,M,M,M,M,M,M,73.40,SBGR 102000Z 17008KT 9999 SCT025 23/16 Q1013,M
SBGR,2025-01-10 21:00,71.60,60.80,68.75,170.00,7.00,0.00,29.91,M,6.21,M,BKN,M,M,M,2300.00,M,M,M,M,M,M,M,M,M,M,71.60,SBGR 102100Z 17007KT 9999 BKN023 22/16 Q1013,M
SBAN,2025-01-10 21:00,77.00,69.80,78.48,M,3.00,0.00,29.91,M,6.21,M,SCT,FEW,SCT,M,3000.00,3500.00,7000.00,M,VCSH,M,M,M,M,M,M,77.00,SBAN 102100Z VRB03KT 9999 VCSH SCT030 FEW035TCU SCT070 25/21 Q1013,M
SBAN,2025-01-10 22:00,73.40,69.80,88.51,0.00,0.00,0.00,29.94,M,6.21,M,SCT,FEW,SCT,M,3000.00,3500.00,7000.00,M,VCSH,M,M,M,M,M,M,73.40,SBAN 102200Z 00000KT 9999 VCSH SCT030 FEW035TCU SCT070 23/21 Q1014,M
SBGR,2025-01-10 22:00,69.80,60.80,73.09,150.00,6.00,0.00,29.94,M,6.21,M,SCT,M,M,M,2300.00,M,M,M,M,M,M,M,M,M,M,69.80,SBGR 102200Z 15006KT 9999 SCT023 21/16 Q1014,M
SBAN,2025-01-10 23:00,71.60,68.00,88.43,310.00,2.00,0.00,29.97,M,6.21,M,SCT,FEW,M,M,3000.00,3500.00,M,M,VCTS VCSH,M,M,M,M,M,M,71.60,SBAN 102300Z 31002KT 9999 VCTS VCSH SCT030 FEW035CB 22/20 Q1015,M
SBGR,2025-01-10 23:00,68.00,59.00,72.92,150.00,5.00,0.00,29.94,M,6.21,M,SCT,M,M,M,2000.00,M,M,M,M,M,M,M,M,M,M,68.00,SBGR 102300Z 15005KT 9999 SCT020 20/15 Q1014,M
SBAN,2025-01-11 00:00,71.60,71.60,100.00,290.00,3.00,0.00,29.97,M,6.21,M,BKN,FEW,M,M,500.00,3500.00,M,M,VCTS,M,M,M,M,M,M,71.60,SBAN 110000Z 29003KT 9999 VCTS BKN005 FEW035CB 22/22 Q1015,M
SBGR,2025-01-11 00:00,66.20,57.20,72.74,140.00,4.00,0.00,29.94,M,6.21,M,M,M,M,M,M,M,M,M,M,M,M,M,M,M,M,66.20,SBGR 110000Z 14004KT CAVOK 19/14 Q1014,M
SBGR,2025-01-11 01:00,64.40,59.00,82.62,100.00,6.00,0.00,29.97,M,6.21,M,M,M,M,M,M,M,M,M,M,M,M,M,M,M,M,64.40,SBGR 110100Z 10006KT 050V140 CAVOK 18/15 Q1015,M
SBAN,2025-01-11 01:00,69.80,69.80,100.00,320.00,3.00,0.00,30.00,M,6.21,M,FEW,BKN,BKN,M,300.00,500.00,10000.00,M,M,M,M,M,M,M,M,69.80,SBAN 110100Z 32003KT 9999 FEW003 BKN005 BKN100 21/21 Q1016,M
SBAN,2025-01-11 02:00,69.80,69.80,100.00,330.00,3.00,0.00,30.00,M,6.21,M,FEW,BKN,BKN,M,200.00,500.00,10000.00,M,M,M,M,M,M,M,M,69.80,SBAN 110200Z 33003KT 9999 4000NE FEW002 BKN005 BKN100 21/21 Q1016,M
SBGR,2025-01-11 02:00,64.40,57.20,77.45,110.00,4.00,0.00,29.97,M,6.21,M,FEW,M,M,M,300.00,M,M,M,M,M,M,M,M,M,M,64.40,SBGR 110200Z 11004KT 060V140 9999 FEW003 18/14 Q1015,M
SBAN,2025-01-11 03:00,68.00,68.00,100.00,320.00,3.00,0.00,30.00,M,6.21,M,FEW,BKN,BKN,M,200.00,500.00,10000.00,M,M,M,M,M,M,M,M,68.00,SBAN 110300Z 32003KT 9999 FEW002 BKN005 BKN100 20/20 Q1016,M
SBGR,2025-01-11 03:00,62.60,57.20,82.50,80.00,4.00,0.00,29.97,M,6.21,M,M,M,M,M,M,M,M,M,M,M,M,M,M,M,M,62.60,SBGR 110300Z 08004KT 050V110 CAVOK 17/14 Q1015,M
SBGR,2025-01-11 04:00,62.60,57.20,82.50,80.00,3.00,0.00,29.94,M,6.21,M,M,M,M,M,M,M,M,M,M,M,M,M,M,M,M,62.60,SBGR 110400Z 08003KT 040V110 CAVOK 17/14 Q1014,M
SBAN,2025-01-11 04:00,68.00,68.00,100.00,330.00,3.00,0.00,29.97,M,2.49,M,SCT,SCT,M,M,400.00,10000.00,M,M,BR,M,M,M,M,M,M,68.00,SBAN 110400Z 33003KT 4000 BR SCT004 SCT100 20/20 Q1015,M
SBGR,2025-01-11 05:00,59.00,57.20,93.74,190.00,1.00,0.00,29.94,M,6.21,M,M,M,M,M,M,M,M,M,M,M,M,M,M,M,M,59.00,SBGR 110500Z 19001KT CAVOK 15/14 Q1014,M
SBAN,2025-01-11 05:00,68.00,66.20,93.97,310.00,5.00,0.00,29.94,M,2.49,M,SCT,SCT,M,M,400.00,10000.00,M,M,BR,M,M,M,M,M,M,68.00,SBAN 110500Z 31005KT 4000 BR SCT004 SCT100 20/19 Q1014,M
SBAN,2025-01-11 06:00,68.00,68.00,100.00,330.00,2.00,0.00,29.97,M,0.31,M,FEW,BKN,BKN,M,200.00,400.00,10000.00,M,FG,M,M,M,M,M,M,68.00,SBAN 110600Z 33002KT 0500 R24R/P2000 R06L/P2000 FG FEW002 BKN004 BKN100 20/20 Q1015,M
SBGR,2025-01-11 06:00,60.80,57.20,87.92,80.00,2.00,0.00,29.91,M,6.21,M,M,M,M,M,M,M,M,M,M,M,M,M,M,M,M,60.80,SBGR 110600Z 08002KT CAVOK 16/14 Q1013,M
SBGR,2025-01-11 07:00,57.20,55.40,93.69,100.00,2.00,0.00,29.88,M,6.21,M,M,M,M,M,M,M,M,M,M,M,M,M,M,M,M,57.20,SBGR 110700Z 10002KT CAVOK 14/13 Q1012,M
SBAN,2025-01-11 07:00,66.20,66.20,100.00,310.00,5.00,0.00,29.94,M,2.49,M,BKN,SCT,M,M,500.00,10000.00,M,M,BR,M,M,M,M,M,M,66.20,SBAN 110700Z 31005KT 4000 BR BKN005 SCT100 19/19 Q1014,M
SBGR,2025-01-11 08:00,57.20,57.20,100.00,0.00,0.00,0.00,29.91,M,6.21,M,M,M,M,M,M,M,M,M,M,M,M,M,M,M,M,57.20,SBGR 110800Z 00000KT CAVOK 14/14 Q1013,M
SBAN,2025-01-11 08:00,68.00,68.00,100.00,330.00,2.00,0.00,29.97,M,0.25,M,FEW,BKN,BKN,M,200.00,400.00,10000.00,M,FG,M,M,M,M,M,M,68.00,SBAN 110800Z 33002KT 0400 R06L/P2000 R24R/P2000 FG FEW002 BKN004 BKN100 20/20 Q1015,M
SBAN,2025-01-11 09:00,68.00,68.00,100.00,330.00,2.00,0.00,29.97,M,0.06,M,BKN,BKN,M,M,400.00,900.00,M,M,FG,M,M,M,M,M,M,68.00,SBAN 110900Z 33002KT 0100 R24R/0450U R06L/0450U FG BKN004 BKN009 20/20 Q1015,M
SBGR,2025-01-11 09:00,59.00,57.20,93.74,80.00,2.00,0.00,29.91,M,6.21,M,FEW,M,M,M,1300.00,M,M,M,M,M,M,M,M,M,M,59.00,SBGR 110900Z 08002KT 9999 FEW013 15/14 Q1013,M
SBGR,2025-01-11 10:00,64.40,59.00,82.62,80.00,2.00,0.00,29.94,M,4.97,M,FEW,M,M,M,1200.00,M,M,M,M,M,M,M,M,M,M,64.40,SBGR 111000Z 08002KT 8000 FEW012 18/15 Q1014,M
SBAN,2025-01-11 10:00,68.00,68.00,100.00,340.00,3.00,0.00,30.00,M,0.25,M,BKN,BKN,M,M,400.00,900.00,M,M,FG,M,M,M,M,M,M,68.00,SBAN 111000Z 34003KT 0400 R24R/P2000 R06L/P2000 FG BKN004 BKN009 20/20 Q1016,M
SBGR,2025-01-11 11:00,66.20,59.00,77.60,50.00,6.00,0.00,29.94,M,6.21,M,BKN,M,M,M,1500.00,M,M,M,M,M,M,M,M,M,M,66.20,SBGR 111100Z 05006KT 9999 BKN015 19/15 Q1014,M
SBAN,2025-01-11 11:00,68.00,68.00,100.00,330.00,3.00,0.00,30.00,M,0.56,M,BKN,M,M,M,300.00,M,M,M,FG,M,M,M,M,M,M,68.00,SBAN 111100Z 33003KT 0900 R24R/P2000 R06L/P2000 FG BKN003 20/20 Q1016,M
SBAN,2025-01-11 12:00,71.60,68.00,88.43,340.00,3.00,0.00,30.03,M,6.21,M,BKN,M,M,M,400.00,M,M,M,M,M,M,M,M,M,M,71.60,SBAN 111200Z 34003KT 9999 BKN004 22/20 Q1017,M
SBGR,2025-01-11 12:00,66.20,59.00,77.60,40.00,7.00,0.00,29.97,M,6.21,M,BKN,M,M,M,1500.00,M,M,M,M,M,M,M,M,M,M,66.20,SBGR 111200Z 04007KT 9999 BKN015 19/15 Q1015,M
SBAN,2025-01-11 13:00,73.40,68.00,83.21,300.00,4.00,0.00,30.06,M,6.21,M,BKN,BKN,FEW,M,800.00,1500.00,2000.00,M,M,M,M,M,M,M,M,73.40,COR SBAN 111300Z 30004KT 9999 BKN008 BKN015 FEW020TCU 23/20 Q1018,M
SBGR,2025-01-11 13:00,71.60,60.80,68.75,50.00,6.00,0.00,29.94,M,6.21,M,FEW,M,M,M,1500.00,M,M,M,M,M,M,M,M,M,M,71.60,SBGR 111300Z 05006KT 9999 FEW015 22/16 Q1014,M
SBAN,2025-01-11 14:00,75.20,69.80,83.32,330.00,5.00,0.00,30.06,M,6.21,M,BKN,BKN,FEW,M,1300.00,1500.00,2000.00,M,M,M,M,M,M,M,M,75.20,SBAN 111400Z 33005KT 9999 BKN013 BKN015 FEW020TCU 24/21 Q1018,M
SBGR,2025-01-11 14:00,75.20,60.80,60.90,190.00,2.00,0.00,29.94,M,6.21,M,SCT,SCT,M,M,2500.00,10000.00,M,M,M,M,M,M,M,M,M,75.20,SBGR 111400Z 19002KT 9999 SCT025 SCT100 24/16 Q1014,M
SBAN,2025-01-11 15:00,77.00,68.00,73.78,340.00,4.00,0.00,30.03,M,6.21,M,BKN,FEW,M,M,1500.00,2000.00,M,M,M,M,M,M,M,M,M,77.00,SBAN 111500Z 34004KT 9999 BKN015 FEW020TCU 25/20 Q1017,M
SBGR,2025-01-11 15:00,78.80,60.80,54.05,340.00,4.00,0.00,29.94,M,6.21,M,SCT,SCT,M,M,3000.00,10000.00,M,M,M,M,M,M,M,M,M,78.80,SBGR 111500Z 34004KT 9999 SCT030 SCT100 26/16 Q1014,M
SBGR,2025-01-11 16:00,82.40,59.00,45.07,180.00,5.00,0.00,29.91,M,6.21,M,BKN,M,M,M,4600.00,M,M,M,M,M,M,M,M,M,M,82.46,SBGR 111600Z 18005KT 9999 BKN046 28/15 Q1013,M
SBAN,2025-01-11 16:00,80.60,68.00,65.54,320.00,5.00,0.00,30.03,M,6.21,15.00,BKN,FEW,M,M,1500.00,2000.00,M,M,M,M,M,M,M,M,M,83.29,SBAN 111600Z 32005G15KT 9999 BKN015 FEW020TCU 27/20 Q1017,M
SBGR,2025-01-11 17:00,82.40,60.80,48.05,180.00,6.00,0.00,29.88,M,6.21,M,M,M,M,M,M,M,M,M,M,M,M,M,M,M,M,82.90,SBGR 111700Z 18006KT CAVOK 28/16 Q1012,M
SBAN,2025-01-11 17:00,80.60,66.20,61.58,320.00,4.00,0.00,30.00,M,6.21,M,BKN,FEW,M,M,2000.00,2500.00,M,M,M,M,M,M,M,M,M,82.75,SBAN 111700Z 32004KT 9999 BKN020 FEW025TCU 27/19 Q1016,M
SBGR,2025-01-11 18:00,80.60,64.40,57.84,150.00,9.00,0.00,29.91,M,6.21,M,SCT,M,M,M,4000.00,M,M,M,M,M,M,M,M,M,M,82.27,SBGR 111800Z 15009KT 9999 SCT040 27/18 Q1013,M
SBAN,2025-01-11 18:00,82.40,66.20,58.08,340.00,4.00,0.00,29.97,M,6.21,M,SCT,FEW,M,M,2000.00,2500.00,M,M,M,M,M,M,M,M,M,84.63,SBAN 111800Z 34004KT 9999 SCT020 FEW025TCU 28/19 Q1015,M
SBAN,2025-01-11 19:00,82.40,66.20,58.08,350.00,4.00,0.00,29.94,M,6.21,M,SCT,FEW,M,M,2000.00,2500.00,M,M,M,M,M,M,M,M,M,84.63,SBAN 111900Z 35004KT 9999 SCT020 FEW025TCU 28/19 Q1014,M
SBGR,2025-01-11 19:00,77.00,64.40,65.12,160.00,9.00,0.00,29.88,M,6.21,M,SCT,M,M,M,3000.00,M,M,M,M,M,M,M,M,M,M,77.00,SBGR 111900Z 16009KT 9999 SCT030 25/18 Q1012,M
SBAN,2025-01-11 20:00,80.60,64.40,57.84,350.00,3.00,0.00,29.91,M,6.21,M,SCT,M,M,M,2000.00,M,M,M,M,M,M,M,M,M,M,82.27,SBAN 112000Z 35003KT 9999 SCT020 27/18 Q1013,M
SBGR,2025-01-11 20:00,75.20,62.60,64.91,180.00,6.00,0.00,29.88,M,6.21,M,BKN,M,M,M,3000.00,M,M,M,M,M,M,M,M,M,M,75.20,SBGR 112000Z 18006KT 9999 BKN030 24/17 Q1012,M
SBAN,2025-01-11 21:00,80.60,66.20,61.58,360.00,3.00,0.00,29.91,M,6.21,M,SCT,M,M,M,2000.00,M,M,M,M,M,M,M,M,M,M,82.75,SBAN 112100Z 36003KT 9999 SCT020 27/19 Q1013,M
SBGR,2025-01-11 21:00,73.40,62.60,68.94,170.00,6.00,0.00,29.91,M,6.21,M,BKN,M,M,M,2600.00,M,M,M,M,M,M,M,M,M,M,73.40,SBGR 112100Z 17006KT 9999 BKN026 23/17 Q1013,M
SBAN,2025-01-11 22:00,77.00,66.20,69.33,0.00,0.00,0.00,29.94,M,6.21,M,SCT,FEW,M,M,3000.00,3500.00,M,M,M,M,M,M,M,M,M,77.00,SBAN 112200Z 00000KT 9999 SCT030 FEW035TCU 25/19 Q1014,M
SBGR,2025-01-11 22:00,71.60,62.60,73.27,120.00,7.00,0.00,29.91,M,6.21,M,BKN,M,M,M,2000.00,M,M,M,M,M,M,M,M,M,M,71.60,SBGR 112200Z 12007KT 9999 BKN020 22/17 Q1013,M
SBGR,2025-01-11 23:00,69.80,60.80,73.09,110.00,6.00,0.00,29.94,M,6.21,M,BKN,M,M,M,2000.00,M,M,M,M,M,M,M,M,M,M,69.80,SBGR 112300Z 11006KT 9999 BKN020 21/16 Q1014,M
SBAN,2025-01-11 23:00,73.40,68.00,83.21,0.00,0.00,0.00,29.97,M,6.21,M,FEW,FEW,M,M,3000.00,3500.00,M,M,M,M,M,M,M,M,M,73.40,SBAN 112300Z 00000KT 9999 FEW030 FEW035TCU 23/20 Q1015,M
SBGR,2025-01-12 00:00,68.00,60.80,77.75,110.00,7.00,0.00,29.97,M,6.21,M,BKN,M,M,M,1700.00,M,M,M,M,M,M,M,M,M,M,68.00,SBGR 120000Z 11007KT 9999 BKN017 20/16 Q1015,M
SBAN,2025-01-12 00:00,71.60,68.00,88.43,0.00,0.00,0.00,30.00,M,6.21,M,FEW,FEW,M,M,3500.00,4000.00,M,M,VCTS,M,M,M,M,M,M,71.60,SBAN 120000Z 00000KT 9999 VCTS FEW035 FEW040CB 22/20 Q1016,M
SBAN,2025-01-12 01:00,71.60,69.80,94.06,310.00,2.00,0.00,30.00,M,6.21,M,FEW,FEW,M,M,4000.00,4500.00,M,M,VCTS,M,M,M,M,M,M,71.60,SBAN 120100Z 31002KT 9999 VCTS FEW040 FEW045CB 22/21 Q1016,M
SBGR,2025-01-12 01:00,68.00,62.60,82.86,120.00,6.00,0.00,29.97,M,6.21,M,BKN,M,M,M,2500.00,M,M,M,M,M,M,M,M,M,M,68.00,SBGR 120100Z 12006KT 9999 BKN025 20/17 Q1015,M
SBGR,2025-01-12 02:00,68.00,62.60,82.86,120.00,3.00,0.00,29.97,M,6.21,M,BKN,M,M,M,1900.00,M,M,M,M,M,M,M,M,M,M,68.00,SBGR 120200Z 12003KT 9999 BKN019 20/17 Q1015,M
SBAN,2025-01-12 02:00,71.60,71.60,100.00,0.00,0.00,0.00,30.03,M,6.21,M,BKN,SCT,FEW,M,500.00,1000.00,3500.00,M,VCTS,M,M,M,M,M,M,71.60,SBAN 120200Z 00000KT 9999 VCTS BKN005 SCT010 FEW035CB 22/22 Q1017,M
SBGR,2025-01-12 03:00,68.00,62.60,82.86,80.00,6.00,0.00,29.97,M,6.21,M,BKN,M,M,M,2100.00,M,M,M,M,M,M,M,M,M,M,68.00,SBGR 120300Z 08006KT 9999 BKN021 20/17 Q1015,M
SBAN,2025-01-12 03:00,71.60,71.60,100.00,330.00,3.00,0.00,30.03,M,6.21,M,BKN,SCT,M,M,400.00,1000.00,M,M,M,M,M,M,M,M,M,71.60,SBAN 120300Z 33003KT 9999 BKN004 SCT010 22/22 Q1017,M
SBAN,2025-01-12 04:00,71.60,71.60,100.00,330.00,4.00,0.00,30.03,M,6.21,M,BKN,SCT,M,M,600.00,1000.00,M,M,M,M,M,M,M,M,M,71.60,SBAN 120400Z 33004KT 9999 BKN006 SCT010 22/22 Q1017,M
SBGR,2025-01-12 04:00,66.20,62.60,88.18,160.00,4.00,0.00,29.97,M,6.21,M,BKN,M,M,M,2500.00,M,M,M,M,M,M,M,M,M,M,66.20,SBGR 120400Z 16004KT 9999 BKN025 19/17 Q1015,M
SBGR,2025-01-12 05:00,68.00,60.80,77.75,120.00,5.00,0.00,29.94,M,6.21,M,FEW,M,M,M,2500.00,M,M,M,M,M,M,M,M,M,M,68.00,SBGR 120500Z 12005KT 9999 FEW025 20/16 Q1014,M
SBAN,2025-01-12 05:00,69.80,69.80,100.00,260.00,4.00,0.00,30.03,M,6.21,M,BKN,SCT,M,M,700.00,1200.00,M,M,M,M,M,M,M,M,M,69.80,SBAN 120500Z 26004KT 9999 BKN007 SCT012 21/21 Q1017,M
SBAN,2025-01-12 06:00,69.80,69.80,100.00,310.00,3.00,0.00,29.97,M,6.21,M,BKN,SCT,M,M,300.00,700.00,M,M,M,M,M,M,M,M,M,69.80,SBAN 120600Z 31003KT 9999 BKN003 SCT007 21/21 Q1015,M
SBGR,2025-01-12 06:00,66.20,60.80,82.74,80.00,5.00,0.00,29.91,M,6.21,M,M,M,M,M,M,M,M,M,M,M,M,M,M,M,M,66.20,SBGR 120600Z 08005KT CAVOK 19/16 Q1013,M
SBGR,2025-01-12 07:00,66.20,60.80,82.74,120.00,4.00,0.00,29.91,M,6.21,M,SCT,M,M,M,2100.00,M,M,M,M,M,M,M,M,M,M,66.20,SBGR 120700Z 12004KT 9999 SCT021 19/16 Q1013,M
SBAN,2025-01-12 07:00,68.00,68.00,100.00,260.00,3.00,0.00,30.00,M,6.21,M,BKN,SCT,M,M,500.00,1100.00,M,M,M,M,M,M,M,M,M,68.00,SBAN 120700Z 26003KT 9999 BKN005 SCT011 20/20 Q1016,M
SBAN,2025-01-12 08:00,68.00,68.00,100.00,330.00,4.00,0.00,30.00,M,6.21,M,SCT,SCT,M,M,400.00,1000.00,M,M,M,M,M,M,M,M,M,68.00,SBAN 120800Z 33004KT 9999 SCT004 SCT010 20/20 Q1016,M
SBGR,2025-01-12 08:00,64.40,60.80,88.09,140.00,4.00,0.00,29.94,M,6.21,M,BKN,M,M,M,2000.00,M,M,M,M,M,M,M,M,M,M,64.40,SBGR 120800Z 14004KT 9999 BKN020 18/16 Q1014,M
SBAN,2025-01-12 09:00,68.00,68.00,100.00,340.00,2.00,0.00,30.00,M,6.21,M,FEW,BKN,M,M,100.00,300.00,M,M,M,M,M,M,M,M,M,68.00,SBAN 120900Z 34002KT 9999 FEW001 BKN003 20/20 Q1016,M
SBGR,2025-01-12 09:00,66.20,60.80,82.74,140.00,4.00,0.00,29.94,M,6.21,M,FEW,BKN,M,M,1100.00,3000.00,M,M,M,M,M,M,M,M,M,66.20,SBGR 120900Z 14004KT 9999 FEW011 BKN030 19/16 Q1014,M
SBGR,2025-01-12 10:00,66.20,60.80,82.74,120.00,6.00,0.00,29.97,M,6.21,M,FEW,BKN,M,M,1300.00,3300.00,M,M,M,M,M,M,M,M,M,66.20,SBGR 121000Z 12006KT 9999 FEW013 BKN033 19/16 Q1015,M
SBAN,2025-01-12 10:00,69.80,69.80,100.00,M,3.00,0.00,30.00,M,6.21,M,BKN,M,M,M,200.00,M,M,M,M,M,M,M,M,M,M,69.80,SBAN 121000Z VRB03KT 9999 BKN002 21/21 Q1016,M
SBAN,2025-01-12 11:00,71.60,69.80,94.06,M,3.00,0.00,30.03,M,6.21,M,BKN,M,M,M,200.00,M,M,M,M,M,M,M,M,M,M,71.60,SBAN 121100Z VRB03KT 9999 BKN002 22/21 Q1017,M
SBGR,2025-01-12 11:00,68.00,62.60,82.86,110.00,5.00,0.00,29.97,M,6.21,M,FEW,BKN,OVC,M,1500.00,3500.00,8000.00,M,M,M,M,M,M,M,M,68.00,SBGR 121100Z 11005KT 9999 FEW015 BKN035 OVC080 20/17 Q1015,M
SBGR,2025-01-12 12:00,69.80,62.60,77.90,120.00,8.00,0.00,30.00,M,6.21,M,SCT,BKN,BKN,M,1500.00,3500.00,9000.00,M,M,M,M,M,M,M,M,69.80,SBGR 121200Z 12008KT 9999 SCT015 BKN035 BKN090 21/17 Q1016,M
SBAN,2025-01-12 12:00,73.40,69.80,88.51,M,3.00,0.00,30.03,M,6.21,M,BKN,SCT,M,M,500.00,1200.00,M,M,M,M,M,M,M,M,M,73.40,SBAN 121200Z VRB03KT 9999 BKN005 SCT012 23/21 Q1017,M
SBGR,2025-01-12 13:00,73.40,60.80,64.69,100.00,8.00,0.00,29.97,M,6.21,M,BKN,BKN,M,M,2500.00,9000.00,M,M,M,M,M,M,M,M,M,73.40,SBGR 121300Z 10008KT 9999 BKN025 BKN090 23/16 Q1015,M
SBAN,2025-01-12 13:00,77.00,68.00,73.78,190.00,4.00,0.00,30.03,M,6.21,M,FEW,BKN,FEW,M,800.00,1000.00,2500.00,M,M,M,M,M,M,M,M,77.00,SBAN 121300Z 19004KT 9999 FEW008 BKN010 FEW025TCU 25/20 Q1017,M
SBGR,2025-01-12 14:00,75.20,60.80,60.90,110.00,6.00,0.00,29.97,M,6.21,M,BKN,M,M,M,3000.00,M,M,M,M,M,M,M,M,M,M,75.20,SBGR 121400Z 11006KT 9999 BKN030 24/16 Q1015,M
SBAN,2025-01-12 14:00,77.00,68.00,73.78,M,4.00,0.00,30.03,M,6.21,M,FEW,BKN,FEW,M,1000.00,1200.00,3000.00,M,M,M,M,M,M,M,M,77.00,SBAN 121400Z VRB04KT 9999 FEW010 BKN012 FEW030TCU 25/20 Q1017,M
SBAN,2025-01-12 15:00,78.80,68.00,69.52,M,3.00,0.00,30.00,M,6.21,M,FEW,SCT,BKN,FEW,1300.00,1500.00,2000.00,3000.00,M,M,M,M,M,M,M,78.80,SBAN 121500Z VRB03KT 9999 FEW013 SCT015 BKN020 FEW030TCU 26/20 Q1016,M
SBGR,2025-01-12 15:00,73.40,60.80,64.69,110.00,6.00,0.00,29.94,M,6.21,M,OVC,M,M,M,3000.00,M,M,M,M,M,M,M,M,M,M,73.40,SBGR 121500Z 11006KT 9999 OVC030 23/16 Q1014,M
SBAN,2025-01-12 16:00,78.80,68.00,69.52,M,3.00,0.00,29.97,M,6.21,M,SCT,BKN,FEW,M,1500.00,2500.00,3000.00,M,M,M,M,M,M,M,M,78.80,SBAN 121600Z VRB03KT 9999 SCT015 BKN025 FEW030TCU 26/20 Q1015,M
SBGR,2025-01-12 16:00,75.20,62.60,64.91,80.00,9.00,0.00,29.94,M,6.21,M,SCT,OVC,M,M,2500.00,3000.00,M,M,M,M,M,M,M,M,M,75.20,SBGR 121600Z 08009KT 9999 SCT025 OVC030 24/17 Q1014,M
SBGR,2025-01-12 17:00,75.20,62.60,64.91,130.00,6.00,0.00,29.94,M,6.21,M,OVC,M,M,M,2600.00,M,M,M,M,M,M,M,M,M,M,75.20,SBGR 121700Z 13006KT 9999 OVC026 24/17 Q1014,M
SBAN,2025-01-12 17:00,78.80,69.80,73.95,M,5.00,0.00,29.94,M,6.21,M,SCT,BKN,FEW,M,1500.00,2500.00,3000.00,M,VCSH,M,M,M,M,M,M,78.80,SBAN 121700Z VRB05KT 9999 VCSH SCT015 BKN025 FEW030TCU 26/21 Q1014,M
SBAN,2025-01-12 18:00,68.00,68.00,100.00,M,3.00,0.00,29.91,M,3.11,M,FEW,BKN,FEW,M,600.00,2000.00,3000.00,M,-RA,M,M,M,M,M,M,68.00,SBAN 121800Z VRB03KT 5000 -RA FEW006 BKN020 FEW030TCU 20/20 Q1013 RERA,M
SBGR,2025-01-12 18:00,73.40,62.60,68.94,140.00,6.00,0.00,29.91,M,6.21,M,OVC,M,M,M,3000.00,M,M,M,M,M,M,M,M,M,M,73.40,SBGR 121800Z 14006KT 9999 OVC030 23/17 Q1013,M
SBGR,2025-01-12 19:00,73.40,62.60,68.94,120.00,7.00,0.00,29.88,M,6.21,M,OVC,M,M,M,3000.00,M,M,M,M,M,M,M,M,M,M,73.40,SBGR 121900Z 12007KT 9999 OVC030 23/17 Q1012,M
SBAN,2025-01-12 19:00,80.60,69.80,69.71,330.00,2.00,0.00,29.88,M,6.21,M,FEW,BKN,FEW,M,500.00,3000.00,3500.00,M,M,M,M,M,M,M,M,83.90,COR SBAN 121900Z 33002KT 9999 FEW005 BKN030 FEW035TCU 27/21 Q1012,M
SBGR,2025-01-12 20:00,71.60,62.60,73.27,140.00,7.00,0.00,29.88,M,6.21,M,BKN,BKN,M,M,1900.00,3500.00,M,M,M,M,M,M,M,M,M,71.60,SBGR 122000Z 14007KT 9999 BKN019 BKN035 22/17 Q1012,M
SBAN,2025-01-12 20:00,75.20,68.00,78.34,40.00,6.00,0.00,29.88,M,6.21,M,BKN,FEW,SCT,M,3000.00,3500.00,8000.00,M,VCSH,M,M,M,M,M,M,75.20,SBAN 122000Z 04006KT 330V080 9999 VCSH BKN030 FEW035TCU SCT080 24/20 Q1012,M
SBAN,2025-01-12 21:00,71.60,68.00,88.43,40.00,4.00,0.00,29.88,M,6.21,M,SCT,FEW,SCT,M,3000.00,3500.00,8000.00,M,VCSH,M,M,M,M,M,M,71.60,SBAN 122100Z 04004KT 9999 VCSH SCT030 FEW035TCU SCT080 22/20 Q1012,M
SBGR,2025-01-12 21:00,69.80,62.60,77.90,140.00,7.00,0.00,29.91,M,6.21,M,BKN,M,M,M,1700.00,M,M,M,M,M,M,M,M,M,M,69.80,SBGR 122100Z 14007KT 9999 BKN017 21/17 Q1013,M
SBGR,2025-01-12 22:00,68.00,60.80,77.75,110.00,8.00,0.00,29.91,M,6.21,M,BKN,M,M,M,1700.00,M,M,M,M,M,M,M,M,M,M,68.00,SBGR 122200Z 11008KT 9999 BKN017 20/16 Q1013,M
SBAN,2025-01-12 22:00,69.80,68.00,94.01,0.00,0.00,0.00,29.94,M,6.21,M,SCT,SCT,FEW,M,1500.00,3000.00,3500.00,M,VCSH,M,M,M,M,M,M,69.80,SBAN 122200Z 00000KT 9999 VCSH SCT015 SCT030 FEW035TCU 21/20 Q1014,M
SBGR,2025-01-12 23:00,66.20,59.00,77.60,140.00,7.00,0.00,29.94,M,6.21,M,OVC,M,M,M,1500.00,M,M,M,M,M,M,M,M,M,M,66.20,SBGR 122300Z 14007KT 9999 OVC015 19/15 Q1014,M
SBAN,2025-01-12 23:00,68.00,68.00,100.00,290.00,2.00,0.00,29.94,M,6.21,M,SCT,SCT,FEW,M,1500.00,3000.00,3500.00,M,VCSH VCTS,M,M,M,M,M,M,68.00,SBAN 122300Z 29002KT 9999 VCSH VCTS SCT015 SCT030 FEW035CB 20/20 Q1014,M
SBAN,2025-01-13 00:00,68.00,68.00,100.00,290.00,2.00,0.00,29.97,M,5.59,M,SCT,BKN,FEW,BKN,1000.00,1500.00,2000.00,10000.00,-RA,M,M,M,M,M,M,68.00,SBAN 130000Z 29002KT 9000 -RA SCT010 BKN015 FEW020TCU BKN100 20/20 Q1015,M
SBGR,2025-01-13 00:00,66.20,60.80,82.74,130.00,7.00,0.00,29.97,M,6.21,M,FEW,OVC,M,M,1300.00,1500.00,M,M,M,M,M,M,M,M,M,66.20,SBGR 130000Z 13007KT 9999 FEW013 OVC015 19/16 Q1015,M
SBGR,2025-01-13 01:00,66.20,60.80,82.74,130.00,5.00,0.00,29.97,M,2.49,M,OVC,M,M,M,900.00,M,M,M,-RA,M,M,M,M,M,M,66.20,SBGR 130100Z 13005KT 4000 -RA OVC009 19/16 Q1015,M
SBAN,2025-01-13 01:00,68.00,68.00,100.00,290.00,2.00,0.00,30.00,M,5.59,M,SCT,BKN,FEW,BKN,900.00,1500.00,2000.00,10000.00,-RA,M,M,M,M,M,M,68.00,SBAN 130100Z 29002KT 9000 -RA SCT009 BKN015 FEW020TCU BKN100 20/20 Q1016,M
SBAN,2025-01-13 02:00,68.00,68.00,100.00,0.00,0.00,0.00,30.00,M,5.59,M,SCT,BKN,FEW,BKN,900.00,1500.00,2000.00,10000.00,-RA,M,M,M,M,M,M,68.00,SBAN 130200Z 00000KT 9000 -RA SCT009 BKN015 FEW020TCU BKN100 20/20 Q1016,M
SBGR,2025-01-13 02:00,66.20,62.60,88.18,130.00,4.00,0.00,29.97,M,6.21,M,OVC,M,M,M,1300.00,M,M,M,M,M,M,M,M,M,M,66.20,SBGR 130200Z 13004KT 9999 OVC013 19/17 Q1015,M
SBAN,2025-01-13 03:00,68.00,68.00,100.00,0.00,0.00,0.00,30.00,M,6.21,M,SCT,SCT,BKN,M,900.00,1500.00,10000.00,M,M,M,M,M,M,M,M,68.00,SBAN 130300Z 00000KT 9999 SCT009 SCT015 BKN100 20/20 Q1016,M
SBGR,2025-01-13 03:00,66.20,60.80,82.74,140.00,5.00,0.00,29.97,M,6.21,M,SCT,OVC,M,M,900.00,1700.00,M,M,M,M,M,M,M,M,M,66.20,SBGR 130300Z 14005KT 9999 SCT009 OVC017 19/16 Q1015,M
SBGR,2025-01-13 04:00,66.20,60.80,82.74,130.00,7.00,0.00,29.97,M,6.21,M,SCT,OVC,M,M,1300.00,1800.00,M,M,M,M,M,M,M,M,M,66.20,SBGR 130400Z 13007KT 9999 SCT013 OVC018 19/16 Q1015,M
SBAN,2025-01-13 04:00,68.00,68.00,100.00,340.00,3.00,0.00,30.00,M,6.21,M,SCT,SCT,M,M,900.00,1500.00,M,M,M,M,M,M,M,M,M,68.00,SBAN 130400Z 34003KT 9999 SCT009 SCT015 20/20 Q1016,M
SBAN,2025-01-13 05:00,68.00,68.00,100.00,290.00,2.00,0.00,30.00,M,6.21,M,SCT,SCT,M,M,900.00,1500.00,M,M,M,M,M,M,M,M,M,68.00,SBAN 130500Z 29002KT 9999 SCT009 SCT015 20/20 Q1016,M
SBGR,2025-01-13 05:00,66.20,60.80,82.74,130.00,6.00,0.00,29.94,M,6.21,M,FEW,BKN,M,M,1300.00,1800.00,M,M,M,M,M,M,M,M,M,66.20,SBGR 130500Z 13006KT 9999 FEW013 BKN018 19/16 Q1014,M
SBAN,2025-01-13 06:00,68.00,68.00,100.00,140.00,2.00,0.00,30.00,M,6.21,M,SCT,BKN,M,M,900.00,10000.00,M,M,M,M,M,M,M,M,M,68.00,SBAN 130600Z 14002KT 9999 SCT009 BKN100 20/20 Q1016,M
SBGR,2025-01-13 06:00,64.40,59.00,82.62,130.00,5.00,0.00,29.94,M,6.21,M,SCT,BKN,M,M,1300.00,3000.00,M,M,M,M,M,M,M,M,M,64.40,SBGR 130600Z 13005KT 9999 SCT013 BKN030 18/15 Q1014,M
SBGR,2025-01-13 07:00,64.40,59.00,82.62,130.00,4.00,0.00,29.94,M,6.21,M,FEW,SCT,BKN,M,300.00,1300.00,4000.00,M,M,M,M,M,M,M,M,64.40,SBGR 130700Z 13004KT 9999 FEW003 SCT013 BKN040 18/15 Q1014,M
SBAN,2025-01-13 07:00,66.20,66.20,100.00,170.00,4.00,0.00,30.00,M,6.21,M,SCT,BKN,M,M,900.00,8000.00,M,M,M,M,M,M,M,M,M,66.20,SBAN 130700Z 17004KT 9999 SCT009 BKN080 19/19 Q1016,M
SBGR,2025-01-13 08:00,62.60,59.00,88.00,130.00,4.00,0.00,29.94,M,6.21,M,SCT,BKN,M,M,1300.00,3500.00,M,M,M,M,M,M,M,M,M,62.60,SBGR 130800Z 13004KT 9999 SCT013 BKN035 17/15 Q1014,M
SBAN,2025-01-13 08:00,66.20,66.20,100.00,360.00,2.00,0.00,30.00,M,6.21,M,SCT,BKN,M,M,900.00,8000.00,M,M,M,M,M,M,M,M,M,66.20,SBAN 130800Z 36002KT 9999 SCT009 BKN080 19/19 Q1016,M
SBAN,2025-01-13 09:00,68.00,68.00,100.00,300.00,2.00,0.00,29.94,M,0.56,M,BKN,M,M,M,300.00,M,M,M,FG,M,M,M,M,M,M,68.00,SBAN 130900Z 30002KT 0900 R06L/1000 R24R/P2000 FG BKN003 20/20 Q1014,M
SBGR,2025-01-13 09:00,62.60,59.00,88.00,130.00,3.00,0.00,29.94,M,6.21,M,SCT,BKN,M,M,1300.00,2600.00,M,M,M,M,M,M,M,M,M,62.60,SBGR 130900Z 13003KT 9999 SCT013 BKN026 17/15 Q1014,M
SBAN,2025-01-13 10:00,68.00,68.00,100.00,M,2.00,0.00,29.97,M,0.56,M,BKN,BKN,M,M,300.00,1700.00,M,M,FG,M,M,M,M,M,M,68.00,SBAN 131000Z VRB02KT 0900 R24R/P2000 R06L/P2000D FG BKN003 BKN017 20/20 Q1015,M
SBGR,2025-01-13 10:00,64.40,59.00,82.62,120.00,3.00,0.00,29.97,M,6.21,M,BKN,M,M,M,2300.00,M,M,M,M,M,M,M,M,M,M,64.40,SBGR 131000Z 12003KT 9999 BKN023 18/15 Q1015,M
SBGR,2025-01-13 11:00,68.00,59.00,72.92,130.00,5.00,0.00,29.97,M,6.21,M,BKN,M,M,M,1700.00,M,M,M,M,M,M,M,M,M,M,68.00,SBGR 131100Z 13005KT 9999 BKN017 20/15 Q1015,M
SBAN,2025-01-13 11:00,69.80,69.80,100.00,330.00,2.00,0.00,29.97,M,6.21,M,BKN,BKN,BKN,M,400.00,1000.00,8000.00,M,M,M,M,M,M,M,M,69.80,SBAN 131100Z 33002KT 9999 BKN004 BKN010 BKN080 21/21 Q1015,M
SBGR,2025-01-13 12:00,68.00,59.00,72.92,120.00,7.00,0.00,29.97,M,6.21,M,BKN,M,M,M,2300.00,M,M,M,M,M,M,M,M,M,M,68.00,SBGR 131200Z 12007KT 9999 BKN023 20/15 Q1015,M
SBAN,2025-01-13 12:00,71.60,69.80,94.06,M,2.00,0.00,30.00,M,6.21,M,BKN,BKN,M,M,1000.00,9000.00,M,M,M,M,M,M,M,M,M,71.60,SBAN 131200Z VRB02KT 9999 BKN010 BKN090 22/21 Q1016,M
SBAN,2025-01-13 13:00,73.40,68.00,83.21,M,3.00,0.00,30.00,M,6.21,M,SCT,BKN,BKN,M,1300.00,1500.00,9000.00,M,M,M,M,M,M,M,M,73.40,SBAN 131300Z VRB03KT 9999 SCT013 BKN015 BKN090 23/20 Q1016,M
SBGR,2025-01-13 13:00,69.80,57.20,64.26,110.00,7.00,0.00,29.97,M,6.21,M,BKN,M,M,M,2600.00,M,M,M,M,M,M,M,M,M,M,69.80,SBGR 131300Z 11007KT 9999 BKN026 21/14 Q1015,M
SBGR,2025-01-13 14:00,73.40,57.20,56.88,100.00,6.00,0.00,29.97,M,6.21,M,BKN,M,M,M,3000.00,M,M,M,M,M,M,M,M,M,M,73.40,SBGR 131400Z 10006KT 9999 BKN030 23/14 Q1015,M
SBAN,2025-01-13 14:00,77.00,66.20,69.33,M,2.00,0.00,29.97,M,6.21,M,FEW,BKN,BKN,M,1300.00,1500.00,2000.00,M,M,M,M,M,M,M,M,77.00,SBAN 131400Z VRB02KT 9999 FEW013 BKN015 BKN020 25/19 Q1015,M
SBGR,2025-01-13 15:00,73.40,57.20,56.88,110.00,6.00,0.00,29.97,M,6.21,M,BKN,M,M,M,3600.00,M,M,M,M,M,M,M,M,M,M,73.40,SBGR 131500Z 11006KT 9999 BKN036 23/14 Q1015,M
SBAN,2025-01-13 15:00,77.00,68.00,73.78,M,2.00,0.00,29.97,M,6.21,M,BKN,BKN,BKN,M,1500.00,2000.00,9000.00,M,VCSH,M,M,M,M,M,M,77.00,SBAN 131500Z VRB02KT 9999 VCSH BKN015 BKN020 BKN090 25/20 Q1015,M
SBGR,2025-01-13 16:00,73.40,59.00,60.67,150.00,7.00,0.00,29.94,M,6.21,M,BKN,M,M,M,3300.00,M,M,M,M,M,M,M,M,M,M,73.40,SBGR 131600Z 15007KT 9999 BKN033 23/15 Q1014,M
SBAN,2025-01-13 16:00,77.00,66.20,69.33,240.00,4.00,0.00,29.94,M,6.21,M,BKN,BKN,FEW,BKN,1500.00,2300.00,2500.00,3500.00,VCSH,M,M,M,M,M,M,77.00,SBAN 131600Z 24004KT 190V280 9999 VCSH BKN015 BKN023 FEW025TCU BKN035 25/19 Q1014,M
SBAN,2025-01-13 17:00,75.20,69.80,83.32,200.00,7.00,0.00,29.91,M,3.73,M,SCT,BKN,BKN,FEW,800.00,1500.00,2300.00,2500.00,SHRA TS,M,M,M,M,M,M,75.20,SBAN 131700Z 20007KT 180V240 6000 2500SW SHRA TS SCT008 BKN015 BKN023 FEW025CB 24/21 Q1013 RERA,M
SBGR,2025-01-13 17:00,73.40,59.00,60.67,150.00,8.00,0.00,29.94,M,6.21,M,OVC,M,M,M,3500.00,M,M,M,M,M,M,M,M,M,M,73.40,SBGR 131700Z 15008KT 9999 OVC035 23/15 Q1014,M
SBAN,2025-01-13 17:07,73.40,69.80,88.51,M,4.00,0.00,29.91,M,1.86,M,BKN,BKN,BKN,FEW,1000.00,1500.00,2300.00,2500.00,+TSRA,M,M,M,M,M,M,73.40,SBAN 131707Z VRB04KT 3000 +TSRA BKN010 BKN015 BKN023 FEW025CB 23/21 Q1013 RESHRA,M
SBAN,2025-01-13 18:00,71.60,69.80,94.06,M,2.00,0.00,29.88,M,5.59,M,FEW,SCT,FEW,BKN,1300.00,1500.00,2500.00,3300.00,VCSH,M,M,M,M,M,M,71.60,COR SBAN 131800Z VRB02KT 9000 0800SW VCSH FEW013 SCT015 FEW025TCU BKN033 22/21 Q1012 RETSRA,M
SBGR,2025-01-13 18:00,71.60,59.00,64.48,160.00,7.00,0.00,29.91,M,6.21,M,OVC,M,M,M,3000.00,M,M,M,M,M,M,M,M,M,M,71.60,SBGR 131800Z 16007KT 9999 OVC030 22/15 Q1013,M
SBGR,2025-01-13 19:00,71.60,57.20,60.44,160.00,7.00,0.00,29.91,M,6.21,M,BKN,M,M,M,3000.00,M,M,M,M,M,M,M,M,M,M,71.60,SBGR 131900Z 16007KT 9999 BKN030 22/14 Q1013,M
SBAN,2025-01-13 19:00,73.40,69.80,88.51,60.00,5.00,0.00,29.85,M,6.21,M,SCT,FEW,BKN,BKN,1500.00,2500.00,3500.00,4000.00,M,M,M,M,M,M,M,73.40,SBAN 131900Z 06005KT 020V080 9999 SCT015 FEW025TCU BKN035 BKN040 23/21 Q1011,M
SBGR,2025-01-13 20:00,71.60,57.20,60.44,160.00,8.00,0.00,29.91,M,6.21,M,SCT,BKN,M,M,3000.00,4000.00,M,M,M,M,M,M,M,M,M,71.60,SBGR 132000Z 16008KT 9999 SCT030 BKN040 22/14 Q1013,M
SBAN,2025-01-13 20:00,73.40,71.60,94.10,60.00,6.00,0.00,29.85,M,6.21,M,SCT,FEW,BKN,BKN,1500.00,2500.00,3500.00,4000.00,VCSH,M,M,M,M,M,M,73.40,SBAN 132000Z 06006KT 9999 VCSH SCT015 FEW025TCU BKN035 BKN040 23/22 Q1011,M
SBAN,2025-01-13 21:00,73.40,71.60,94.10,40.00,4.00,0.00,29.85,M,6.21,M,FEW,SCT,FEW,BKN,1200.00,1500.00,2500.00,7000.00,VCSH,M,M,M,M,M,M,73.40,SBAN 132100Z 04004KT 350V060 9999 VCSH FEW012 SCT015 FEW025TCU BKN070 23/22 Q1011,M
SBGR,2025-01-13 21:00,69.80,57.20,64.26,170.00,9.00,0.00,29.91,M,6.21,M,SCT,BKN,M,M,2500.00,4500.00,M,M,M,M,M,M,M,M,M,69.80,SBGR 132100Z 17009KT 9999 SCT025 BKN045 21/14 Q1013,M
SBAN,2025-01-13 22:00,69.80,69.80,100.00,280.00,4.00,0.00,29.88,M,4.35,M,FEW,BKN,FEW,M,200.00,400.00,2500.00,M,-TSRA,M,M,M,M,M,M,69.80,SBAN 132200Z 28004KT 7000 3000E -TSRA FEW002 BKN004 FEW025CB 21/21 Q1012,M
SBGR,2025-01-13 22:00,68.00,57.20,68.35,160.00,7.00,0.00,29.91,M,6.21,M,FEW,BKN,M,M,2000.00,5000.00,M,M,M,M,M,M,M,M,M,68.00,SBGR 132200Z 16007KT 9999 FEW020 BKN050 20/14 Q1013,M
SBGR,2025-01-13 23:00,66.20,55.40,68.15,130.00,5.00,0.00,29.94,M,6.21,M,FEW,SCT,M,M,2000.00,5000.00,M,M,M,M,M,M,M,M,M,66.20,SBGR 132300Z 13005KT 9999 FEW020 SCT050 19/13 Q1014,M
SBAN,2025-01-13 23:00,69.80,69.80,100.00,320.00,4.00,0.00,29.91,M,1.86,M,FEW,BKN,FEW,M,100.00,200.00,2500.00,M,-RA VCTS,M,M,M,M,M,M,69.80,SBAN 132300Z 32004KT 3000 -RA VCTS FEW001 BKN002 FEW025CB 21/21 Q1013 RETS,M
SBGR,2025-01-14 00:00,64.40,55.40,72.56,140.00,5.00,0.00,29.97,M,6.21,M,FEW,SCT,M,M,2000.00,6000.00,M,M,M,M,M,M,M,M,M,64.40,SBGR 140000Z 14005KT 9999 FEW020 SCT060 18/13 Q1015,M
SBAN,2025-01-14 00:00,68.00,68.00,100.00,330.00,5.00,0.00,29.94,M,2.49,M,FEW,BKN,M,M,100.00,200.00,M,M,-RA PRFG,M,M,M,M,M,M,68.00,SBAN 140000Z 33005KT 4000 0200W -RA PRFG FEW001 BKN002 20/20 Q1014,M
SBAN,2025-01-14 01:00,68.00,68.00,100.00,340.00,3.00,0.00,29.94,M,6.21,M,BKN,SCT,M,M,400.00,1500.00,M,M,M,M,M,M,M,M,M,68.00,SBAN 140100Z 34003KT 9999 BKN004 SCT015 20/20 Q1014,M
SBGR,2025-01-14 01:00,64.40,57.20,77.45,120.00,4.00,0.00,29.97,M,6.21,M,SCT,M,M,M,1900.00,M,M,M,M,M,M,M,M,M,M,64.40,SBGR 140100Z 12004KT 9999 SCT019 18/14 Q1015,M
SBAN,2025-01-14 02:00,68.00,68.00,100.00,350.00,4.00,0.00,29.97,M,0.50,M,BKN,SCT,M,M,200.00,500.00,M,M,FG,M,M,M,M,M,M,68.00,SBAN 140200Z 35004KT 0800 R24R/M0050 R06L///// FG BKN002 SCT005 20/20 Q1015,M
SBGR,2025-01-14 02:00,62.60,59.00,88.00,90.00,3.00,0.00,29.97,M,6.21,M,M,M,M,M,M,M,M,M,M,M,M,M,M,M,M,62.60,SBGR 140200Z 09003KT CAVOK 17/15 Q1015,M
SBAN,2025-01-14 03:00,68.00,68.00,100.00,320.00,4.00,0.00,29.97,M,0.50,M,BKN,SCT,FEW,M,200.00,500.00,2000.00,M,+RA FG,M,M,M,M,M,M,68.00,SBAN 140300Z 32004KT 0800 R06L/M0050 R24R/M0050 +RA FG BKN002 SCT005 FEW020TCU 20/20 Q1015,M
SBGR,2025-01-14 03:00,64.40,59.00,82.62,110.00,3.00,0.00,29.97,M,6.21,M,BKN,M,M,M,1500.00,M,M,M,M,M,M,M,M,M,M,64.40,SBGR 140300Z 11003KT 9999 BKN015 18/15 Q1015,M
SBGR,2025-01-14 04:00,60.80,57.20,87.92,130.00,3.00,0.00,29.94,M,6.21,M,M,M,M,M,M,M,M,M,M,M,M,M,M,M,M,60.80,SBGR 140400Z 13003KT CAVOK 16/14 Q1014,M
SBAN,2025-01-14 04:00,66.20,66.20,100.00,230.00,3.00,0.00,29.94,M,1.24,M,BKN,SCT,M,M,600.00,1000.00,M,M,-RA,M,M,M,M,M,M,66.20,SBAN 140400Z 23003KT 2000 -RA BKN006 SCT010 19/19 Q1014 RERA,M
SBAN,2025-01-14 05:00,66.20,66.20,100.00,310.00,4.00,0.00,29.97,M,6.21,M,BKN,SCT,M,M,300.00,800.00,M,M,M,M,M,M,M,M,M,66.20,SBAN 140500Z 31004KT 9999 BKN003 SCT008 19/19 Q1015,M
SBGR,2025-01-14 05:00,59.00,57.20,93.74,90.00,1.00,0.00,29.94,M,6.21,M,M,M,M,M,M,M,M,M,M,M,M,M,M,M,M,59.00,SBGR 140500Z 09001KT CAVOK 15/14 Q1014,M
SBGR,2025-01-14 06:00,59.00,57.20,93.74,90.00,2.00,0.00,29.91,M,6.21,M,M,M,M,M,M,M,M,M,M,M,M,M,M,M,M,59.00,SBGR 140600Z 09002KT CAVOK 15/14 Q1013,M
SBAN,2025-01-14 06:00,64.40,64.40,100.00,330.00,3.00,0.00,29.91,M,6.21,M,SCT,SCT,M,M,700.00,1500.00,M,M,M,M,M,M,M,M,M,64.40,SBAN 140600Z 33003KT 9999 SCT007 SCT015 18/18 Q1013,M
SBAN,2025-01-14 07:00,66.20,66.20,100.00,320.00,3.00,0.00,29.97,M,6.21,M,BKN,BKN,M,M,300.00,700.00,M,M,M,M,M,M,M,M,M,66.20,SBAN 140700Z 32003KT 9999 BKN003 BKN007 19/19 Q1015,M
SBGR,2025-01-14 07:00,59.00,57.20,93.74,80.00,3.00,0.00,29.91,M,6.21,M,M,M,M,M,M,M,M,M,M,M,M,M,M,M,M,59.00,SBGR 140700Z 08003KT CAVOK 15/14 Q1013,M
SBAN,2025-01-14 08:00,66.20,66.20,100.00,350.00,4.00,0.00,29.97,M,6.21,M,BKN,BKN,M,M,300.00,700.00,M,M,M,M,M,M,M,M,M,66.20,SBAN 140800Z 35004KT 9999 BKN003 BKN007 19/19 Q1015,M
SBGR,2025-01-14 08:00,59.00,57.20,93.74,90.00,2.00,0.00,29.91,M,6.21,M,M,M,M,M,M,M,M,M,M,M,M,M,M,M,M,59.00,SBGR 140800Z 09002KT CAVOK 15/14 Q1013,M
SBAN,2025-01-14 09:00,64.40,64.40,100.00,160.00,3.00,0.00,29.91,M,0.50,M,SCT,SCT,M,M,100.00,8000.00,M,M,-RA FG,M,M,M,M,M,M,64.40,SBAN 140900Z 16003KT 0800 R06L///// R24R/M0050 -RA FG SCT001 SCT080 18/18 Q1013,M
SBGR,2025-01-14 09:00,59.00,57.20,93.74,100.00,2.00,0.00,29.91,M,5.59,M,NSC,M,M,M,M,M,M,M,M,M,M,M,M,M,M,59.00,SBGR 140900Z 10002KT 9000 4000SW NSC 15/14 Q1013,M
SBAN,2025-01-14 10:00,64.40,64.40,100.00,150.00,2.00,0.00,29.91,M,3.11,M,FEW,BKN,M,M,300.00,8000.00,M,M,BR,M,M,M,M,M,M,64.40,SBAN 141000Z 15002KT 5000 1200NE R24R/P2000 R06L/P2000 BR FEW003 BKN080 18/18 Q1013,M
SBGR,2025-01-14 10:00,64.40,59.00,82.62,90.00,4.00,0.00,29.94,M,6.21,M,SCT,M,M,M,1500.00,M,M,M,M,M,M,M,M,M,M,64.40,SBGR 141000Z 09004KT 9999 SCT015 18/15 Q1014,M
SBGR,2025-01-14 10:47,64.40,59.00,82.62,50.00,9.00,0.00,29.94,M,6.21,M,BKN,M,M,M,1100.00,M,M,M,M,M,M,M,M,M,M,64.40,SBGR 141047Z 05009KT 9999 BKN011 18/15 Q1014,M
SBAN,2025-01-14 11:00,66.20,66.20,100.00,M,2.00,0.00,29.94,M,3.11,M,BKN,SCT,M,M,400.00,900.00,M,M,BR,M,M,M,M,M,M,66.20,SBAN 141100Z VRB02KT 5000 BR BKN004 SCT009 19/19 Q1014,M
SBGR,2025-01-14 11:00,64.40,59.00,82.62,50.00,8.00,0.00,29.94,M,6.21,M,BKN,M,M,M,1100.00,M,M,M,M,M,M,M,M,M,M,64.40,SBGR 141100Z 05008KT 9999 BKN011 18/15 Q1014,M
SBAN,2025-01-14 12:00,68.00,68.00,100.00,90.00,2.00,0.00,29.97,M,6.21,M,BKN,BKN,M,M,400.00,1000.00,M,M,M,M,M,M,M,M,M,68.00,SBAN 141200Z 09002KT 9999 BKN004 BKN010 20/20 Q1015,M
SBGR,2025-01-14 12:00,68.00,60.80,77.75,110.00,6.00,0.00,29.97,M,6.21,M,BKN,M,M,M,1400.00,M,M,M,M,M,M,M,M,M,M,68.00,SBGR 141200Z 11006KT 9999 BKN014 20/16 Q1015,M
SBAN,2025-01-14 13:00,69.80,69.80,100.00,130.00,3.00,0.00,29.97,M,4.97,M,BKN,BKN,M,M,500.00,1500.00,M,M,-DZ,M,M,M,M,M,M,69.80,SBAN 141300Z 13003KT 8000 -DZ BKN005 BKN015 21/21 Q1015,M
SBGR,2025-01-14 13:00,69.80,59.00,68.55,150.00,6.00,0.00,29.97,M,6.21,M,OVC,M,M,M,2000.00,M,M,M,M,M,M,M,M,M,M,69.80,SBGR 141300Z 15006KT 9999 OVC020 21/15 Q1015,M
SBGR,2025-01-14 14:00,71.60,59.00,64.48,140.00,6.00,0.00,29.97,M,6.21,M,OVC,M,M,M,2600.00,M,M,M,M,M,M,M,M,M,M,71.60,SBGR 141400Z 14006KT 9999 OVC026 22/15 Q1015,M
SBAN,2025-01-14 14:00,69.80,69.80,100.00,20.00,3.00,0.00,29.97,M,1.24,M,BKN,BKN,M,M,500.00,1500.00,M,M,-RA BR,M,M,M,M,M,M,69.80,SBAN 141400Z 02003KT 310V070 2000 -RA BR BKN005 BKN015 21/21 Q1015,M
SBAN,2025-01-14 15:00,69.80,69.80,100.00,280.00,3.00,0.00,29.94,M,1.24,M,BKN,SCT,M,M,700.00,1500.00,M,M,-RA BR,M,M,M,M,M,M,69.80,SBAN 141500Z 28003KT 2000 -RA BR BKN007 SCT015 21/21 Q1014 RERA,M
SBGR,2025-01-14 15:00,73.40,60.80,64.69,140.00,7.00,0.00,29.94,M,6.21,M,OVC,M,M,M,2600.00,M,M,M,M,M,M,M,M,M,M,73.40,SBGR 141500Z 14007KT 9999 OVC026 23/16 Q1014,M
SBGR,2025-01-14 16:00,73.40,59.00,60.67,120.00,6.00,0.00,29.94,M,6.21,M,OVC,M,M,M,2600.00,M,M,M,M,M,M,M,M,M,M,73.40,SBGR 141600Z 12006KT 9999 OVC026 23/15 Q1014,M
SBAN,2025-01-14 16:00,68.00,68.00,100.00,300.00,3.00,0.00,29.94,M,1.24,M,BKN,SCT,M,M,700.00,1500.00,M,M,-RA BR,M,M,M,M,M,M,68.00,SBAN 141600Z 30003KT 2000 -RA BR BKN007 SCT015 20/20 Q1014,M
SBGR,2025-01-14 17:00,71.60,60.80,68.75,160.00,5.00,0.00,29.94,M,6.21,M,OVC,M,M,M,2600.00,M,M,M,M,M,M,M,M,M,M,71.60,SBGR 141700Z 16005KT 9999 OVC026 22/16 Q1014,M
SBAN,2025-01-14 17:00,68.00,68.00,100.00,340.00,4.00,0.00,29.91,M,1.86,M,SCT,BKN,M,M,200.00,400.00,M,M,-RA BR,M,M,M,M,M,M,68.00,SBAN 141700Z 34004KT 3000 -RA BR SCT002 BKN004 20/20 Q1013 RERA,M
SBAN,2025-01-14 17:08,69.80,69.80,100.00,350.00,4.00,0.00,29.91,M,2.49,M,BKN,BKN,M,M,200.00,900.00,M,M,-RA BR,M,M,M,M,M,M,69.80,SBAN 141708Z 35004KT 320V030 4000 -RA BR BKN002 BKN009 21/21 Q1013,M
SBGR,2025-01-14 18:00,69.80,60.80,73.09,140.00,6.00,0.00,29.94,M,6.21,M,BKN,OVC,M,M,2100.00,2600.00,M,M,M,M,M,M,M,M,M,69.80,SBGR 141800Z 14006KT 9999 BKN021 OVC026 21/16 Q1014,M
SBAN,2025-01-14 18:00,68.00,68.00,100.00,340.00,8.00,0.00,29.91,M,1.86,M,BKN,BKN,M,M,300.00,900.00,M,M,-RA BR,M,M,M,M,M,M,68.00,SBAN 141800Z 34008KT 290V010 3000 -RA BR BKN003 BKN009 20/20 Q1013,M
SBAN,2025-01-14 18:07,68.00,68.00,100.00,340.00,6.00,0.00,30.09,M,1.24,M,BKN,BKN,M,M,300.00,900.00,M,M,RA BR,M,M,M,M,M,M,68.00,SBAN 141807Z 34006KT 2000 1000NE R24R/P2000 R06L/P2000 RA BR BKN003 BKN009 20/20 Q1019,M
SBGR,2025-01-14 19:00,71.60,60.80,68.75,160.00,5.00,0.00,29.91,M,6.21,M,OVC,M,M,M,2500.00,M,M,M,M,M,M,M,M,M,M,71.60,SBGR 141900Z 16005KT 9999 OVC025 22/16 Q1013,M
SBAN,2025-01-14 19:00,68.00,68.00,100.00,330.00,7.00,0.00,29.88,M,2.49,M,BKN,BKN,M,M,400.00,900.00,M,M,-RA BR,M,M,M,M,M,M,68.00,SBAN 141900Z 33007KT 4000 -RA BR BKN004 BKN009 20/20 Q1012,M
SBGR,2025-01-14 20:00,71.60,60.80,68.75,140.00,7.00,0.00,29.91,M,6.21,M,BKN,OVC,M,M,2300.00,3000.00,M,M,M,M,M,M,M,M,M,71.60,SBGR 142000Z 14007KT 9999 BKN023 OVC030 22/16 Q1013,M
SBAN,2025-01-14 20:00,68.00,68.00,100.00,340.00,6.00,0.00,29.85,M,6.21,M,BKN,BKN,M,M,300.00,900.00,M,M,M,M,M,M,M,M,M,68.00,SBAN 142000Z 34006KT 9999 BKN003 BKN009 20/20 Q1011,M
SBAN,2025-01-14 21:00,68.00,68.00,100.00,270.00,3.00,0.00,29.88,M,3.11,M,BKN,SCT,M,M,400.00,2000.00,M,M,BR,M,M,M,M,M,M,68.00,SBAN 142100Z 27003KT 5000 BR BKN004 SCT020 20/20 Q1012,M
SBGR,2025-01-14 21:00,69.80,62.60,77.90,150.00,7.00,0.00,29.91,M,6.21,M,OVC,M,M,M,1900.00,M,M,M,M,M,M,M,M,M,M,69.80,SBGR 142100Z 15007KT 9999 OVC019 21/17 Q1013,M
SBGR,2025-01-14 22:00,68.00,60.80,77.75,130.00,8.00,0.00,29.91,M,6.21,M,BKN,OVC,M,M,1300.00,1900.00,M,M,M,M,M,M,M,M,M,68.00,SBGR 142200Z 13008KT 9999 BKN013 OVC019 20/16 Q1013,M
SBAN,2025-01-14 22:00,68.00,68.00,100.00,280.00,3.00,0.00,29.88,M,3.11,M,BKN,SCT,M,M,400.00,1200.00,M,M,BR,M,M,M,M,M,M,68.00,SBAN 142200Z 28003KT 5000 BR BKN004 SCT012 20/20 Q1012,M
SBGR,2025-01-14 23:00,66.20,60.80,82.74,120.00,12.00,0.00,29.94,M,6.21,M,SCT,BKN,OVC,M,1100.00,1300.00,2100.00,M,M,M,M,M,M,M,M,66.20,SBGR 142300Z 12012KT 9999 SCT011 BKN013 OVC021 19/16 Q1014,M
SBAN,2025-01-14 23:00,66.20,66.20,100.00,320.00,2.00,0.00,29.91,M,6.21,M,SCT,SCT,M,M,400.00,2000.00,M,M,M,M,M,M,M,M,M,66.20,SBAN 142300Z 32002KT 9999 SCT004 SCT020 19/19 Q1013,M
SBAN,2025-01-15 00:00,68.00,68.00,100.00,330.00,2.00,0.00,29.94,M,4.97,M,BKN,SCT,M,M,300.00,1000.00,M,M,M,M,M,M,M,M,M,68.00,SBAN 150000Z 33002KT 8000 BKN003 SCT010 20/20 Q1014,M
SBGR,2025-01-15 00:00,66.20,60.80,82.74,130.00,8.00,0.00,29.97,M,6.21,M,SCT,BKN,OVC,M,1100.00,1300.00,1500.00,M,M,M,M,M,M,M,M,66.20,SBGR 150000Z 13008KT 9999 SCT011 BKN013 OVC015 19/16 Q1015,M
SBGR,2025-01-15 01:00,66.20,62.60,88.18,120.00,7.00,0.00,29.97,M,6.21,M,BKN,OVC,M,M,1300.00,2100.00,M,M,M,M,M,M,M,M,M,66.20,SBGR 150100Z 12007KT 9999 BKN013 OVC021 19/17 Q1015,M
SBAN,2025-01-15 01:00,66.20,66.20,100.00,330.00,4.00,0.00,29.97,M,3.11,M,BKN,SCT,M,M,300.00,1000.00,M,M,BR,M,M,M,M,M,M,66.20,SBAN 150100Z 33004KT 5000 BR BKN003 SCT010 19/19 Q1015,M
SBGR,2025-01-15 02:00,66.20,60.80,82.74,120.00,8.00,0.00,29.97,M,6.21,M,SCT,OVC,M,M,1300.00,2100.00,M,M,M,M,M,M,M,M,M,66.20,SBGR 150200Z 12008KT 9999 SCT013 OVC021 19/16 Q1015,M
SBAN,2025-01-15 02:00,66.20,66.20,100.00,330.00,4.00,0.00,29.97,M,3.11,M,BKN,SCT,M,M,300.00,1000.00,M,M,BR,M,M,M,M,M,M,66.20,SBAN 150200Z 33004KT 5000 BR BKN003 SCT010 19/19 Q1015,M
SBGR,2025-01-15 03:00,66.20,60.80,82.74,110.00,6.00,0.00,29.97,M,6.21,M,FEW,OVC,M,M,1300.00,1700.00,M,M,M,M,M,M,M,M,M,66.20,SBGR 150300Z 11006KT 9999 FEW013 OVC017 19/16 Q1015,M
SBAN,2025-01-15 03:00,66.20,66.20,100.00,330.00,4.00,0.00,29.97,M,0.50,M,BKN,SCT,M,M,200.00,1000.00,M,M,FG,M,M,M,M,M,M,66.20,SBAN 150300Z 33004KT 0800 R06L/M0050 R24R/M0050 FG BKN002 SCT010 19/19 Q1015,M
SBAN,2025-01-15 04:00,64.40,64.40,100.00,330.00,3.00,0.00,29.94,M,0.50,M,BKN,SCT,M,M,200.00,1000.00,M,M,FG,M,M,M,M,M,M,64.40,SBAN 150400Z 33003KT 0800 R06L/M0050 R24R/M0050 FG BKN002 SCT010 18/18 Q1014,M
SBGR,2025-01-15 04:00,66.20,60.80,82.74,90.00,8.00,0.00,29.94,M,6.21,M,BKN,OVC,M,M,1500.00,2600.00,M,M,M,M,M,M,M,M,M,66.20,SBGR 150400Z 09008KT 9999 BKN015 OVC026 19/16 Q1014,M
SBGR,2025-01-15 05:00,66.20,60.80,82.74,80.00,7.00,0.00,29.94,M,6.21,M,FEW,OVC,M,M,1300.00,2600.00,M,M,M,M,M,M,M,M,M,66.20,SBGR 150500Z 08007KT 9999 FEW013 OVC026 19/16 Q1014,M
SBAN,2025-01-15 05:00,64.40,64.40,100.00,320.00,2.00,0.00,29.94,M,0.50,M,BKN,SCT,M,M,200.00,1000.00,M,M,FG,M,M,M,M,M,M,64.40,SBAN 150500Z 32002KT 0800 R06L/M0050 R24R/M0050 FG BKN002 SCT010 18/18 Q1014,M
SBAN,2025-01-15 06:00,66.20,66.20,100.00,330.00,3.00,0.00,29.91,M,0.25,M,BKN,SCT,M,M,200.00,1000.00,M,M,FG,M,M,M,M,M,M,66.20,SBAN 150600Z 33003KT 0400 R06L/M0050 R24R/M0050 FG BKN002 SCT010 19/19 Q1013,M
SBGR,2025-01-15 06:00,66.20,60.80,82.74,80.00,5.00,0.00,29.91,M,6.21,M,OVC,M,M,M,1900.00,M,M,M,M,M,M,M,M,M,M,66.20,SBGR 150600Z 08005KT 9999 OVC019 19/16 Q1013,M
SBAN,2025-01-15 07:00,66.20,66.20,100.00,320.00,3.00,0.00,29.91,M,0.25,M,BKN,SCT,M,M,200.00,1000.00,M,M,FG,M,M,M,M,M,M,66.20,SBAN 150700Z 32003KT 0400 R06L/M0050 R24R/M0050 FG BKN002 SCT010 19/19 Q1013,M
SBGR,2025-01-15 07:00,64.40,59.00,82.62,70.00,6.00,0.00,29.91,M,6.21,M,BKN,BKN,M,M,1500.00,2100.00,M,M,M,M,M,M,M,M,M,64.40,SBGR 150700Z 07006KT 9999 BKN015 BKN021 18/15 Q1013,M
SBAN,2025-01-15 08:00,66.20,66.20,100.00,300.00,3.00,0.00,29.91,M,0.50,M,BKN,SCT,M,M,200.00,800.00,M,M,FG,M,M,M,M,M,M,66.20,SBAN 150800Z 30003KT 0800 R06L/M0050 R24R/M0050 FG BKN002 SCT008 19/19 Q1013,M
SBGR,2025-01-15 08:00,66.20,59.00,77.60,70.00,8.00,0.00,29.94,M,6.21,M,OVC,M,M,M,1300.00,M,M,M,M,M,M,M,M,M,M,66.20,SBGR 150800Z 07008KT 9999 OVC013 19/15 Q1014,M
SBAN,2025-01-15 09:00,66.20,66.20,100.00,330.00,3.00,0.00,29.94,M,0.25,M,BKN,SCT,M,M,200.00,1000.00,M,M,FG,M,M,M,M,M,M,66.20,SBAN 150900Z 33003KT 0400 R06L/1000 R24R/P2000 FG BKN002 SCT010 19/19 Q1014,M
SBGR,2025-01-15 09:00,66.20,60.80,82.74,80.00,6.00,0.00,29.97,M,6.21,M,OVC,M,M,M,1300.00,M,M,M,M,M,M,M,M,M,M,66.20,SBGR 150900Z 08006KT 9999 OVC013 19/16 Q1015,M
SBGR,2025-01-15 10:00,66.20,60.80,82.74,90.00,5.00,0.00,29.97,M,6.21,M,BKN,OVC,M,M,1300.00,1500.00,M,M,M,M,M,M,M,M,M,66.20,SBGR 151000Z 09005KT 9999 BKN013 OVC015 19/16 Q1015,M
SBAN,2025-01-15 10:00,66.20,66.20,100.00,340.00,3.00,0.00,29.94,M,0.56,M,BKN,SCT,M,M,200.00,1000.00,M,M,FG,M,M,M,M,M,M,66.20,SBAN 151000Z 34003KT 0900 R06L/P2000 R24R/P2000 FG BKN002 SCT010 19/19 Q1014,M
SBAN,2025-01-15 11:00,68.00,68.00,100.00,350.00,4.00,0.00,29.97,M,2.49,M,BKN,BKN,M,M,400.00,1200.00,M,M,BR,M,M,M,M,M,M,68.00,SBAN 151100Z 35004KT 4000 BR BKN004 BKN012 20/20 Q1015,M
SBGR,2025-01-15 11:00,68.00,60.80,77.75,70.00,10.00,0.00,30.00,M,6.21,M,FEW,OVC,M,M,1300.00,1700.00,M,M,M,M,M,M,M,M,M,68.00,SBGR 151100Z 07010KT 9999 FEW013 OVC017 20/16 Q1016,M
SBGR,2025-01-15 12:00,71.60,60.80,68.75,60.00,10.00,0.00,30.00,M,6.21,M,SCT,BKN,M,M,2000.00,7000.00,M,M,M,M,M,M,M,M,M,71.60,SBGR 151200Z 06010KT 9999 SCT020 BKN070 22/16 Q1016,M
SBAN,2025-01-15 12:00,68.00,68.00,100.00,340.00,5.00,0.00,29.97,M,2.49,M,BKN,BKN,M,M,500.00,1500.00,M,M,BR,M,M,M,M,M,M,68.00,SBAN 151200Z 34005KT 4000 BR BKN005 BKN015 20/20 Q1015,M
SBAN,2025-01-15 13:00,73.40,69.80,88.51,340.00,5.00,0.00,30.00,M,6.21,M,SCT,BKN,BKN,M,800.00,2000.00,8000.00,M,VCSH,M,M,M,M,M,M,73.40,SBAN 151300Z 34005KT 9999 VCSH SCT008 BKN020 BKN080 23/21 Q1016,M
SBGR,2025-01-15 13:00,73.40,62.60,68.94,80.00,8.00,0.00,30.00,M,6.21,M,BKN,M,M,M,2000.00,M,M,M,M,M,M,M,M,M,M,73.40,SBGR 151300Z 08008KT 9999 BKN020 23/17 Q1016,M
SBAN,2025-01-15 14:00,73.40,69.80,88.51,340.00,6.00,0.00,29.97,M,6.21,M,BKN,SCT,BKN,M,1200.00,3000.00,8000.00,M,VCSH,M,M,M,M,M,M,73.40,SBAN 151400Z 34006KT 9999 VCSH BKN012 SCT030 BKN080 23/21 Q1015,M
SBGR,2025-01-15 14:00,77.00,62.60,61.13,40.00,9.00,0.00,29.97,M,6.21,M,FEW,SCT,M,M,2500.00,4000.00,M,M,M,M,M,M,M,M,M,77.00,SBGR 151400Z 04009KT 9999 FEW025 SCT040 25/17 Q1015,M
SBGR,2025-01-15 15:00,78.80,64.40,61.36,70.00,8.00,0.00,29.97,M,6.21,M,SCT,M,M,M,3000.00,M,M,M,M,M,M,M,M,M,M,78.80,SBGR 151500Z 07008KT 9999 SCT030 26/18 Q1015,M
SBAN,2025-01-15 15:00,73.40,69.80,88.51,340.00,7.00,0.00,29.97,M,1.86,M,FEW,BKN,BKN,M,500.00,1200.00,8000.00,M,-RA,M,M,M,M,M,M,73.40,SBAN 151500Z 34007KT 3000 -RA FEW005 BKN012 BKN080 23/21 Q1015,M
SBGR,2025-01-15 16:00,80.60,64.40,57.84,80.00,9.00,0.00,29.94,M,6.21,M,SCT,M,M,M,3000.00,M,M,M,M,M,M,M,M,M,M,82.27,SBGR 151600Z 08009KT 9999 SCT030 27/18 Q1014,M
SBAN,2025-01-15 16:00,71.60,68.00,88.43,350.00,9.00,0.00,29.94,M,1.86,M,BKN,SCT,BKN,M,700.00,1500.00,8000.00,M,SHRA BR,M,M,M,M,M,M,71.60,SBAN 151600Z 35009KT 3000 SHRA BR BKN007 SCT015 BKN080 22/20 Q1014,M
SBGR,2025-01-15 17:00,84.20,64.40,51.47,60.00,8.00,0.00,29.91,M,6.21,M,BKN,M,M,M,3500.00,M,M,M,M,M,M,M,M,M,M,85.71,SBGR 151700Z 06008KT 9999 BKN035 29/18 Q1013,M
SBAN,2025-01-15 17:00,73.40,68.00,83.21,340.00,6.00,0.00,29.94,M,6.21,M,BKN,SCT,BKN,M,1000.00,3000.00,8000.00,M,VCSH,M,M,M,M,M,M,73.40,SBAN 151700Z 34006KT 9999 VCSH BKN010 SCT030 BKN080 23/20 Q1014 RESHRA,M
SBGR,2025-01-15 18:00,84.20,66.20,54.80,60.00,9.00,0.00,29.91,M,6.21,M,BKN,M,M,M,4000.00,M,M,M,M,M,M,M,M,M,M,86.50,SBGR 151800Z 06009KT 9999 BKN040 29/19 Q1013,M
SBAN,2025-01-15 18:00,73.40,68.00,83.21,350.00,7.00,0.00,29.91,M,1.24,M,SCT,BKN,BKN,M,500.00,1000.00,8000.00,M,-RA BR,M,M,M,M,M,M,73.40,COR SBAN 151800Z 35007KT 2000 -RA BR SCT005 BKN010 BKN080 23/20 Q1013,M
SBGR,2025-01-15 19:00,80.60,66.20,61.58,130.00,9.00,0.00,29.88,M,6.21,M,BKN,FEW,M,M,4000.00,5000.00,M,M,M,M,M,M,M,M,M,82.75,SBGR 151900Z 13009KT 9999 BKN040 FEW050TCU 27/19 Q1012,M
SBAN,2025-01-15 19:00,73.40,68.00,83.21,340.00,7.00,0.00,29.88,M,6.21,M,FEW,BKN,M,M,500.00,1000.00,M,M,VCSH,M,M,M,M,M,M,73.40,SBAN 151900Z 34007KT 9999 VCSH FEW005 BKN010 23/20 Q1012,M
SBGR,2025-01-15 20:00,77.00,66.20,69.33,160.00,13.00,0.00,29.88,M,6.21,M,BKN,FEW,M,M,2500.00,5000.00,M,M,M,M,M,M,M,M,M,77.00,SBGR 152000Z 16013KT 9999 BKN025 FEW050TCU 25/19 Q1012,M
SBAN,2025-01-15 20:00,71.60,69.80,94.06,330.00,3.00,0.00,29.88,M,1.86,M,FEW,BKN,M,M,500.00,1000.00,M,M,-RA BR,M,M,M,M,M,M,71.60,SBAN 152000Z 33003KT 3000 -RA BR FEW005 BKN010 22/21 Q1012,M
SBAN,2025-01-15 21:00,69.80,69.80,100.00,330.00,4.00,0.00,29.91,M,6.21,M,FEW,BKN,M,M,500.00,1000.00,M,M,SHRA,M,M,M,M,M,M,69.80,SBAN 152100Z 33004KT 9999 4000E SHRA FEW005 BKN010 21/21 Q1013,M
SBGR,2025-01-15 21:00,75.20,66.20,73.61,170.00,10.00,0.00,29.91,M,6.21,M,BKN,M,M,M,2600.00,M,M,M,M,M,M,M,M,M,M,75.20,SBGR 152100Z 17010KT 9999 BKN026 24/19 Q1013,M
SBGR,2025-01-15 22:00,73.40,66.20,78.19,120.00,9.00,0.00,29.94,M,6.21,M,OVC,M,M,M,1300.00,M,M,M,M,M,M,M,M,M,M,73.40,SBGR 152200Z 12009KT 9999 OVC013 23/19 Q1014,M
SBAN,2025-01-15 22:00,68.00,68.00,100.00,350.00,5.00,0.00,29.91,M,6.21,M,FEW,BKN,M,M,500.00,1000.00,M,M,-RA,M,M,M,M,M,M,68.00,SBAN 152200Z 35005KT 9999 4000E -RA FEW005 BKN010 20/20 Q1013 RESHRA,M
SBGR,2025-01-15 23:00,71.60,66.20,83.09,120.00,9.00,0.00,29.97,M,6.21,M,OVC,M,M,M,1300.00,M,M,M,M,M,M,M,M,M,M,71.60,SBGR 152300Z 12009KT 9999 OVC013 22/19 Q1015,M
SBAN,2025-01-15 23:00,68.00,68.00,100.00,350.00,4.00,0.00,29.94,M,6.21,M,FEW,SCT,FEW,M,500.00,1500.00,3500.00,M,M,M,M,M,M,M,M,68.00,SBAN 152300Z 35004KT 9999 FEW005 SCT015 FEW035TCU 20/20 Q1014,M
SBGR,2025-01-16 00:00,71.60,66.20,83.09,120.00,9.00,0.00,30.00,M,6.21,M,OVC,M,M,M,1300.00,M,M,M,M,M,M,M,M,M,M,71.60,SBGR 160000Z 12009KT 9999 OVC013 22/19 Q1016,M
SBAN,2025-01-16 00:00,66.20,66.20,100.00,340.00,3.00,0.00,29.94,M,6.21,M,FEW,FEW,SCT,M,1500.00,3500.00,8000.00,M,M,M,M,M,M,M,M,66.20,SBAN 160000Z 34003KT 9999 FEW015 FEW035TCU SCT080 19/19 Q1014,M
SBGR,2025-01-16 01:00,71.60,66.20,83.09,110.00,6.00,0.00,30.00,M,6.21,M,OVC,M,M,M,1300.00,M,M,M,M,M,M,M,M,M,M,71.60,SBGR 160100Z 11006KT 9999 OVC013 22/19 Q1016,M
SBAN,2025-01-16 01:00,66.20,66.20,100.00,340.00,2.00,0.00,29.97,M,6.21,M,FEW,FEW,SCT,M,1500.00,3500.00,8000.00,M,M,M,M,M,M,M,M,66.20,SBAN 160100Z 34002KT 9999 FEW015 FEW035TCU SCT080 19/19 Q1015,M
SBGR,2025-01-16 02:00,71.60,66.20,83.09,80.00,10.00,0.00,30.00,M,6.21,M,OVC,M,M,M,1300.00,M,M,M,M,M,M,M,M,M,M,71.60,SBGR 160200Z 08010KT 9999 OVC013 22/19 Q1016,M
SBAN,2025-01-16 02:00,68.00,68.00,100.00,360.00,2.00,0.00,30.00,M,6.21,M,SCT,SCT,M,M,900.00,8000.00,M,M,M,M,M,M,M,M,M,68.00,SBAN 160200Z 36002KT 9999 SCT009 SCT080 20/20 Q1016,M
SBGR,2025-01-16 03:00,69.80,66.20,88.34,80.00,9.00,0.00,30.00,M,6.21,M,OVC,M,M,M,1000.00,M,M,M,M,M,M,M,M,M,M,69.80,SBGR 160300Z 08009KT 9999 OVC010 21/19 Q1016,M
SBAN,2025-01-16 03:00,68.00,68.00,100.00,360.00,2.00,0.00,30.00,M,6.21,M,BKN,SCT,M,M,1000.00,8000.00,M,M,M,M,M,M,M,M,M,68.00,SBAN 160300Z 36002KT 9999 BKN010 SCT080 20/20 Q1016,M
SBAN,2025-01-16 04:00,68.00,68.00,100.00,360.00,5.00,0.00,29.97,M,6.21,M,BKN,SCT,M,M,400.00,8000.00,M,M,M,M,M,M,M,M,M,68.00,SBAN 160400Z 36005KT 9999 BKN004 SCT080 20/20 Q1015,M
SBGR,2025-01-16 04:00,69.80,66.20,88.34,80.00,8.00,0.00,30.00,M,6.21,M,OVC,M,M,M,900.00,M,M,M,M,M,M,M,M,M,M,69.80,SBGR 160400Z 08008KT 9999 OVC009 21/19 Q1016,M
SBGR,2025-01-16 05:00,69.80,66.20,88.34,60.00,8.00,0.00,29.97,M,6.21,M,OVC,M,M,M,900.00,M,M,M,M,M,M,M,M,M,M,69.80,SBGR 160500Z 06008KT 9999 OVC009 21/19 Q1015,M
SBAN,2025-01-16 05:00,66.20,66.20,100.00,360.00,4.00,0.00,29.94,M,2.49,M,BKN,SCT,M,M,200.00,8000.00,M,M,BR,M,M,M,M,M,M,66.20,SBAN 160500Z 36004KT 4000 BR BKN002 SCT080 19/19 Q1014,M
SBAN,2025-01-16 06:00,66.20,66.20,100.00,20.00,5.00,0.00,29.94,M,0.50,M,BKN,SCT,M,M,200.00,8000.00,M,M,FG,M,M,M,M,M,M,66.20,SBAN 160600Z 02005KT 0800 R06L/P2000 R24R/P2000 FG BKN002 SCT080 19/19 Q1014,M
SBGR,2025-01-16 06:00,69.80,66.20,88.34,70.00,8.00,0.00,29.97,M,6.21,M,OVC,M,M,M,1000.00,M,M,M,-RA,M,M,M,M,M,M,69.80,SBGR 160600Z 07008KT 9999 -RA OVC010 21/19 Q1015,M
SBGR,2025-01-16 07:00,69.80,66.20,88.34,70.00,9.00,0.00,29.97,M,6.21,M,OVC,M,M,M,1000.00,M,M,M,M,M,M,M,M,M,M,69.80,SBGR 160700Z 07009KT 9999 OVC010 21/19 Q1015,M
SBAN,2025-01-16 07:00,66.20,66.20,100.00,20.00,5.00,0.00,29.94,M,0.50,M,BKN,SCT,M,M,200.00,8000.00,M,M,FG,M,M,M,M,M,M,66.20,SBAN 160700Z 02005KT 0800 R06L/P2000 R24R/P2000 FG BKN002 SCT080 19/19 Q1014,M
SBGR,2025-01-16 08:00,69.80,66.20,88.34,70.00,8.00,0.00,29.97,M,6.21,M,OVC,M,M,M,900.00,M,M,M,M,M,M,M,M,M,M,69.80,SBGR 160800Z 07008KT 9999 OVC009 21/19 Q1015,M
SBAN,2025-01-16 08:00,66.20,66.20,100.00,20.00,3.00,0.00,29.94,M,0.50,M,BKN,SCT,M,M,200.00,8000.00,M,M,FG,M,M,M,M,M,M,66.20,SBAN 160800Z 02003KT 0800 R06L/P2000 R24R/P2000 FG BKN002 SCT080 19/19 Q1014,M
SBAN,2025-01-16 09:00,66.20,66.20,100.00,30.00,6.00,0.00,29.94,M,0.50,M,BKN,SCT,M,M,400.00,8000.00,M,M,FG,M,M,M,M,M,M,66.20,SBAN 160900Z 03006KT 0800 R06L/P2000 R24R/P2000 FG BKN004 SCT080 19/19 Q1014,M
SBGR,2025-01-16 09:00,69.80,66.20,88.34,60.00,10.00,0.00,30.00,M,6.21,M,OVC,M,M,M,1000.00,M,M,M,M,M,M,M,M,M,M,69.80,SBGR 160900Z 06010KT 9999 OVC010 21/19 Q1016,M
SBAN,2025-01-16 10:00,68.00,68.00,100.00,30.00,6.00,0.00,29.97,M,0.50,M,BKN,M,M,M,300.00,M,M,M,-DZ FG,M,M,M,M,M,M,68.00,SBAN 161000Z 03006KT 0800 R06L/P2000 R24R/P2000 -DZ FG BKN003 20/20 Q1015,M
SBGR,2025-01-16 10:00,69.80,66.20,88.34,70.00,11.00,0.00,30.03,M,6.21,M,OVC,M,M,M,1100.00,M,M,M,M,M,M,M,M,M,M,69.80,SBGR 161000Z 07011KT 9999 OVC011 21/19 Q1017,M
SBGR,2025-01-16 11:00,71.60,66.20,83.09,70.00,14.00,0.00,30.03,M,6.21,M,BKN,M,M,M,1300.00,M,M,M,M,M,M,M,M,M,M,71.60,SBGR 161100Z 07014KT 9999 BKN013 22/19 Q1017,M
SBAN,2025-01-16 11:00,68.00,68.00,100.00,30.00,7.00,0.00,30.00,M,0.50,M,BKN,M,M,M,300.00,M,M,M,-DZ FG,M,M,M,M,M,M,68.00,SBAN 161100Z 03007KT 0800 R06L/P2000 R24R/P2000 -DZ FG BKN003 20/20 Q1016,M
SBAN,2025-01-16 12:00,69.80,69.80,100.00,30.00,7.00,0.00,30.00,M,1.24,M,BKN,M,M,M,300.00,M,M,M,-DZ BR,M,M,M,M,M,M,69.80,SBAN 161200Z 03007KT 2000 -DZ BR BKN003 21/21 Q1016,M
SBGR,2025-01-16 12:00,71.60,66.20,83.09,60.00,11.00,0.00,30.03,M,6.21,M,BKN,BKN,M,M,1300.00,1500.00,M,M,M,M,M,M,M,M,M,71.60,SBGR 161200Z 06011KT 9999 BKN013 BKN015 22/19 Q1017,M
SBAN,2025-01-16 13:00,69.80,69.80,100.00,360.00,10.00,0.00,30.03,M,2.49,M,BKN,BKN,BKN,M,300.00,1300.00,7000.00,M,-DZ BR,M,M,M,M,M,M,69.80,SBAN 161300Z 36010KT 4000 -DZ BR BKN003 BKN013 BKN070 21/21 Q1017,M
SBGR,2025-01-16 13:00,75.20,66.20,73.61,60.00,12.00,0.00,30.03,M,6.21,M,FEW,BKN,M,M,1300.00,1700.00,M,M,M,M,M,M,M,M,M,75.20,SBGR 161300Z 06012KT 9999 FEW013 BKN017 24/19 Q1017,M
SBAN,2025-01-16 14:00,71.60,69.80,94.06,350.00,10.00,0.00,30.03,M,1.24,M,SCT,BKN,M,M,400.00,800.00,M,M,-DZ BR,M,M,M,M,M,M,71.60,SBAN 161400Z 35010KT 2000 -DZ BR SCT004 BKN008 22/21 Q1017,M
SBGR,2025-01-16 14:00,78.80,68.00,69.52,60.00,8.00,0.00,30.03,M,6.21,M,SCT,BKN,M,M,2000.00,8000.00,M,M,M,M,M,M,M,M,M,78.80,SBGR 161400Z 06008KT 9999 SCT020 BKN080 26/20 Q1017,M
SBGR,2025-01-16 15:00,78.80,66.20,65.33,70.00,11.00,0.00,30.03,M,6.21,M,FEW,BKN,M,M,2000.00,8000.00,M,M,M,M,M,M,M,M,M,78.80,SBGR 161500Z 07011KT 9999 FEW020 BKN080 26/19 Q1017,M
SBAN,2025-01-16 15:00,71.60,71.60,100.00,360.00,10.00,0.00,30.00,M,5.59,M,SCT,BKN,BKN,FEW,400.00,800.00,1300.00,2000.00,SHRA,M,M,M,M,M,M,71.60,SBAN 161500Z 36010KT 9000 4000NE SHRA SCT004 BKN008 BKN013 FEW020TCU 22/22 Q1016,M
SBGR,2025-01-16 16:00,78.80,68.00,69.52,60.00,10.00,0.00,30.00,M,6.21,M,FEW,BKN,M,M,2000.00,7000.00,M,M,M,M,M,M,M,M,M,78.80,SBGR 161600Z 06010KT 9999 FEW020 BKN070 26/20 Q1016,M
SBAN,2025-01-16 16:00,71.60,69.80,94.06,360.00,10.00,0.00,29.97,M,2.49,M,SCT,BKN,BKN,FEW,400.00,800.00,1300.00,2000.00,-RA BR,M,M,M,M,M,M,71.60,SBAN 161600Z 36010KT 4000 -RA BR SCT004 BKN008 BKN013 FEW020TCU 22/21 Q1015 RESHRA,M
SBAN,2025-01-16 17:00,73.40,69.80,88.51,350.00,13.00,0.00,29.94,M,2.49,M,BKN,BKN,FEW,M,600.00,1300.00,2000.00,M,-RA BR,M,M,M,M,M,M,73.40,SBAN 161700Z 35013KT 4000 -RA BR BKN006 BKN013 FEW020TCU 23/21 Q1014,M
SBGR,2025-01-16 17:00,82.40,68.00,61.81,70.00,9.00,0.00,29.97,M,6.21,M,BKN,M,M,M,4000.00,M,M,M,M,M,M,M,M,M,M,85.38,SBGR 161700Z 07009KT 9999 BKN040 28/20 Q1015,M
SBAN,2025-01-16 18:00,73.40,69.80,88.51,360.00,12.00,0.00,29.94,M,6.21,22.00,BKN,BKN,FEW,M,900.00,1300.00,2000.00,M,SHRA,M,M,M,M,M,M,73.40,SBAN 161800Z 36012G22KT 9999 4000NE SHRA BKN009 BKN013 FEW020TCU 23/21 Q1014,M
SBGR,2025-01-16 18:00,84.20,68.00,58.32,70.00,11.00,0.00,29.94,M,6.21,M,BKN,M,M,M,4000.00,M,M,M,M,M,M,M,M,M,M,87.40,SBGR 161800Z 07011KT 9999 BKN040 29/20 Q1014,M
SBAN,2025-01-16 19:00,75.20,68.00,78.34,350.00,10.00,0.00,29.94,M,6.21,20.00,BKN,BKN,FEW,M,900.00,1300.00,2000.00,M,SHRA,M,M,M,M,M,M,75.20,SBAN 161900Z 35010G20KT 9999 4000NE SHRA BKN009 BKN013 FEW020TCU 24/20 Q1014,M
SBGR,2025-01-16 19:00,84.20,66.20,54.80,80.00,9.00,0.00,29.91,M,6.21,M,BKN,FEW,M,M,3500.00,4000.00,M,M,M,M,M,M,M,M,M,86.50,SBGR 161900Z 08009KT 9999 BKN035 FEW040TCU 29/19 Q1013,M
SBGR,2025-01-16 20:00,82.40,66.20,58.08,70.00,13.00,0.00,29.91,M,6.21,M,BKN,FEW,M,M,3500.00,4000.00,M,M,VCSH,M,M,M,M,M,M,84.63,SBGR 162000Z 07013KT 9999 VCSH BKN035 FEW040TCU 28/19 Q1013,M
SBAN,2025-01-16 20:00,71.60,71.60,100.00,360.00,7.00,0.00,29.94,M,6.21,M,BKN,BKN,FEW,M,900.00,1300.00,2000.00,M,SHRA,M,M,M,M,M,M,71.60,SBAN 162000Z 36007KT 9999 4000NE SHRA BKN009 BKN013 FEW020TCU 22/22 Q1014,M
SBAN,2025-01-16 20:07,69.80,69.80,100.00,360.00,6.00,0.00,29.94,M,2.49,M,BKN,BKN,FEW,M,600.00,1300.00,2000.00,M,-RA BR,M,M,M,M,M,M,69.80,SBAN 162007Z 36006KT 4000 -RA BR BKN006 BKN013 FEW020TCU 21/21 Q1014 RESHRA,M
SBGR,2025-01-16 20:40,75.20,71.60,88.59,80.00,9.00,0.00,29.94,M,6.21,M,FEW,BKN,M,M,4000.00,7000.00,M,M,-TSRA,M,M,M,M,M,M,75.20,SBGR 162040Z 08009KT 9999 -TSRA FEW040CB BKN070 24/22 Q1014,M
SBAN,2025-01-16 21:00,69.80,69.80,100.00,350.00,7.00,0.00,29.94,M,1.24,M,BKN,BKN,BKN,FEW,400.00,600.00,1300.00,2000.00,-RA BR,M,M,M,M,M,M,69.80,COR SBAN 162100Z 35007KT 2000 -RA BR BKN004 BKN006 BKN013 FEW020TCU 21/21 Q1014,M
SBGR,2025-01-16 21:00,75.20,71.60,88.59,110.00,5.00,0.00,29.94,M,6.21,M,FEW,BKN,M,M,4000.00,7000.00,M,M,-TSRA,M,M,M,M,M,M,75.20,SBGR 162100Z 11005KT 9999 -TSRA FEW040CB BKN070 24/22 Q1014,M
SBGR,2025-01-16 22:00,75.20,71.60,88.59,110.00,2.00,0.00,29.97,M,6.21,M,BKN,FEW,M,M,1700.00,4000.00,M,M,M,M,M,M,M,M,M,75.20,SBGR 162200Z 11002KT 9999 BKN017 FEW040TCU 24/22 Q1015 RETS,M
SBAN,2025-01-16 22:00,68.00,68.00,100.00,10.00,7.00,0.00,29.97,M,0.50,M,BKN,BKN,FEW,M,200.00,500.00,2500.00,M,RA FG,M,M,M,M,M,M,68.00,SBAN 162200Z 01007KT 0800 R06L/P2000D R24R/P2000D RA FG BKN002 BKN005 FEW025TCU 20/20 Q1015,M
SBGR,2025-01-16 22:25,75.20,71.60,88.59,120.00,5.00,0.00,29.97,M,3.73,M,BKN,M,M,M,1100.00,M,M,M,-RA,M,M,M,M,M,M,75.20,SBGR 162225Z 12005KT 6000 -RA BKN011 24/22 Q1015,M
SBGR,2025-01-16 23:00,73.40,71.60,94.10,130.00,5.00,0.00,29.97,M,4.35,M,FEW,BKN,OVC,M,1100.00,2000.00,10000.00,M,-RA,M,M,M,M,M,M,73.40,SBGR 162300Z 13005KT 7000 -RA FEW011 BKN020 OVC100 23/22 Q1015,M
SBAN,2025-01-16 23:00,68.00,68.00,100.00,40.00,8.00,0.00,30.00,M,4.35,M,BKN,BKN,M,M,500.00,1000.00,M,M,-RA,M,M,M,M,M,M,68.00,SBAN 162300Z 04008KT 7000 -RA BKN005 BKN010 20/20 Q1016 RERA,M
SBGR,2025-01-16 23:25,73.40,69.80,88.51,140.00,6.00,0.00,30.00,M,2.49,M,BKN,OVC,M,M,1100.00,10000.00,M,M,RA,M,M,M,M,M,M,73.40,SBGR 162325Z 14006KT 4000 RA BKN011 OVC100 23/21 Q1016,M
SBAN,2025-01-17 00:00,68.00,68.00,100.00,20.00,6.00,0.00,30.03,M,6.21,M,BKN,SCT,M,M,400.00,1000.00,M,M,-RA,M,M,M,M,M,M,68.00,SBAN 170000Z 02006KT 9999 -RA BKN004 SCT010 20/20 Q1017,M
SBGR,2025-01-17 00:00,71.60,71.60,100.00,70.00,6.00,0.00,30.00,M,1.86,M,BKN,FEW,OVC,M,800.00,4000.00,10000.00,M,+TSRA,M,M,M,M,M,M,71.60,SBGR 170000Z 07006KT 3000 +TSRA BKN008 FEW040CB OVC100 22/22 Q1016 RERA,M
SBGR,2025-01-17 00:15,71.60,71.60,100.00,120.00,5.00,0.00,30.03,M,2.49,M,BKN,FEW,OVC,M,800.00,4000.00,10000.00,M,TSRA,M,M,M,M,M,M,71.60,SBGR 170015Z 12005KT 4000 TSRA BKN008 FEW040CB OVC100 22/22 Q1017 RERA,M
SBGR,2025-01-17 00:45,71.60,71.60,100.00,90.00,8.00,0.00,30.03,M,1.86,M,BKN,FEW,OVC,M,600.00,4000.00,7000.00,M,+TSRA,M,M,M,M,M,M,71.60,SBGR 170045Z 09008KT 3000 +TSRA BKN006 FEW040CB OVC070 22/22 Q1017 RERA,M
SBAN,2025-01-17 01:00,68.00,68.00,100.00,10.00,6.00,0.00,30.03,M,6.21,M,SCT,SCT,M,M,700.00,1000.00,M,M,-RA,M,M,M,M,M,M,68.00,SBAN 170100Z 01006KT 9999 -RA SCT007 SCT010 20/20 Q1017,M
SBGR,2025-01-17 01:00,71.60,69.80,94.06,110.00,7.00,0.00,30.03,M,3.11,M,BKN,FEW,OVC,M,1700.00,4000.00,7000.00,M,TSRA,M,M,M,M,M,M,71.60,SBGR 170100Z 11007KT 5000 TSRA BKN017 FEW040CB OVC070 22/21 Q1017 RERA,M
SBGR,2025-01-17 01:30,71.60,69.80,94.06,100.00,7.00,0.00,30.03,M,5.59,M,BKN,OVC,M,M,600.00,7000.00,M,M,-RA,M,M,M,M,M,M,71.60,SBGR 170130Z 10007KT 9000 -RA BKN006 OVC070 22/21 Q1017 RETSRA,M
SBAN,2025-01-17 02:00,66.20,66.20,100.00,10.00,6.00,0.00,30.06,M,6.21,M,BKN,SCT,M,M,400.00,1000.00,M,M,-RA,M,M,M,M,M,M,66.20,SBAN 170200Z 01006KT 9999 -RA BKN004 SCT010 19/19 Q1018,M
SBGR,2025-01-17 02:00,71.60,69.80,94.06,60.00,10.00,0.00,30.03,M,5.59,M,OVC,M,M,M,600.00,M,M,M,-RA,M,M,M,M,M,M,71.60,SBGR 170200Z 06010KT 9000 -RA OVC006 22/21 Q1017 RETSRA,M
SBGR,2025-01-17 03:00,69.80,69.80,100.00,70.00,11.00,0.00,30.03,M,6.21,M,OVC,M,M,M,500.00,M,M,M,-RA,M,M,M,M,M,M,69.80,SBGR 170300Z 07011KT 9999 -RA OVC005 21/21 Q1017,M
SBAN,2025-01-17 03:00,66.20,66.20,100.00,20.00,6.00,0.00,30.06,M,6.21,M,BKN,SCT,M,M,300.00,600.00,M,M,M,M,M,M,M,M,M,66.20,SBAN 170300Z 02006KT 9999 BKN003 SCT006 19/19 Q1018,M
SBAN,2025-01-17 04:00,66.20,66.20,100.00,330.00,4.00,0.00,30.03,M,6.21,M,BKN,SCT,M,M,500.00,1000.00,M,M,M,M,M,M,M,M,M,66.20,SBAN 170400Z 33004KT 9999 BKN005 SCT010 19/19 Q1017,M
SBGR,2025-01-17 04:00,69.80,68.00,94.01,70.00,9.00,0.00,30.00,M,6.21,M,BKN,OVC,M,M,500.00,8000.00,M,M,-RA,M,M,M,M,M,M,69.80,SBGR 170400Z 07009KT 9999 -RA BKN005 OVC080 21/20 Q1016,M
SBGR,2025-01-17 05:00,69.80,68.00,94.01,70.00,10.00,0.00,30.00,M,6.21,M,OVC,M,M,M,600.00,M,M,M,M,M,M,M,M,M,M,69.80,SBGR 170500Z 07010KT 9999 OVC006 21/20 Q1016,M
SBAN,2025-01-17 05:00,66.20,66.20,100.00,10.00,6.00,0.00,30.03,M,6.21,M,BKN,SCT,M,M,500.00,1200.00,M,M,M,M,M,M,M,M,M,66.20,SBAN 170500Z 01006KT 9999 BKN005 SCT012 19/19 Q1017,M
SBAN,2025-01-17 06:00,64.40,64.40,100.00,320.00,4.00,0.00,30.03,M,6.21,M,BKN,SCT,M,M,600.00,1200.00,M,M,M,M,M,M,M,M,M,64.40,COR SBAN 170600Z 32004KT 9999 BKN006 SCT012 18/18 Q1017,M
SBGR,2025-01-17 06:00,69.80,68.00,94.01,80.00,7.00,0.00,30.00,M,6.21,M,BKN,M,M,M,600.00,M,M,M,M,M,M,M,M,M,M,69.80,SBGR 170600Z 08007KT 9999 BKN006 21/20 Q1016,M
SBGR,2025-01-17 07:00,69.80,68.00,94.01,80.00,5.00,0.00,30.00,M,6.21,M,SCT,M,M,M,600.00,M,M,M,M,M,M,M,M,M,M,69.80,SBGR 170700Z 08005KT 9999 SCT006 21/20 Q1016,M
SBAN,2025-01-17 07:00,64.40,64.40,100.00,10.00,6.00,0.00,30.03,M,6.21,M,BKN,SCT,M,M,600.00,1000.00,M,M,M,M,M,M,M,M,M,64.40,SBAN 170700Z 01006KT 9999 BKN006 SCT010 18/18 Q1017,M
SBGR,2025-01-17 08:00,69.80,68.00,94.01,70.00,5.00,0.00,30.00,M,6.21,M,SCT,M,M,M,600.00,M,M,M,M,M,M,M,M,M,M,69.80,SBGR 170800Z 07005KT 9999 SCT006 21/20 Q1016,M
SBAN,2025-01-17 08:00,64.40,64.40,100.00,10.00,5.00,0.00,30.03,M,6.21,M,BKN,SCT,M,M,400.00,900.00,M,M,M,M,M,M,M,M,M,64.40,SBAN 170800Z 01005KT 9999 BKN004 SCT009 18/18 Q1017,M
SBGR,2025-01-17 09:00,69.80,68.00,94.01,110.00,5.00,0.00,30.00,M,6.21,M,FEW,M,M,M,500.00,M,M,M,M,M,M,M,M,M,M,69.80,SBGR 170900Z 11005KT 9999 FEW005 21/20 Q1016,M
SBAN,2025-01-17 09:00,66.20,66.20,100.00,10.00,9.00,0.00,30.03,M,6.21,M,FEW,BKN,M,M,300.00,700.00,M,M,M,M,M,M,M,M,M,66.20,SBAN 170900Z 01009KT 9999 FEW003 BKN007 19/19 Q1017,M
SBGR,2025-01-17 10:00,69.80,68.00,94.01,90.00,3.00,0.00,30.03,M,6.21,M,FEW,M,M,M,500.00,M,M,M,M,M,M,M,M,M,M,69.80,SBGR 171000Z 09003KT 9999 FEW005 21/20 Q1017,M
SBAN,2025-01-17 10:00,66.20,66.20,100.00,10.00,5.00,0.00,30.09,M,5.59,M,FEW,BKN,BKN,M,300.00,500.00,1700.00,M,M,M,M,M,M,M,M,66.20,SBAN 171000Z 01005KT 330V050 9000 FEW003 BKN005 BKN017 19/19 Q1019,M
SBGR,2025-01-17 11:00,73.40,68.00,83.21,50.00,7.00,0.00,30.03,M,6.21,M,M,M,M,M,M,M,M,M,M,M,M,M,M,M,M,73.40,SBGR 171100Z 05007KT CAVOK 23/20 Q1017,M
SBAN,2025-01-17 11:00,68.00,68.00,100.00,30.00,8.00,0.00,30.09,M,6.21,M,BKN,BKN,BKN,M,500.00,1000.00,1700.00,M,SHRA,M,M,M,M,M,M,68.00,SBAN 171100Z 03008KT 350V070 9999 SHRA BKN005 BKN010 BKN017 20/20 Q1019,M
SBAN,2025-01-17 12:00,68.00,68.00,100.00,10.00,9.00,0.00,30.12,M,6.21,M,SCT,BKN,BKN,M,700.00,1000.00,1300.00,M,M,M,M,M,M,M,M,68.00,COR SBAN 171200Z 01009KT 340V040 9999 SCT007 BKN010 BKN013 20/20 Q1020 RESHRA,M
SBGR,2025-01-17 12:00,77.00,68.00,73.78,40.00,8.00,0.00,30.06,M,6.21,M,M,M,M,M,M,M,M,M,M,M,M,M,M,M,M,77.00,SBGR 171200Z 04008KT CAVOK 25/20 Q1018,M
SBGR,2025-01-17 13:00,78.80,68.00,69.52,30.00,9.00,0.00,30.06,M,6.21,M,M,M,M,M,M,M,M,M,M,M,M,M,M,M,M,78.80,SBGR 171300Z 03009KT CAVOK 26/20 Q1018,M
SBAN,2025-01-17 13:00,71.60,68.00,88.43,360.00,9.00,0.00,30.15,M,6.21,M,SCT,BKN,BKN,M,700.00,1200.00,1700.00,M,M,M,M,M,M,M,M,71.60,SBAN 171300Z 36009KT 320V030 9999 SCT007 BKN012 BKN017 22/20 Q1021,M
SBGR,2025-01-17 14:00,80.60,68.00,65.54,10.00,12.00,0.00,30.03,M,6.21,M,SCT,M,M,M,3300.00,M,M,M,M,M,M,M,M,M,M,83.29,SBGR 171400Z 01012KT 9999 SCT033 27/20 Q1017,M
SBAN,2025-01-17 14:00,75.20,66.20,73.61,350.00,10.00,0.00,30.12,M,6.21,M,FEW,BKN,BKN,M,1200.00,1500.00,2500.00,M,M,M,M,M,M,M,M,75.20,SBAN 171400Z 35010KT 310V040 9999 FEW012 BKN015 BKN025 24/19 Q1020,M
SBAN,2025-01-17 15:00,77.00,68.00,73.78,10.00,10.00,0.00,30.12,M,6.21,M,SCT,BKN,BKN,M,1200.00,1500.00,2500.00,M,SHRA,M,M,M,M,M,M,77.00,SBAN 171500Z 01010KT 330V040 9999 SHRA SCT012 BKN015 BKN025 25/20 Q1020,M
SBGR,2025-01-17 15:00,82.40,68.00,61.81,330.00,11.00,0.00,30.03,M,6.21,M,SCT,M,M,M,3600.00,M,M,M,M,M,M,M,M,M,M,85.38,SBGR 171500Z 33011KT 9999 SCT036 28/20 Q1017,M
SBAN,2025-01-17 16:00,75.20,68.00,78.34,350.00,9.00,0.00,30.09,M,3.11,M,SCT,BKN,BKN,M,1200.00,1500.00,2500.00,M,-RA,M,M,M,M,M,M,75.20,SBAN 171600Z 35009KT 310V030 5000 -RA SCT012 BKN015 BKN025 24/20 Q1019 RESHRA,M
SBGR,2025-01-17 16:00,80.60,68.00,65.54,330.00,7.00,0.00,30.03,M,6.21,M,SCT,M,M,M,3600.00,M,M,M,M,M,M,M,M,M,M,83.29,SBGR 171600Z 33007KT 9999 SCT036 27/20 Q1017,M
SBGR,2025-01-17 17:00,80.60,68.00,65.54,310.00,5.00,0.00,30.00,M,6.21,M,FEW,M,M,M,3500.00,M,M,M,M,M,M,M,M,M,M,83.29,SBGR 171700Z 31005KT 9999 FEW035 27/20 Q1016,M
SBAN,2025-01-17 17:00,75.20,68.00,78.34,360.00,9.00,0.00,30.09,M,3.73,M,FEW,BKN,BKN,M,1300.00,1700.00,2500.00,M,-RA,M,M,M,M,M,M,75.20,SBAN 171700Z 36009KT 320V040 6000 -RA FEW013 BKN017 BKN025 24/20 Q1019,M
SBAN,2025-01-17 18:00,77.00,68.00,73.78,360.00,9.00,0.00,30.06,M,6.21,M,FEW,SCT,BKN,FEW,1300.00,1700.00,2500.00,3500.00,VCSH,M,M,M,M,M,M,77.00,SBAN 171800Z 36009KT 320V030 9999 VCSH FEW013 SCT017 BKN025 FEW035TCU 25/20 Q1018,M
SBGR,2025-01-17 18:00,80.60,68.00,65.54,320.00,3.00,0.00,30.00,M,6.21,M,FEW,BKN,M,M,2000.00,10000.00,M,M,M,M,M,M,M,M,M,83.29,SBGR 171800Z 32003KT 9999 FEW020 BKN100 27/20 Q1016,M
SBAN,2025-01-17 19:00,80.60,66.20,61.58,360.00,11.00,0.00,30.03,M,6.21,M,FEW,SCT,BKN,FEW,1300.00,2000.00,2500.00,3500.00,M,M,M,M,M,M,M,82.75,SBAN 171900Z 36011KT 320V050 9999 FEW013 SCT020 BKN025 FEW035TCU 27/19 Q1017,M
SBGR,2025-01-17 19:00,80.60,69.80,69.71,0.00,0.00,0.00,30.00,M,6.21,M,SCT,M,M,M,3000.00,M,M,M,M,M,M,M,M,M,M,83.90,SBGR 171900Z 00000KT 9999 SCT030 27/21 Q1016,M
SBGR,2025-01-17 20:00,80.60,68.00,65.54,20.00,6.00,0.00,29.97,M,6.21,M,SCT,BKN,M,M,3000.00,8000.00,M,M,M,M,M,M,M,M,M,83.29,SBGR 172000Z 02006KT 9999 SCT030 BKN080 27/20 Q1015,M
SBAN,2025-01-17 20:00,71.60,68.00,88.43,330.00,7.00,0.00,30.03,M,6.21,M,BKN,BKN,BKN,FEW,500.00,1000.00,2500.00,3500.00,M,M,M,M,M,M,M,71.60,SBAN 172000Z 33007KT 250V020 9999 BKN005 BKN010 BKN025 FEW035TCU 22/20 Q1017 RESHRA,M
SBAN,2025-01-17 21:00,71.60,69.80,94.06,330.00,6.00,0.00,30.03,M,6.21,M,FEW,BKN,FEW,BKN,1000.00,2500.00,3500.00,5000.00,M,M,M,M,M,M,M,71.60,SBAN 172100Z 33006KT 280V350 9999 FEW010 BKN025 FEW035TCU BKN050 22/21 Q1017,M
SBGR,2025-01-17 21:00,80.60,68.00,65.54,10.00,5.00,0.00,29.97,M,6.21,M,FEW,BKN,M,M,3000.00,8000.00,M,M,M,M,M,M,M,M,M,83.29,SBGR 172100Z 01005KT 9999 FEW030 BKN080 27/20 Q1015,M
SBAN,2025-01-17 22:00,69.80,68.00,94.01,340.00,5.00,0.00,30.06,M,6.21,M,FEW,BKN,M,M,2500.00,4000.00,M,M,M,M,M,M,M,M,M,69.80,SBAN 172200Z 34005KT 310V010 9999 FEW025 BKN040 21/20 Q1018,M
SBGR,2025-01-17 22:00,80.60,68.00,65.54,30.00,5.00,0.00,30.00,M,6.21,M,FEW,M,M,M,2000.00,M,M,M,M,M,M,M,M,M,M,83.29,SBGR 172200Z 03005KT 9999 FEW020 27/20 Q1016,M
SBGR,2025-01-17 23:00,78.80,69.80,73.95,360.00,2.00,0.00,30.03,M,6.21,M,M,M,M,M,M,M,M,M,M,M,M,M,M,M,M,78.80,SBGR 172300Z 36002KT CAVOK 26/21 Q1017,M
SBAN,2025-01-17 23:00,68.00,68.00,100.00,340.00,4.00,0.00,30.09,M,6.21,M,FEW,M,M,M,4000.00,M,M,M,M,M,M,M,M,M,M,68.00,SBAN 172300Z 34004KT 9999 FEW040 20/20 Q1019,M
SBAN,2025-01-18 00:00,68.00,68.00,100.00,340.00,6.00,0.00,30.09,M,6.21,M,FEW,M,M,M,500.00,M,M,M,M,M,M,M,M,M,M,68.00,SBAN 180000Z 34006KT 9999 FEW005 20/20 Q1019,M
SBGR,2025-01-18 00:00,73.40,69.80,88.51,200.00,1.00,0.00,30.03,M,6.21,M,FEW,BKN,M,M,5000.00,7000.00,M,M,M,M,M,M,M,M,M,73.40,SBGR 180000Z 20001KT 9999 FEW050TCU BKN070 23/21 Q1017,M
SBAN,2025-01-18 01:00,68.00,68.00,100.00,340.00,4.00,0.00,30.12,M,6.21,M,SCT,M,M,M,500.00,M,M,M,M,M,M,M,M,M,M,68.00,SBAN 180100Z 34004KT 9999 SCT005 20/20 Q1020,M
SBGR,2025-01-18 01:00,75.20,69.80,83.32,170.00,3.00,0.00,30.06,M,6.21,M,SCT,BKN,M,M,4500.00,7000.00,M,M,M,M,M,M,M,M,M,75.20,SBGR 180100Z 17003KT 9999 SCT045 BKN070 24/21 Q1018,M
SBGR,2025-01-18 02:00,73.40,69.80,88.51,230.00,3.00,0.00,30.06,M,6.21,M,FEW,BKN,M,M,4500.00,10000.00,M,M,M,M,M,M,M,M,M,73.40,SBGR 180200Z 23003KT 9999 FEW045 BKN100 23/21 Q1018,M
SBAN,2025-01-18 02:00,68.00,68.00,100.00,340.00,4.00,0.00,30.15,M,0.31,M,SCT,M,M,M,200.00,M,M,M,FG,M,M,M,M,M,M,68.00,SBAN 180200Z 34004KT 0500 R24R/M0050 R06L/M0050 FG SCT002 20/20 Q1021,M
SBGR,2025-01-18 03:00,73.40,68.00,83.21,230.00,3.00,0.00,30.06,M,6.21,M,SCT,BKN,M,M,1700.00,10000.00,M,M,M,M,M,M,M,M,M,73.40,SBGR 180300Z 23003KT 9999 SCT017 BKN100 23/20 Q1018,M
SBAN,2025-01-18 03:00,66.20,66.20,100.00,340.00,4.00,0.00,30.12,M,0.31,M,SCT,M,M,M,200.00,M,M,M,FG,M,M,M,M,M,M,66.20,SBAN 180300Z 34004KT 0500 R24R/M0050 R06L/M0050 FG SCT002 19/19 Q1020,M
SBGR,2025-01-18 04:00,71.60,68.00,88.43,240.00,3.00,0.00,30.03,M,6.21,M,M,M,M,M,M,M,M,M,M,M,M,M,M,M,M,71.60,SBGR 180400Z 24003KT CAVOK 22/20 Q1017,M
SBAN,2025-01-18 04:00,68.00,68.00,100.00,310.00,4.00,0.00,30.15,M,0.31,M,SCT,M,M,M,200.00,M,M,M,FG,M,M,M,M,M,M,68.00,SBAN 180400Z 31004KT 0500 R06L/M0050 R24R/M0050 FG SCT002 20/20 Q1021,M
SBGR,2025-01-18 05:00,71.60,68.00,88.43,0.00,0.00,0.00,30.00,M,6.21,M,M,M,M,M,M,M,M,M,M,M,M,M,M,M,M,71.60,SBGR 180500Z 00000KT CAVOK 22/20 Q1016,M
SBAN,2025-01-18 05:00,68.00,68.00,100.00,360.00,4.00,0.00,30.15,M,0.31,M,SCT,M,M,M,200.00,M,M,M,FG,M,M,M,M,M,M,68.00,SBAN 180500Z 36004KT 0500 R06L/M0050 R24R/M0050 FG SCT002 20/20 Q1021,M
SBAN,2025-01-18 06:00,68.00,68.00,100.00,360.00,3.00,0.00,30.15,M,6.21,M,SCT,SCT,M,M,400.00,10000.00,M,M,M,M,M,M,M,M,M,68.00,SBAN 180600Z 36003KT 9999 SCT004 SCT100 20/20 Q1021,M
SBGR,2025-01-18 06:00,69.80,68.00,94.01,200.00,1.00,0.00,30.00,M,4.35,M,FEW,BKN,M,M,4500.00,10000.00,M,M,-RA,M,M,M,M,M,M,69.80,SBGR 180600Z 20001KT 7000 -RA FEW045 BKN100 21/20 Q1016,M
SBAN,2025-01-18 07:00,66.20,66.20,100.00,10.00,4.00,0.00,30.15,M,6.21,M,SCT,M,M,M,300.00,M,M,M,M,M,M,M,M,M,M,66.20,SBAN 180700Z 01004KT 9999 SCT003 19/19 Q1021,M
SBGR,2025-01-18 07:00,69.80,68.00,94.01,180.00,1.00,0.00,30.00,M,6.21,M,M,M,M,M,M,M,M,M,M,M,M,M,M,M,M,69.80,SBGR 180700Z 18001KT CAVOK 21/20 Q1016,M
SBGR,2025-01-18 08:00,69.80,68.00,94.01,100.00,1.00,0.00,30.00,M,6.21,M,M,M,M,M,M,M,M,M,M,M,M,M,M,M,M,69.80,SBGR 180800Z 10001KT CAVOK 21/20 Q1016,M
SBAN,2025-01-18 08:00,66.20,66.20,100.00,340.00,2.00,0.00,30.15,M,6.21,M,SCT,SCT,M,M,300.00,10000.00,M,M,M,M,M,M,M,M,M,66.20,SBAN 180800Z 34002KT 9999 SCT003 SCT100 19/19 Q1021,M
SBGR,2025-01-18 09:00,69.80,68.00,94.01,0.00,0.00,0.00,30.00,M,6.21,M,M,M,M,M,M,M,M,M,M,M,M,M,M,M,M,69.80,SBGR 180900Z 00000KT CAVOK 21/20 Q1016,M
SBAN,2025-01-18 09:00,64.40,64.40,100.00,360.00,2.00,0.00,30.09,M,6.21,M,FEW,M,M,M,200.00,M,M,M,BCFG,M,M,M,M,M,M,64.40,SBAN 180900Z 36002KT 9999 2000W BCFG FEW002 18/18 Q1019,M
SBGR,2025-01-18 10:00,75.20,69.80,83.32,140.00,5.00,0.00,30.03,M,6.21,M,M,M,M,M,M,M,M,M,M,M,M,M,M,M,M,75.20,SBGR 181000Z 14005KT CAVOK 24/21 Q1017,M
SBAN,2025-01-18 10:00,66.20,66.20,100.00,120.00,4.00,0.00,30.12,M,0.75,M,BKN,M,M,M,100.00,M,M,M,BR PRFG,M,M,M,M,M,M,66.20,SBAN 181000Z 12004KT 1200 BR PRFG BKN001 19/19 Q1020,M
SBAN,2025-01-18 11:00,66.20,66.20,100.00,70.00,7.00,0.00,30.15,M,3.11,M,BKN,M,M,M,200.00,M,M,M,BR,M,M,M,M,M,M,66.20,SBAN 181100Z 07007KT 5000 BR BKN002 19/19 Q1021,M
SBGR,2025-01-18 11:00,78.80,69.80,73.95,80.00,7.00,0.00,30.03,M,6.21,M,M,M,M,M,M,M,M,M,M,M,M,M,M,M,M,78.80,SBGR 181100Z 08007KT CAVOK 26/21 Q1017,M
SBAN,2025-01-18 12:00,69.80,68.00,94.01,20.00,4.00,0.00,30.15,M,6.21,M,SCT,SCT,M,M,500.00,1000.00,M,M,M,M,M,M,M,M,M,69.80,SBAN 181200Z 02004KT 9999 SCT005 SCT010 21/20 Q1021,M
SBGR,2025-01-18 12:00,86.00,68.00,55.04,330.00,13.00,0.00,30.03,M,6.21,M,M,M,M,M,M,M,M,M,M,M,M,M,M,M,M,89.41,SBGR 181200Z 33013KT CAVOK 30/20 Q1017,M
SBAN,2025-01-18 13:00,75.20,68.00,78.34,20.00,6.00,0.00,30.18,M,6.21,M,BKN,M,M,M,1500.00,M,M,M,M,M,M,M,M,M,M,75.20,SBAN 181300Z 02006KT 9999 BKN015 24/20 Q1022,M
SBGR,2025-01-18 13:00,84.20,69.80,62.03,320.00,10.00,0.00,30.06,M,6.21,M,SCT,M,M,M,3500.00,M,M,M,M,M,M,M,M,M,M,88.43,SBGR 181300Z 32010KT 9999 SCT035 29/21 Q1018,M
SBGR,2025-01-18 14:00,86.00,69.80,58.55,340.00,15.00,0.00,30.03,M,6.21,M,BKN,M,M,M,3500.00,M,M,M,M,M,M,M,M,M,M,90.58,SBGR 181400Z 34015KT 9999 BKN035 30/21 Q1017,M
SBAN,2025-01-18 14:00,78.80,66.20,65.33,10.00,6.00,0.00,30.15,M,6.21,M,BKN,M,M,M,2000.00,M,M,M,M,M,M,M,M,M,M,78.80,SBAN 181400Z 01006KT 9999 BKN020 26/19 Q1021,M
SBGR,2025-01-18 15:00,87.80,68.00,51.98,310.00,13.00,0.00,30.03,M,6.21,M,BKN,M,M,M,4000.00,M,M,M,M,M,M,M,M,M,M,91.43,SBGR 181500Z 31013KT 9999 BKN040 31/20 Q1017,M
SBAN,2025-01-18 15:00,78.80,66.20,65.33,10.00,4.00,0.00,30.15,M,6.21,M,BKN,FEW,M,M,2500.00,3000.00,M,M,VCSH,M,M,M,M,M,M,78.80,SBAN 181500Z 01004KT 9999 VCSH BKN025 FEW030TCU 26/19 Q1021,M
SBAN,2025-01-18 16:00,73.40,64.40,73.44,40.00,13.00,0.00,30.12,M,6.21,23.00,FEW,SCT,FEW,M,1000.00,3000.00,3500.00,M,VCSH VCTS,M,M,M,M,M,M,73.40,SBAN 181600Z 04013G23KT 9999 VCSH VCTS FEW010 SCT030 FEW035CB 23/18 Q1020,M
SBGR,2025-01-18 16:00,91.40,68.00,46.41,320.00,14.00,0.00,30.00,M,6.21,M,BKN,M,M,M,4000.00,M,M,M,M,M,M,M,M,M,M,95.55,SBGR 181600Z 32014KT 9999 BKN040 33/20 Q1016,M
SBGR,2025-01-18 17:00,89.60,64.40,43.34,330.00,12.00,0.00,29.97,M,6.21,M,M,M,M,M,M,M,M,M,M,M,M,M,M,M,M,91.23,SBGR 181700Z 33012KT CAVOK 32/18 Q1015,M
SBAN,2025-01-18 17:00,71.60,68.00,88.43,310.00,4.00,0.00,30.09,M,6.21,M,SCT,FEW,M,M,3500.00,4000.00,M,M,TS,M,M,M,M,M,M,71.60,SBAN 181700Z 31004KT 9999 TS SCT035 FEW040CB 22/20 Q1019,M
SBAN,2025-01-18 18:00,78.80,68.00,69.52,340.00,4.00,0.00,30.06,M,6.21,M,SCT,FEW,M,M,4000.00,4500.00,M,M,M,M,M,M,M,M,M,78.80,SBAN 181800Z 34004KT 9999 SCT040 FEW045TCU 26/20 Q1018 RETS,M
SBGR,2025-01-18 18:00,91.40,68.00,46.41,310.00,12.00,0.00,29.97,M,6.21,M,M,M,M,M,M,M,M,M,M,M,M,M,M,M,M,95.55,SBGR 181800Z 31012KT CAVOK 33/20 Q1015,M
SBAN,2025-01-18 19:00,80.60,68.00,65.54,310.00,4.00,0.00,30.06,M,6.21,M,SCT,FEW,M,M,4000.00,4500.00,M,M,M,M,M,M,M,M,M,83.29,SBAN 181900Z 31004KT 9999 SCT040 FEW045TCU 27/20 Q1018,M
SBGR,2025-01-18 19:00,89.60,64.40,43.34,310.00,11.00,0.00,29.94,M,6.21,M,M,M,M,M,M,M,M,M,M,M,M,M,M,M,M,91.23,SBGR 181900Z 31011KT CAVOK 32/18 Q1014,M
SBAN,2025-01-18 20:00,80.60,66.20,61.58,340.00,6.00,0.00,30.03,M,6.21,M,SCT,FEW,M,M,4000.00,4500.00,M,M,VCSH,M,M,M,M,M,M,82.75,SBAN 182000Z 34006KT 9999 VCSH SCT040 FEW045TCU 27/19 Q1017,M
SBGR,2025-01-18 20:00,84.20,68.00,58.32,280.00,12.00,0.00,29.94,M,6.21,M,SCT,FEW,M,M,4000.00,5000.00,M,M,VCSH,M,M,M,M,M,M,87.40,SBGR 182000Z 28012KT 9999 VCSH SCT040 FEW050TCU 29/20 Q1014,M
SBGR,2025-01-18 21:00,84.20,68.00,58.32,310.00,5.00,0.00,29.97,M,6.21,M,SCT,FEW,M,M,4000.00,5000.00,M,M,VCSH,M,M,M,M,M,M,87.40,SBGR 182100Z 31005KT 9999 VCSH SCT040 FEW050TCU 29/20 Q1015,M
SBAN,2025-01-18 21:00,73.40,66.20,78.19,180.00,4.00,0.00,30.03,M,6.21,M,FEW,FEW,M,M,4000.00,4500.00,M,M,VCSH,M,M,M,M,M,M,73.40,SBAN 182100Z 18004KT 9999 VCSH FEW040 FEW045TCU 23/19 Q1017 RETSRA,M
SBAN,2025-01-18 22:00,73.40,69.80,88.51,340.00,3.00,0.00,30.06,M,6.21,M,FEW,FEW,M,M,4000.00,4500.00,M,M,TS VCSH,M,M,M,M,M,M,73.40,SBAN 182200Z 34003KT 9999 TS VCSH FEW040 FEW045CB 23/21 Q1018,M
SBGR,2025-01-18 22:00,82.40,68.00,61.81,270.00,7.00,0.00,29.97,M,6.21,M,FEW,FEW,M,M,4000.00,5000.00,M,M,VCSH,M,M,M,M,M,M,85.38,SBGR 182200Z 27007KT 9999 VCSH FEW040 FEW050TCU 28/20 Q1015,M
SBAN,2025-01-18 22:06,71.60,68.00,88.43,20.00,7.00,0.00,30.06,M,6.21,17.00,FEW,SCT,FEW,M,1500.00,3500.00,4000.00,M,TS VCSH,M,M,M,M,M,M,71.60,SBAN 182206Z 02007G17KT 9999 TS VCSH FEW015 SCT035 FEW040CB 22/20 Q1018,M
SBGR,2025-01-18 23:00,80.60,69.80,69.71,110.00,6.00,0.00,29.97,M,6.21,M,FEW,FEW,M,M,4000.00,5000.00,M,M,VCTS,M,M,M,M,M,M,83.90,SBGR 182300Z 11006KT 9999 VCTS FEW040 FEW050CB 27/21 Q1015,M
SBAN,2025-01-18 23:00,69.80,69.80,100.00,320.00,2.00,0.00,30.06,M,6.21,M,FEW,SCT,FEW,M,1000.00,2000.00,2500.00,M,VCTS,M,M,M,M,M,M,69.80,SBAN 182300Z 32002KT 9999 VCTS FEW010 SCT020 FEW025CB 21/21 Q1018 RETSRA,M
SBAN,2025-01-19 00:00,68.00,68.00,100.00,330.00,2.00,0.00,30.09,M,6.21,M,FEW,SCT,FEW,M,1000.00,2000.00,2500.00,M,M,M,M,M,M,M,M,68.00,SBAN 190000Z 33002KT 9999 FEW010 SCT020 FEW025TCU 20/20 Q1019,M
SBGR,2025-01-19 00:00,77.00,69.80,78.48,80.00,5.00,0.00,30.00,M,6.21,M,FEW,FEW,M,M,4000.00,5000.00,M,M,VCTS,M,M,M,M,M,M,77.00,SBGR 190000Z 08005KT 9999 VCTS FEW040 FEW050CB 25/21 Q1016,M
SBAN,2025-01-19 01:00,68.00,68.00,100.00,330.00,2.00,0.00,30.12,M,6.21,M,FEW,SCT,M,M,1000.00,2000.00,M,M,M,M,M,M,M,M,M,68.00,SBAN 190100Z 33002KT 9999 FEW010 SCT020 20/20 Q1020,M
SBGR,2025-01-19 01:00,73.40,69.80,88.51,140.00,2.00,0.00,30.03,M,6.21,M,M,M,M,M,M,M,M,M,M,M,M,M,M,M,M,73.40,SBGR 190100Z 14002KT CAVOK 23/21 Q1017,M
SBGR,2025-01-19 02:00,75.20,69.80,83.32,80.00,8.00,0.00,30.03,M,6.21,M,M,M,M,M,M,M,M,M,M,M,M,M,M,M,M,75.20,SBGR 190200Z 08008KT CAVOK 24/21 Q1017,M
SBAN,2025-01-19 02:00,68.00,68.00,100.00,330.00,3.00,0.00,30.12,M,6.21,M,SCT,SCT,M,M,2000.00,10000.00,M,M,M,M,M,M,M,M,M,68.00,SBAN 190200Z 33003KT 9999 SCT020 SCT100 20/20 Q1020,M
SBGR,2025-01-19 03:00,75.20,69.80,83.32,90.00,4.00,0.00,30.03,M,6.21,M,M,M,M,M,M,M,M,M,M,M,M,M,M,M,M,75.20,SBGR 190300Z 09004KT CAVOK 24/21 Q1017,M
SBAN,2025-01-19 03:00,68.00,68.00,100.00,330.00,3.00,0.00,30.12,M,6.21,M,SCT,SCT,M,M,3500.00,10000.00,M,M,M,M,M,M,M,M,M,68.00,SBAN 190300Z 33003KT 9999 SCT035 SCT100 20/20 Q1020,M
SBGR,2025-01-19 04:00,73.40,69.80,88.51,80.00,7.00,0.00,30.00,M,6.21,M,M,M,M,M,M,M,M,M,M,M,M,M,M,M,M,73.40,SBGR 190400Z 08007KT CAVOK 23/21 Q1016,M
SBAN,2025-01-19 04:00,68.00,68.00,100.00,330.00,3.00,0.00,30.12,M,6.21,M,SCT,SCT,M,M,3000.00,10000.00,M,M,M,M,M,M,M,M,M,68.00,SBAN 190400Z 33003KT 9999 SCT030 SCT100 20/20 Q1020,M
SBGR,2025-01-19 05:00,71.60,69.80,94.06,80.00,6.00,0.00,29.97,M,6.21,M,M,M,M,M,M,M,M,M,M,M,M,M,M,M,M,71.60,SBGR 190500Z 08006KT CAVOK 22/21 Q1015,M
SBAN,2025-01-19 05:00,68.00,66.20,93.97,320.00,3.00,0.00,30.12,M,6.21,M,SCT,SCT,M,M,2500.00,10000.00,M,M,M,M,M,M,M,M,M,68.00,SBAN 190500Z 32003KT 9999 SCT025 SCT100 20/19 Q1020,M
SBGR,2025-01-19 06:00,71.60,69.80,94.06,80.00,5.00,0.00,29.97,M,6.21,M,M,M,M,M,M,M,M,M,M,M,M,M,M,M,M,71.60,SBGR 190600Z 08005KT CAVOK 22/21 Q1015,M
SBAN,2025-01-19 06:00,68.00,68.00,100.00,330.00,4.00,0.00,30.06,M,6.21,M,SCT,SCT,M,M,500.00,3500.00,M,M,M,M,M,M,M,M,M,68.00,SBAN 190600Z 33004KT 300V360 9999 SCT005 SCT035 20/20 Q1018,M
SBAN,2025-01-19 07:00,68.00,68.00,100.00,310.00,3.00,0.00,30.06,M,2.49,M,BKN,SCT,M,M,400.00,3500.00,M,M,BR,M,M,M,M,M,M,68.00,COR SBAN 190700Z 31003KT 4000 BR BKN004 SCT035 20/20 Q1018,M
SBGR,2025-01-19 07:00,71.60,69.80,94.06,60.00,6.00,0.00,29.97,M,6.21,M,M,M,M,M,M,M,M,M,M,M,M,M,M,M,M,71.60,SBGR 190700Z 06006KT CAVOK 22/21 Q1015,M
SBAN,2025-01-19 08:00,68.00,68.00,100.00,320.00,4.00,0.00,30.06,M,0.06,M,VV ,M,M,M,400.00,M,M,M,FG,M,M,M,M,M,M,68.00,SBAN 190800Z 32004KT 290V360 0100 R06L/0700D R24R/0900N FG VV004 20/20 Q1018,M
SBGR,2025-01-19 08:00,69.80,68.00,94.01,70.00,5.00,0.00,29.97,M,6.21,M,M,M,M,M,M,M,M,M,M,M,M,M,M,M,M,69.80,SBGR 190800Z 07005KT CAVOK 21/20 Q1015,M
SBAN,2025-01-19 09:00,66.20,66.20,100.00,320.00,4.00,0.00,30.06,M,6.21,M,FEW,BKN,FEW,M,300.00,3500.00,4000.00,M,M,M,M,M,M,M,M,66.20,SBAN 190900Z 32004KT 270V010 9999 FEW003 BKN035 FEW040TCU 19/19 Q1018,M
SBGR,2025-01-19 09:00,71.60,69.80,94.06,70.00,4.00,0.00,29.97,M,6.21,M,M,M,M,M,M,M,M,M,M,M,M,M,M,M,M,71.60,SBGR 190900Z 07004KT CAVOK 22/21 Q1015,M
SBAN,2025-01-19 10:00,68.00,68.00,100.00,310.00,3.00,0.00,30.09,M,6.21,M,SCT,BKN,FEW,M,300.00,3500.00,4000.00,M,M,M,M,M,M,M,M,68.00,SBAN 191000Z 31003KT 9999 4000NW SCT003 BKN035 FEW040TCU 20/20 Q1019,M
SBGR,2025-01-19 10:00,73.40,69.80,88.51,80.00,2.00,0.00,30.00,M,6.21,M,M,M,M,M,M,M,M,M,M,M,M,M,M,M,M,73.40,SBGR 191000Z 08002KT CAVOK 23/21 Q1016,M
SBAN,2025-01-19 11:00,69.80,66.20,88.34,330.00,7.00,0.00,30.12,M,6.21,M,SCT,M,M,M,400.00,M,M,M,M,M,M,M,M,M,M,69.80,SBAN 191100Z 33007KT 9999 SCT004 21/19 Q1020,M
SBGR,2025-01-19 11:00,78.80,69.80,73.95,60.00,5.00,0.00,30.00,M,6.21,M,M,M,M,M,M,M,M,M,M,M,M,M,M,M,M,78.80,SBGR 191100Z 06005KT CAVOK 26/21 Q1016,M
SBAN,2025-01-19 12:00,71.60,68.00,88.43,340.00,9.00,0.00,30.15,M,6.21,M,BKN,SCT,FEW,M,900.00,3000.00,3500.00,M,SHRA,M,M,M,M,M,M,71.60,SBAN 191200Z 34009KT 9999 SHRA BKN009 SCT030 FEW035TCU 22/20 Q1021,M
SBGR,2025-01-19 12:00,82.40,69.80,65.74,0.00,0.00,0.00,30.00,M,6.21,M,M,M,M,M,M,M,M,M,M,M,M,M,M,M,M,86.22,SBGR 191200Z 00000KT CAVOK 28/21 Q1016,M
SBAN,2025-01-19 13:00,62.60,62.60,100.00,360.00,7.00,0.00,30.18,M,1.86,M,BKN,SCT,FEW,BKN,900.00,3000.00,3500.00,10000.00,TSRA,M,M,M,M,M,M,62.60,SBAN 191300Z 36007KT 3000 TSRA BKN009 SCT030 FEW035CB BKN100 17/17 Q1022,M
SBGR,2025-01-19 13:00,87.80,68.00,51.98,330.00,5.00,0.00,30.00,M,6.21,M,SCT,M,M,M,4000.00,M,M,M,M,M,M,M,M,M,M,91.43,SBGR 191300Z 33005KT 9999 SCT040 31/20 Q1016,M
SBAN,2025-01-19 14:00,64.40,64.40,100.00,340.00,6.00,0.00,30.15,M,4.97,M,SCT,SCT,FEW,BKN,900.00,3000.00,3500.00,10000.00,RA,M,M,M,M,M,M,64.40,SBAN 191400Z 34006KT 8000 RA SCT009 SCT030 FEW035TCU BKN100 18/18 Q1021 RETS,M
SBGR,2025-01-19 14:00,87.80,68.00,51.98,280.00,9.00,0.00,29.97,M,6.21,M,BKN,SCT,M,M,4000.00,10000.00,M,M,M,M,M,M,M,M,M,91.43,SBGR 191400Z 28009KT 9999 BKN040 SCT100 31/20 Q1015,M
SBAN,2025-01-19 15:00,68.00,68.00,100.00,360.00,7.00,0.00,30.15,M,6.21,M,FEW,FEW,SCT,M,900.00,3500.00,10000.00,M,M,M,M,M,M,M,M,68.00,SBAN 191500Z 36007KT 9999 FEW009 FEW035TCU SCT100 20/20 Q1021 RERA,M
SBGR,2025-01-19 15:00,87.80,68.00,51.98,280.00,14.00,0.00,29.97,M,6.21,M,BKN,M,M,M,4500.00,M,M,M,M,M,M,M,M,M,M,91.43,SBGR 191500Z 28014KT 9999 BKN045 31/20 Q1015,M
SBAN,2025-01-19 16:00,75.20,66.20,73.61,230.00,4.00,0.00,30.09,M,6.21,M,FEW,FEW,SCT,M,3000.00,3500.00,10000.00,M,M,M,M,M,M,M,M,75.20,SBAN 191600Z 23004KT 9999 FEW030 FEW035TCU SCT100 24/19 Q1019,M
SBGR,2025-01-19 16:00,87.80,68.00,51.98,280.00,13.00,0.00,29.94,M,6.21,M,SCT,FEW,M,M,5000.00,5000.00,M,M,M,M,M,M,M,M,M,91.43,SBGR 191600Z 28013KT 9999 SCT050 FEW050TCU 31/20 Q1014,M
SBGR,2025-01-19 17:00,87.80,68.00,51.98,280.00,9.00,0.00,29.94,M,6.21,M,SCT,FEW,M,M,4500.00,4500.00,M,M,M,M,M,M,M,M,M,91.43,SBGR 191700Z 28009KT 9999 SCT045 FEW045TCU 31/20 Q1014,M
SBAN,2025-01-19 17:00,77.00,62.60,61.13,350.00,4.00,0.00,30.09,M,6.21,M,SCT,M,M,M,3000.00,M,M,M,M,M,M,M,M,M,M,77.00,SBAN 191700Z 35004KT 9999 SCT030 25/17 Q1019,M
SBAN,2025-01-19 18:00,77.00,68.00,73.78,340.00,7.00,0.00,30.09,M,6.21,M,SCT,M,M,M,3000.00,M,M,M,M,M,M,M,M,M,M,77.00,SBAN 191800Z 34007KT 9999 SCT030 25/20 Q1019,M
SBGR,2025-01-19 18:00,87.80,68.00,51.98,300.00,7.00,0.00,29.91,M,6.21,M,FEW,BKN,M,M,4500.00,10000.00,M,M,M,M,M,M,M,M,M,91.43,SBGR 191800Z 30007KT 9999 FEW045TCU BKN100 31/20 Q1013,M
SBGR,2025-01-19 19:00,87.80,69.80,55.29,290.00,11.00,0.00,29.88,M,6.21,M,FEW,BKN,M,M,4500.00,10000.00,M,M,M,M,M,M,M,M,M,92.71,SBGR 191900Z 29011KT 9999 FEW045TCU BKN100 31/21 Q1012,M
SBAN,2025-01-19 19:00,78.80,64.40,61.36,320.00,5.00,0.00,30.06,M,6.21,M,SCT,FEW,M,M,3000.00,4000.00,M,M,M,M,M,M,M,M,M,78.80,SBAN 191900Z 32005KT 9999 SCT030 FEW040TCU 26/18 Q1018,M
SBAN,2025-01-19 20:00,77.00,64.40,65.12,330.00,5.00,0.00,30.03,M,6.21,M,SCT,FEW,M,M,3000.00,4000.00,M,M,M,M,M,M,M,M,M,77.00,SBAN 192000Z 33005KT 9999 SCT030 FEW040TCU 25/18 Q1017,M
SBGR,2025-01-19 20:00,87.80,64.40,45.88,30.00,9.00,0.00,29.91,M,6.21,M,FEW,FEW,BKN,M,3000.00,4500.00,8000.00,M,VCTS,M,M,M,M,M,M,89.33,SBGR 192000Z 03009KT 9999 VCTS FEW030 FEW045CB BKN080 31/18 Q1013,M
SBGR,2025-01-19 21:00,84.20,68.00,58.32,350.00,9.00,0.00,29.91,M,6.21,M,FEW,FEW,BKN,M,3000.00,4500.00,8000.00,M,VCTS,M,M,M,M,M,M,87.40,SBGR 192100Z 35009KT 9999 VCTS FEW030 FEW045CB BKN080 29/20 Q1013,M
SBAN,2025-01-19 21:00,77.00,64.40,65.12,290.00,3.00,0.00,30.03,M,6.21,M,FEW,M,M,M,3000.00,M,M,M,M,M,M,M,M,M,M,77.00,SBAN 192100Z 29003KT 9999 FEW030 25/18 Q1017,M
SBGR,2025-01-19 22:00,78.80,71.60,78.62,160.00,7.00,0.00,29.91,M,6.21,M,FEW,BKN,M,M,4500.00,8000.00,M,M,M,M,M,M,M,M,M,78.80,SBGR 192200Z 16007KT 9999 FEW045TCU BKN080 26/22 Q1013,M
SBAN,2025-01-19 22:00,71.60,66.20,83.09,340.00,2.00,0.00,30.03,M,6.21,M,FEW,FEW,M,M,3000.00,3500.00,M,M,M,M,M,M,M,M,M,71.60,SBAN 192200Z 34002KT 9999 FEW030 FEW035TCU 22/19 Q1017,M
SBGR,2025-01-19 23:00,77.00,68.00,73.78,60.00,9.00,0.00,29.94,M,6.21,M,FEW,BKN,M,M,4500.00,10000.00,M,M,VCTS,M,M,M,M,M,M,77.00,SBGR 192300Z 06009KT 9999 VCTS FEW045CB BKN100 25/20 Q1014,M
SBAN,2025-01-19 23:00,69.80,68.00,94.01,320.00,1.00,0.00,30.03,M,6.21,M,FEW,FEW,M,M,3000.00,3500.00,M,M,VCTS,M,M,M,M,M,M,69.80,SBAN 192300Z 32001KT 9999 VCTS FEW030 FEW035CB 21/20 Q1017,M
SBGR,2025-01-20 00:00,77.00,69.80,78.48,60.00,7.00,0.00,29.94,M,6.21,M,M,M,M,M,M,M,M,M,M,M,M,M,M,M,M,77.00,SBGR 200000Z 06007KT CAVOK 25/21 Q1014,M
SBAN,2025-01-20 00:00,69.80,68.00,94.01,330.00,2.00,0.00,30.06,M,6.21,M,FEW,M,M,M,3000.00,M,M,M,M,M,M,M,M,M,M,69.80,SBAN 200000Z 33002KT 9999 FEW030 21/20 Q1018,M
SBAN,2025-01-20 01:00,66.20,66.20,100.00,0.00,0.00,0.00,30.06,M,6.21,M,FEW,M,M,M,3000.00,M,M,M,M,M,M,M,M,M,M,66.20,SBAN 200100Z 00000KT 9999 FEW030 19/19 Q1018,M
SBGR,2025-01-20 01:00,75.20,68.00,78.34,60.00,7.00,0.00,29.97,M,6.21,M,M,M,M,M,M,M,M,M,M,M,M,M,M,M,M,75.20,SBGR 200100Z 06007KT CAVOK 24/20 Q1015,M
SBAN,2025-01-20 02:00,68.00,66.20,93.97,170.00,4.00,0.00,30.12,M,6.21,M,FEW,M,M,M,3000.00,M,M,M,M,M,M,M,M,M,M,68.00,SBAN 200200Z 17004KT 9999 FEW030 20/19 Q1020,M
SBGR,2025-01-20 02:00,77.00,69.80,78.48,340.00,3.00,0.00,30.00,M,6.21,M,M,M,M,M,M,M,M,M,M,M,M,M,M,M,M,77.00,SBGR 200200Z 34003KT CAVOK 25/21 Q1016,M
SBAN,2025-01-20 03:00,82.40,64.40,54.55,200.00,2.00,0.00,30.12,M,6.21,M,FEW,M,M,M,3000.00,M,M,M,M,M,M,M,M,M,M,83.98,SBAN 200300Z 20002KT 9999 FEW030 28/18 Q1020,M
SBGR,2025-01-20 03:00,75.20,69.80,83.32,350.00,3.00,0.00,29.97,M,6.21,M,M,M,M,M,M,M,M,M,M,M,M,M,M,M,M,75.20,SBGR 200300Z 35003KT CAVOK 24/21 Q1015,M
SBGR,2025-01-20 04:00,75.20,68.00,78.34,340.00,3.00,0.00,29.97,M,6.21,M,M,M,M,M,M,M,M,M,M,M,M,M,M,M,M,75.20,SBGR 200400Z 34003KT CAVOK 24/20 Q1015,M
SBAN,2025-01-20 04:00,66.20,66.20,100.00,340.00,3.00,0.00,30.06,M,6.21,M,SCT,BKN,M,M,1000.00,10000.00,M,M,M,M,M,M,M,M,M,66.20,SBAN 200400Z 34003KT 9999 SCT010 BKN100 19/19 Q1018,M
SBGR,2025-01-20 05:00,73.40,68.00,83.21,0.00,0.00,0.00,29.94,M,6.21,M,M,M,M,M,M,M,M,M,M,M,M,M,M,M,M,73.40,SBGR 200500Z 00000KT CAVOK 23/20 Q1014,M
SBAN,2025-01-20 05:00,64.40,64.40,100.00,320.00,2.00,0.00,30.03,M,6.21,M,SCT,BKN,M,M,800.00,10000.00,M,M,M,M,M,M,M,M,M,64.40,SBAN 200500Z 32002KT 9999 SCT008 BKN100 18/18 Q1017,M
SBGR,2025-01-20 06:00,73.40,68.00,83.21,10.00,7.00,0.00,29.94,M,6.21,M,M,M,M,M,M,M,M,M,M,M,M,M,M,M,M,73.40,SBGR 200600Z 01007KT CAVOK 23/20 Q1014,M
SBAN,2025-01-20 06:00,64.40,64.40,100.00,360.00,2.00,0.00,30.06,M,6.21,M,FEW,M,M,M,1000.00,M,M,M,M,M,M,M,M,M,M,64.40,SBAN 200600Z 36002KT 9999 FEW010 18/18 Q1018,M
SBGR,2025-01-20 07:00,71.60,68.00,88.43,130.00,2.00,0.00,29.94,M,6.21,M,M,M,M,M,M,M,M,M,M,M,M,M,M,M,M,71.60,SBGR 200700Z 13002KT CAVOK 22/20 Q1014,M
SBAN,2025-01-20 07:00,64.40,62.60,93.88,320.00,3.00,0.00,30.06,M,6.21,M,SCT,BKN,M,M,1000.00,10000.00,M,M,M,M,M,M,M,M,M,64.40,SBAN 200700Z 32003KT 9999 SCT010 BKN100 18/17 Q1018,M
SBAN,2025-01-20 08:00,64.40,64.40,100.00,330.00,3.00,0.00,30.06,M,6.21,M,FEW,M,M,M,1500.00,M,M,M,M,M,M,M,M,M,M,64.40,SBAN 200800Z 33003KT 9999 FEW015 18/18 Q1018,M
SBGR,2025-01-20 08:00,71.60,66.20,83.09,340.00,2.00,0.00,29.94,M,6.21,M,M,M,M,M,M,M,M,M,M,M,M,M,M,M,M,71.60,SBGR 200800Z 34002KT CAVOK 22/19 Q1014,M
SBAN,2025-01-20 09:00,64.40,64.40,100.00,320.00,1.00,0.00,30.09,M,6.21,M,M,M,M,M,M,M,M,M,M,M,M,M,M,M,M,64.40,SBAN 200900Z 32001KT CAVOK 18/18 Q1019,M
SBGR,2025-01-20 09:00,73.40,66.20,78.19,320.00,5.00,0.00,29.94,M,6.21,M,FEW,SCT,M,M,4000.00,7000.00,M,M,M,M,M,M,M,M,M,73.40,SBGR 200900Z 32005KT 9999 FEW040 SCT070 23/19 Q1014,M
SBAN,2025-01-20 10:00,68.00,68.00,100.00,330.00,3.00,0.00,30.12,M,6.21,M,M,M,M,M,M,M,M,M,M,M,M,M,M,M,M,68.00,SBAN 201000Z 33003KT CAVOK 20/20 Q1020,M
SBGR,2025-01-20 10:00,75.20,66.20,73.61,300.00,5.00,0.00,29.97,M,6.21,M,M,M,M,M,M,M,M,M,M,M,M,M,M,M,M,75.20,SBGR 201000Z 30005KT CAVOK 24/19 Q1015,M
SBGR,2025-01-20 11:00,75.20,68.00,78.34,330.00,5.00,0.00,30.00,M,6.21,M,M,M,M,M,M,M,M,M,M,M,M,M,M,M,M,75.20,SBGR 201100Z 33005KT CAVOK 24/20 Q1016,M
SBAN,2025-01-20 11:00,69.80,66.20,88.34,330.00,5.00,0.00,30.12,M,6.21,M,M,M,M,M,M,M,M,M,M,M,M,M,M,M,M,69.80,SBAN 201100Z 33005KT CAVOK 21/19 Q1020,M
SBGR,2025-01-20 12:00,80.60,66.20,61.58,290.00,10.00,0.00,30.00,M,6.21,M,M,M,M,M,M,M,M,M,M,M,M,M,M,M,M,82.75,SBGR 201200Z 29010KT CAVOK 27/19 Q1016,M
SBAN,2025-01-20 12:00,75.20,64.40,69.14,340.00,6.00,0.00,30.15,M,6.21,M,M,M,M,M,M,M,M,M,M,M,M,M,M,M,M,75.20,SBAN 201200Z 34006KT CAVOK 24/18 Q1021,M
SBAN,2025-01-20 13:00,75.20,64.40,69.14,340.00,6.00,0.00,30.15,M,6.21,M,FEW,M,M,M,1500.00,M,M,M,M,M,M,M,M,M,M,75.20,SBAN 201300Z 34006KT 9999 FEW015 24/18 Q1021,M
SBGR,2025-01-20 13:00,84.20,68.00,58.32,330.00,10.00,0.00,29.97,M,6.21,M,SCT,M,M,M,3000.00,M,M,M,M,M,M,M,M,M,M,87.40,SBGR 201300Z 33010KT 9999 SCT030 29/20 Q1015,M
SBAN,2025-01-20 14:00,77.00,64.40,65.12,330.00,5.00,0.00,30.15,M,6.21,M,SCT,M,M,M,2000.00,M,M,M,M,M,M,M,M,M,M,77.00,SBAN 201400Z 33005KT 9999 SCT020 25/18 Q1021,M
SBGR,2025-01-20 14:00,86.00,68.00,55.04,330.00,13.00,0.00,29.97,M,6.21,M,SCT,M,M,M,3000.00,M,M,M,M,M,M,M,M,M,M,89.41,SBGR 201400Z 33013KT 9999 SCT030 30/20 Q1015,M
SBGR,2025-01-20 15:00,86.00,68.00,55.04,340.00,10.00,0.00,29.94,M,6.21,22.00,BKN,M,M,M,4000.00,M,M,M,M,M,M,M,M,M,M,89.41,SBGR 201500Z 34010G22KT 9999 BKN040 30/20 Q1014,M
SBAN,2025-01-20 15:00,78.80,66.20,65.33,330.00,4.00,0.00,30.12,M,6.21,M,BKN,M,M,M,2000.00,M,M,M,M,M,M,M,M,M,M,78.80,SBAN 201500Z 33004KT 9999 BKN020 26/19 Q1020,M
SBGR,2025-01-20 16:00,89.60,68.00,49.10,320.00,12.00,0.00,29.91,M,6.21,M,BKN,M,M,M,4500.00,M,M,M,M,M,M,M,M,M,M,93.47,SBGR 201600Z 32012KT 9999 BKN045 32/20 Q1013 WS R28R,M
SBAN,2025-01-20 16:00,80.60,64.40,57.84,340.00,5.00,0.00,30.12,M,6.21,M,BKN,M,M,M,2000.00,M,M,M,M,M,M,M,M,M,M,82.27,SBAN 201600Z 34005KT 9999 BKN020 27/18 Q1020,M
SBAN,2025-01-20 17:00,82.40,59.00,45.07,330.00,6.00,0.00,30.06,M,6.21,M,BKN,FEW,M,M,2500.00,3000.00,M,M,M,M,M,M,M,M,M,82.46,SBAN 201700Z 33006KT 9999 BKN025 FEW030TCU 28/15 Q1018,M
SBGR,2025-01-20 17:00,91.40,66.20,43.61,310.00,14.00,0.00,29.91,M,6.21,M,M,M,M,M,M,M,M,M,M,M,M,M,M,M,M,94.29,SBGR 201700Z 31014KT CAVOK 33/19 Q1013 WS ALL RWY,M
SBAN,2025-01-20 18:00,82.40,62.60,51.21,340.00,5.00,0.00,30.03,M,6.21,M,BKN,FEW,M,M,3000.00,3500.00,M,M,M,M,M,M,M,M,M,83.41,SBAN 201800Z 34005KT 9999 BKN030 FEW035TCU 28/17 Q1017,M
SBGR,2025-01-20 18:00,89.60,64.40,43.34,320.00,15.00,0.00,29.88,M,6.21,M,M,M,M,M,M,M,M,M,M,M,M,M,M,M,M,91.23,SBGR 201800Z 32015KT CAVOK 32/18 Q1012 WS ALL RWY,M
SBAN,2025-01-20 19:00,82.40,60.80,48.05,320.00,4.00,0.00,30.00,M,6.21,M,BKN,FEW,M,M,3000.00,3500.00,M,M,M,M,M,M,M,M,M,82.90,SBAN 201900Z 32004KT 9999 BKN030 FEW035TCU 28/16 Q1016,M
SBGR,2025-01-20 19:00,89.60,64.40,43.34,330.00,13.00,0.00,29.85,M,6.21,M,M,M,M,M,M,M,M,M,M,M,M,M,M,M,M,91.23,SBGR 201900Z 33013KT CAVOK 32/18 Q1011 WS ALL RWY,M
SBAN,2025-01-20 20:00,82.40,60.80,48.05,340.00,4.00,0.00,30.00,M,6.21,M,SCT,M,M,M,3500.00,M,M,M,M,M,M,M,M,M,M,82.90,SBAN 202000Z 34004KT 9999 SCT035 28/16 Q1016,M
SBGR,2025-01-20 20:00,89.60,64.40,43.34,310.00,15.00,0.00,29.85,M,6.21,M,M,M,M,M,M,M,M,M,M,M,M,M,M,M,M,91.23,SBGR 202000Z 31015KT CAVOK 32/18 Q1011,M
SBGR,2025-01-20 21:00,87.80,64.40,45.88,320.00,13.00,0.00,29.85,M,6.21,M,M,M,M,M,M,M,M,M,M,M,M,M,M,M,M,89.33,SBGR 202100Z 32013KT CAVOK 31/18 Q1011,M
SBAN,2025-01-20 21:00,80.60,60.80,50.95,320.00,2.00,0.00,30.00,M,6.21,M,FEW,FEW,M,M,3500.00,4000.00,M,M,M,M,M,M,M,M,M,81.46,SBAN 202100Z 32002KT 9999 FEW035 FEW040TCU 27/16 Q1016,M
SBGR,2025-01-20 22:00,84.20,68.00,58.32,310.00,9.00,0.00,29.88,M,6.21,M,M,M,M,M,M,M,M,M,M,M,M,M,M,M,M,87.40,SBGR 202200Z 31009KT CAVOK 29/20 Q1012,M
SBAN,2025-01-20 22:00,77.00,64.40,65.12,120.00,2.00,0.00,30.03,M,6.21,M,FEW,FEW,M,M,3500.00,4000.00,M,M,M,M,M,M,M,M,M,77.00,SBAN 202200Z 12002KT 9999 FEW035 FEW040TCU 25/18 Q1017,M
SBGR,2025-01-20 23:00,82.40,68.00,61.81,320.00,6.00,0.00,29.91,M,6.21,M,M,M,M,M,M,M,M,M,M,M,M,M,M,M,M,85.38,SBGR 202300Z 32006KT CAVOK 28/20 Q1013,M
SBAN,2025-01-20 23:00,71.60,66.20,83.09,180.00,4.00,0.00,30.06,M,6.21,M,FEW,SCT,M,M,3500.00,10000.00,M,M,M,M,M,M,M,M,M,71.60,SBAN 202300Z 18004KT 9999 FEW035 SCT100 22/19 Q1018,M
SBGR,2025-01-21 00:00,82.40,68.00,61.81,320.00,7.00,0.00,29.91,M,6.21,M,M,M,M,M,M,M,M,M,M,M,M,M,M,M,M,85.38,SBGR 210000Z 32007KT CAVOK 28/20 Q1013,M
SBAN,2025-01-21 00:00,71.60,64.40,78.04,80.00,4.00,0.00,30.09,M,6.21,M,FEW,SCT,M,M,3500.00,10000.00,M,M,M,M,M,M,M,M,M,71.60,SBAN 210000Z 08004KT 9999 FEW035 SCT100 22/18 Q1019,M
SBAN,2025-01-21 01:00,71.60,66.20,83.09,30.00,2.00,0.00,30.12,M,6.21,M,M,M,M,M,M,M,M,M,M,M,M,M,M,M,M,71.60,SBAN 210100Z 03002KT CAVOK 22/19 Q1020,M
SBGR,2025-01-21 01:00,80.60,66.20,61.58,340.00,4.00,0.00,29.94,M,6.21,M,M,M,M,M,M,M,M,M,M,M,M,M,M,M,M,82.75,SBGR 210100Z 34004KT CAVOK 27/19 Q1014,M
SBAN,2025-01-21 02:00,68.00,66.20,93.97,0.00,0.00,0.00,30.12,M,6.21,M,FEW,SCT,M,M,3500.00,10000.00,M,M,M,M,M,M,M,M,M,68.00,SBAN 210200Z 00000KT 9999 FEW035 SCT100 20/19 Q1020,M
SBGR,2025-01-21 02:00,80.60,66.20,61.58,310.00,8.00,0.00,29.94,M,6.21,M,M,M,M,M,M,M,M,M,M,M,M,M,M,M,M,82.75,SBGR 210200Z 31008KT CAVOK 27/19 Q1014,M
SBAN,2025-01-21 03:00,68.00,68.00,100.00,0.00,0.00,0.00,30.12,M,6.21,M,FEW,SCT,M,M,3500.00,10000.00,M,M,M,M,M,M,M,M,M,68.00,SBAN 210300Z 00000KT 9999 FEW035 SCT100 20/20 Q1020,M
SBGR,2025-01-21 03:00,78.80,66.20,65.33,300.00,7.00,0.00,29.94,M,6.21,M,M,M,M,M,M,M,M,M,M,M,M,M,M,M,M,78.80,SBGR 210300Z 30007KT CAVOK 26/19 Q1014,M
SBGR,2025-01-21 04:00,78.80,68.00,69.52,330.00,7.00,0.00,29.94,M,6.21,M,M,M,M,M,M,M,M,M,M,M,M,M,M,M,M,78.80,SBGR 210400Z 33007KT CAVOK 26/20 Q1014,M
SBAN,2025-01-21 04:00,66.20,66.20,100.00,0.00,0.00,0.00,30.09,M,6.21,M,FEW,SCT,M,M,3500.00,10000.00,M,M,M,M,M,M,M,M,M,66.20,SBAN 210400Z 00000KT 9999 FEW035 SCT100 19/19 Q1019,M
SBGR,2025-01-21 05:00,77.00,66.20,69.33,350.00,9.00,0.00,29.91,M,6.21,M,M,M,M,M,M,M,M,M,M,M,M,M,M,M,M,77.00,SBGR 210500Z 35009KT CAVOK 25/19 Q1013,M
SBAN,2025-01-21 05:00,66.20,66.20,100.00,0.00,0.00,0.00,30.09,M,6.21,M,FEW,SCT,M,M,3500.00,10000.00,M,M,M,M,M,M,M,M,M,66.20,SBAN 210500Z 00000KT 9999 FEW035 SCT100 19/19 Q1019,M
SBGR,2025-01-21 06:00,77.00,66.20,69.33,360.00,8.00,0.00,29.91,M,6.21,M,M,M,M,M,M,M,M,M,M,M,M,M,M,M,M,77.00,SBGR 210600Z 36008KT CAVOK 25/19 Q1013,M
SBAN,2025-01-21 06:00,66.20,66.20,100.00,300.00,1.00,0.00,30.06,M,6.21,M,FEW,SCT,M,M,3500.00,10000.00,M,M,M,M,M,M,M,M,M,66.20,SBAN 210600Z 30001KT 9999 FEW035 SCT100 19/19 Q1018,M
SBGR,2025-01-21 07:00,77.00,66.20,69.33,10.00,6.00,0.00,29.91,M,6.21,M,M,M,M,M,M,M,M,M,M,M,M,M,M,M,M,77.00,SBGR 210700Z 01006KT CAVOK 25/19 Q1013,M
SBAN,2025-01-21 07:00,66.20,66.20,100.00,300.00,2.00,0.00,30.09,M,6.21,M,FEW,SCT,M,M,3500.00,10000.00,M,M,M,M,M,M,M,M,M,66.20,SBAN 210700Z 30002KT 9999 FEW035 SCT100 19/19 Q1019,M
SBGR,2025-01-21 08:00,77.00,66.20,69.33,20.00,5.00,0.00,29.94,M,6.21,M,M,M,M,M,M,M,M,M,M,M,M,M,M,M,M,77.00,SBGR 210800Z 02005KT CAVOK 25/19 Q1014,M
SBAN,2025-01-21 08:00,66.20,66.20,100.00,300.00,2.00,0.00,30.09,M,6.21,M,FEW,SCT,M,M,3500.00,10000.00,M,M,M,M,M,M,M,M,M,66.20,SBAN 210800Z 30002KT 9999 FEW035 SCT100 19/19 Q1019,M
SBAN,2025-01-21 09:00,66.20,66.20,100.00,320.00,3.00,0.00,30.09,M,6.21,M,FEW,SCT,M,M,3500.00,10000.00,M,M,M,M,M,M,M,M,M,66.20,SBAN 210900Z 32003KT 9999 FEW035 SCT100 19/19 Q1019,M
SBGR,2025-01-21 09:00,75.20,66.20,73.61,330.00,3.00,0.00,29.97,M,6.21,M,M,M,M,M,M,M,M,M,M,M,M,M,M,M,M,75.20,SBGR 210900Z 33003KT CAVOK 24/19 Q1015,M
SBGR,2025-01-21 10:00,77.00,68.00,73.78,280.00,6.00,0.00,29.97,M,6.21,M,M,M,M,M,M,M,M,M,M,M,M,M,M,M,M,77.00,SBGR 211000Z 28006KT CAVOK 25/20 Q1015,M
SBAN,2025-01-21 10:00,66.20,66.20,100.00,320.00,2.00,0.00,30.12,M,6.21,M,FEW,SCT,M,M,1000.00,10000.00,M,M,M,M,M,M,M,M,M,66.20,SBAN 211000Z 32002KT 9999 FEW010 SCT100 19/19 Q1020,M
SBGR,2025-01-21 11:00,80.60,68.00,65.54,300.00,9.00,0.00,30.00,M,6.21,M,M,M,M,M,M,M,M,M,M,M,M,M,M,M,M,83.29,SBGR 211100Z 30009KT CAVOK 27/20 Q1016,M
SBAN,2025-01-21 11:00,68.00,66.20,93.97,290.00,3.00,0.00,30.12,M,6.21,M,FEW,SCT,M,M,700.00,10000.00,M,M,M,M,M,M,M,M,M,68.00,SBAN 211100Z 29003KT 9999 FEW007 SCT100 20/19 Q1020,M
SBGR,2025-01-21 12:00,84.20,68.00,58.32,310.00,9.00,0.00,30.00,M,6.21,M,FEW,M,M,M,3600.00,M,M,M,M,M,M,M,M,M,M,87.40,SBGR 211200Z 31009KT 9999 FEW036 29/20 Q1016,M
SBAN,2025-01-21 12:00,71.60,66.20,83.09,270.00,3.00,0.00,30.15,M,6.21,M,FEW,SCT,M,M,1000.00,10000.00,M,M,M,M,M,M,M,M,M,71.60,SBAN 211200Z 27003KT 9999 FEW010 SCT100 22/19 Q1021,M
SBGR,2025-01-21 13:00,86.00,68.00,55.04,290.00,10.00,0.00,30.00,M,6.21,M,SCT,M,M,M,4000.00,M,M,M,M,M,M,M,M,M,M,89.41,SBGR 211300Z 29010KT 9999 SCT040 30/20 Q1016,M
SBAN,2025-01-21 13:00,73.40,66.20,78.19,330.00,3.00,0.00,30.18,M,6.21,M,BKN,SCT,M,M,1200.00,10000.00,M,M,M,M,M,M,M,M,M,73.40,SBAN 211300Z 33003KT 9999 BKN012 SCT100 23/19 Q1022,M
SBAN,2025-01-21 14:00,77.00,66.20,69.33,340.00,4.00,0.00,30.18,M,6.21,M,BKN,SCT,M,M,1800.00,10000.00,M,M,M,M,M,M,M,M,M,77.00,SBAN 211400Z 34004KT 9999 BKN018 SCT100 25/19 Q1022,M
SBGR,2025-01-21 14:00,87.80,68.00,51.98,310.00,14.00,0.00,30.00,M,6.21,M,SCT,M,M,M,4000.00,M,M,M,M,M,M,M,M,M,M,91.43,SBGR 211400Z 31014KT 9999 SCT040 31/20 Q1016,M
SBGR,2025-01-21 15:00,89.60,68.00,49.10,310.00,11.00,0.00,30.00,M,6.21,M,SCT,M,M,M,4000.00,M,M,M,M,M,M,M,M,M,M,93.47,SBGR 211500Z 31011KT 9999 SCT040 32/20 Q1016,M
SBAN,2025-01-21 15:00,77.00,66.20,69.33,M,4.00,0.00,30.15,M,6.21,M,BKN,M,M,M,2000.00,M,M,M,M,M,M,M,M,M,M,77.00,SBAN 211500Z VRB04KT 9999 BKN020 25/19 Q1021,M
SBAN,2025-01-21 16:00,80.60,66.20,61.58,20.00,5.00,0.00,30.15,M,6.21,M,BKN,FEW,M,M,2500.00,3000.00,M,M,M,M,M,M,M,M,M,82.75,SBAN 211600Z 02005KT 9999 BKN025 FEW030TCU 27/19 Q1021,M
SBGR,2025-01-21 16:00,91.40,64.40,40.96,300.00,12.00,0.00,29.97,M,6.21,23.00,M,M,M,M,M,M,M,M,M,M,M,M,M,M,M,93.19,SBGR 211600Z 30012G23KT CAVOK 33/18 Q1015,M
SBGR,2025-01-21 17:00,89.60,68.00,49.10,300.00,12.00,0.00,29.97,M,6.21,M,M,M,M,M,M,M,M,M,M,M,M,M,M,M,M,93.47,SBGR 211700Z 30012KT CAVOK 32/20 Q1015,M
SBAN,2025-01-21 17:00,80.60,66.20,61.58,330.00,4.00,0.00,30.12,M,6.21,M,SCT,FEW,M,M,3000.00,3500.00,M,M,VCSH,M,M,M,M,M,M,82.75,COR SBAN 211700Z 33004KT 9999 VCSH SCT030 FEW035TCU 27/19 Q1020,M
SBGR,2025-01-21 18:00,86.00,66.20,51.72,320.00,11.00,0.00,29.97,M,6.21,M,M,M,M,M,M,M,M,M,M,M,M,M,M,M,M,88.39,SBGR 211800Z 32011KT CAVOK 30/19 Q1015,M
SBAN,2025-01-21 18:00,78.80,66.20,65.33,330.00,6.00,0.00,30.09,M,6.21,M,SCT,FEW,M,M,3000.00,3500.00,M,M,TS VCSH,M,M,M,M,M,M,78.80,SBAN 211800Z 33006KT 9999 TS VCSH SCT030 FEW035CB 26/19 Q1019,M
SBGR,2025-01-21 19:00,86.00,68.00,55.04,310.00,8.00,0.00,29.97,M,6.21,M,M,M,M,M,M,M,M,M,M,M,M,M,M,M,M,89.41,SBGR 211900Z 31008KT CAVOK 30/20 Q1015,M
SBAN,2025-01-21 19:00,71.60,68.00,88.43,30.00,4.00,0.00,30.09,M,6.21,M,FEW,FEW,SCT,M,1000.00,3500.00,10000.00,M,VCTS VCSH,M,M,M,M,M,M,71.60,SBAN 211900Z 03004KT 9999 VCTS VCSH FEW010 FEW035CB SCT100 22/20 Q1019 RETS,M
SBAN,2025-01-21 20:00,71.60,68.00,88.43,230.00,1.00,0.00,30.09,M,6.21,M,FEW,FEW,SCT,M,3000.00,3500.00,10000.00,M,VCSH,M,M,M,M,M,M,71.60,SBAN 212000Z 23001KT 9999 VCSH FEW030 FEW035TCU SCT100 22/20 Q1019,M
SBGR,2025-01-21 20:00,87.80,66.20,48.84,310.00,9.00,0.00,29.94,M,6.21,M,M,M,M,M,M,M,M,M,M,M,M,M,M,M,M,90.31,SBGR 212000Z 31009KT CAVOK 31/19 Q1014,M
SBGR,2025-01-21 21:00,84.20,66.20,54.80,330.00,8.00,0.00,29.97,M,6.21,M,M,M,M,M,M,M,M,M,M,M,M,M,M,M,M,86.50,SBGR 212100Z 33008KT CAVOK 29/19 Q1015,M
SBAN,2025-01-21 21:00,71.60,68.00,88.43,320.00,1.00,0.00,30.03,M,6.21,M,FEW,FEW,SCT,M,3000.00,3500.00,10000.00,M,M,M,M,M,M,M,M,71.60,SBAN 212100Z 32001KT 9999 FEW030 FEW035TCU SCT100 22/20 Q1017,M
SBGR,2025-01-21 22:00,82.40,68.00,61.81,280.00,5.00,0.00,30.00,M,6.21,M,M,M,M,M,M,M,M,M,M,M,M,M,M,M,M,85.38,SBGR 212200Z 28005KT CAVOK 28/20 Q1016,M
SBAN,2025-01-21 22:00,69.80,68.00,94.01,130.00,3.00,0.00,30.09,M,6.21,M,FEW,FEW,SCT,M,3000.00,3500.00,10000.00,M,M,M,M,M,M,M,M,69.80,SBAN 212200Z 13003KT 090V150 9999 FEW030 FEW035TCU SCT100 21/20 Q1019,M
SBGR,2025-01-21 23:00,78.80,68.00,69.52,200.00,3.00,0.00,30.00,M,6.21,M,M,M,M,M,M,M,M,M,M,M,M,M,M,M,M,78.80,SBGR 212300Z 20003KT CAVOK 26/20 Q1016,M
SBAN,2025-01-21 23:00,69.80,69.80,100.00,80.00,3.00,0.00,30.09,M,6.21,M,FEW,FEW,SCT,M,3000.00,3500.00,10000.00,M,M,M,M,M,M,M,M,69.80,SBAN 212300Z 08003KT 050V110 9999 FEW030 FEW035TCU SCT100 21/21 Q1019,M
SBGR,2025-01-22 00:00,78.80,68.00,69.52,80.00,2.00,0.00,30.03,M,6.21,M,M,M,M,M,M,M,M,M,M,M,M,M,M,M,M,78.80,SBGR 220000Z 08002KT CAVOK 26/20 Q1017,M
SBAN,2025-01-22 00:00,68.00,68.00,100.00,M,1.00,0.00,30.12,M,6.21,M,FEW,SCT,M,M,3000.00,10000.00,M,M,M,M,M,M,M,M,M,68.00,SBAN 220000Z VRB01KT 9999 FEW030 SCT100 20/20 Q1020,M
SBAN,2025-01-22 01:00,68.00,66.20,93.97,70.00,3.00,0.00,30.15,M,6.21,M,FEW,SCT,M,M,3500.00,10000.00,M,M,M,M,M,M,M,M,M,68.00,SBAN 220100Z 07003KT 9999 FEW035 SCT100 20/19 Q1021,M
SBGR,2025-01-22 01:00,77.00,66.20,69.33,60.00,7.00,0.00,30.06,M,6.21,M,M,M,M,M,M,M,M,M,M,M,M,M,M,M,M,77.00,SBGR 220100Z 06007KT CAVOK 25/19 Q1018,M
SBGR,2025-01-22 02:00,75.20,66.20,73.61,80.00,4.00,0.00,30.06,M,6.21,M,M,M,M,M,M,M,M,M,M,M,M,M,M,M,M,75.20,SBGR 220200Z 08004KT CAVOK 24/19 Q1018,M
SBAN,2025-01-22 02:00,68.00,68.00,100.00,210.00,3.00,0.00,30.15,M,6.21,M,FEW,FEW,SCT,M,3500.00,3700.00,10000.00,M,VCTS,M,M,M,M,M,M,68.00,SBAN 220200Z 21003KT 9999 VCTS FEW035 FEW037CB SCT100 20/20 Q1021,M
SBGR,2025-01-22 03:00,73.40,68.00,83.21,0.00,0.00,0.00,30.06,M,6.21,M,M,M,M,M,M,M,M,M,M,M,M,M,M,M,M,73.40,SBGR 220300Z 00000KT CAVOK 23/20 Q1018,M
SBAN,2025-01-22 03:00,68.00,68.00,100.00,0.00,0.00,0.00,30.15,M,6.21,M,FEW,SCT,M,M,3500.00,10000.00,M,M,M,M,M,M,M,M,M,68.00,SBAN 220300Z 00000KT 9999 FEW035 SCT100 20/20 Q1021,M
SBGR,2025-01-22 04:00,73.40,68.00,83.21,0.00,0.00,0.00,30.03,M,6.21,M,M,M,M,M,M,M,M,M,M,M,M,M,M,M,M,73.40,SBGR 220400Z 00000KT CAVOK 23/20 Q1017,M
SBAN,2025-01-22 04:00,68.00,66.20,93.97,170.00,2.00,0.00,30.15,M,6.21,M,FEW,SCT,M,M,3500.00,10000.00,M,M,M,M,M,M,M,M,M,68.00,SBAN 220400Z 17002KT 9999 FEW035 SCT100 20/19 Q1021,M
SBGR,2025-01-22 05:00,69.80,68.00,94.01,0.00,0.00,0.00,30.03,M,6.21,M,M,M,M,M,M,M,M,M,M,M,M,M,M,M,M,69.80,SBGR 220500Z 00000KT CAVOK 21/20 Q1017,M
SBAN,2025-01-22 05:00,68.00,66.20,93.97,240.00,3.00,0.00,30.12,M,6.21,M,FEW,SCT,M,M,3500.00,10000.00,M,M,M,M,M,M,M,M,M,68.00,SBAN 220500Z 24003KT 9999 FEW035 SCT100 20/19 Q1020,M
SBAN,2025-01-22 06:00,66.20,66.20,100.00,170.00,2.00,0.00,30.12,M,6.21,M,FEW,SCT,M,M,3500.00,10000.00,M,M,M,M,M,M,M,M,M,66.20,SBAN 220600Z 17002KT 9999 FEW035 SCT100 19/19 Q1020,M
SBGR,2025-01-22 06:00,69.80,68.00,94.01,0.00,0.00,0.00,30.00,M,6.21,M,M,M,M,M,M,M,M,M,M,M,M,M,M,M,M,69.80,SBGR 220600Z 00000KT CAVOK 21/20 Q1016,M
SBAN,2025-01-22 07:00,66.20,64.40,93.92,140.00,2.00,0.00,30.15,M,6.21,M,SCT,SCT,M,M,3500.00,10000.00,M,M,M,M,M,M,M,M,M,66.20,SBAN 220700Z 14002KT 9999 SCT035 SCT100 19/18 Q1021,M
SBGR,2025-01-22 07:00,69.80,68.00,94.01,0.00,0.00,0.00,30.03,M,6.21,M,M,M,M,M,M,M,M,M,M,M,M,M,M,M,M,69.80,SBGR 220700Z 00000KT CAVOK 21/20 Q1017,M
SBGR,2025-01-22 08:00,71.60,68.00,88.43,80.00,4.00,0.00,30.06,M,6.21,M,M,M,M,M,M,M,M,M,M,M,M,M,M,M,M,71.60,SBGR 220800Z 08004KT CAVOK 22/20 Q1018,M
SBAN,2025-01-22 08:00,66.20,66.20,100.00,0.00,0.00,0.00,30.12,M,6.21,M,FEW,BKN,M,M,3500.00,7000.00,M,M,M,M,M,M,M,M,M,66.20,SBAN 220800Z 00000KT 9999 FEW035 BKN070 19/19 Q1020,M
SBAN,2025-01-22 09:00,64.40,64.40,100.00,90.00,2.00,0.00,30.15,M,6.21,M,FEW,SCT,M,M,3500.00,10000.00,M,M,M,M,M,M,M,M,M,64.40,SBAN 220900Z 09002KT 9999 FEW035 SCT100 18/18 Q1021,M
SBGR,2025-01-22 09:00,71.60,68.00,88.43,80.00,4.00,0.00,30.06,M,6.21,M,M,M,M,M,M,M,M,M,M,M,M,M,M,M,M,71.60,SBGR 220900Z 08004KT CAVOK 22/20 Q1018,M
SBGR,2025-01-22 10:00,73.40,68.00,83.21,110.00,1.00,0.00,30.06,M,6.21,M,M,M,M,M,M,M,M,M,M,M,M,M,M,M,M,73.40,SBGR 221000Z 11001KT CAVOK 23/20 Q1018,M
SBAN,2025-01-22 10:00,71.60,66.20,83.09,210.00,3.00,0.00,30.15,M,6.21,M,M,M,M,M,M,M,M,M,M,M,M,M,M,M,M,71.60,SBAN 221000Z 21003KT CAVOK 22/19 Q1021,M
SBGR,2025-01-22 11:00,77.00,69.80,78.48,80.00,3.00,0.00,30.09,M,6.21,M,M,M,M,M,M,M,M,M,M,M,M,M,M,M,M,77.00,SBGR 221100Z 08003KT CAVOK 25/21 Q1019,M
SBAN,2025-01-22 11:00,75.20,66.20,73.61,170.00,6.00,0.00,30.15,M,6.21,M,M,M,M,M,M,M,M,M,M,M,M,M,M,M,M,75.20,SBAN 221100Z 17006KT CAVOK 24/19 Q1021,M
SBGR,2025-01-22 12:00,80.60,68.00,65.54,90.00,4.00,0.00,30.09,M,6.21,M,M,M,M,M,M,M,M,M,M,M,M,M,M,M,M,83.29,SBGR 221200Z 09004KT CAVOK 27/20 Q1019,M
SBAN,2025-01-22 12:00,77.00,68.00,73.78,150.00,8.00,0.00,30.18,M,6.21,M,FEW,M,M,M,4000.00,M,M,M,M,M,M,M,M,M,M,77.00,SBAN 221200Z 15008KT 9999 FEW040 25/20 Q1022,M
SBGR,2025-01-22 13:00,86.00,68.00,55.04,60.00,3.00,0.00,30.09,M,6.21,M,SCT,M,M,M,4000.00,M,M,M,M,M,M,M,M,M,M,89.41,SBGR 221300Z 06003KT 9999 SCT040 30/20 Q1019,M
SBAN,2025-01-22 13:00,80.60,68.00,65.54,130.00,7.00,0.00,30.18,M,6.21,M,SCT,M,M,M,2000.00,M,M,M,M,M,M,M,M,M,M,83.29,SBAN 221300Z 13007KT 9999 SCT020 27/20 Q1022,M
SBAN,2025-01-22 14:00,82.40,68.00,61.81,110.00,9.00,0.00,30.18,M,6.21,M,SCT,M,M,M,3000.00,M,M,M,M,M,M,M,M,M,M,85.38,SBAN 221400Z 11009KT 9999 SCT030 28/20 Q1022,M
SBGR,2025-01-22 14:00,89.60,64.40,43.34,310.00,6.00,0.00,30.09,M,6.21,M,SCT,M,M,M,4000.00,M,M,M,M,M,M,M,M,M,M,91.23,SBGR 221400Z 31006KT 9999 SCT040 32/18 Q1019,M
SBAN,2025-01-22 15:00,84.20,66.20,54.80,90.00,8.00,0.00,30.18,M,6.21,M,SCT,M,M,M,3500.00,M,M,M,M,M,M,M,M,M,M,86.50,SBAN 221500Z 09008KT 9999 SCT035 29/19 Q1022,M
SBGR,2025-01-22 15:00,89.60,62.60,40.69,270.00,10.00,0.00,30.09,M,6.21,M,SCT,M,M,M,4500.00,M,M,M,M,M,M,M,M,M,M,90.32,SBGR 221500Z 27010KT 9999 SCT045 32/17 Q1019,M
SBAN,2025-01-22 16:00,82.40,64.40,54.55,120.00,5.00,0.00,30.15,M,6.21,M,BKN,FEW,M,M,3500.00,4000.00,M,M,M,M,M,M,M,M,M,83.98,SBAN 221600Z 12005KT 9999 BKN035 FEW040TCU 28/18 Q1021,M
SBGR,2025-01-22 16:00,89.60,62.60,40.69,300.00,5.00,0.00,30.06,M,6.21,M,SCT,FEW,M,M,4000.00,5000.00,M,M,M,M,M,M,M,M,M,90.32,SBGR 221600Z 30005KT 9999 SCT040 FEW050TCU 32/17 Q1018,M
SBGR,2025-01-22 17:00,93.20,62.60,36.35,310.00,8.00,0.00,30.03,M,6.21,M,FEW,BKN,M,M,5000.00,7000.00,M,M,M,M,M,M,M,M,M,94.20,SBGR 221700Z 31008KT 9999 FEW050TCU BKN070 34/17 Q1017,M
SBAN,2025-01-22 17:00,86.00,66.20,51.72,90.00,7.00,0.00,30.12,M,6.21,M,BKN,FEW,SCT,M,4000.00,4500.00,8000.00,M,M,M,M,M,M,M,M,88.39,SBAN 221700Z 09007KT 9999 BKN040 FEW045TCU SCT080 30/19 Q1020,M
SBAN,2025-01-22 18:00,86.00,66.20,51.72,90.00,8.00,0.00,30.09,M,6.21,M,BKN,FEW,SCT,M,4000.00,4500.00,8000.00,M,VCTS,M,M,M,M,M,M,88.39,SBAN 221800Z 09008KT 9999 VCTS BKN040 FEW045CB SCT080 30/19 Q1019,M
SBGR,2025-01-22 18:00,89.60,69.80,52.23,140.00,11.00,0.00,30.00,M,6.21,M,BKN,FEW,M,M,4000.00,5000.00,M,M,M,M,M,M,M,M,M,94.85,SBGR 221800Z 14011KT 9999 BKN040 FEW050TCU 32/21 Q1016,M
SBGR,2025-01-22 19:00,84.20,71.60,65.95,130.00,7.00,0.00,30.03,M,6.21,M,FEW,BKN,M,M,5000.00,7000.00,M,M,M,M,M,M,M,M,M,89.60,SBGR 221900Z 13007KT 9999 FEW050TCU BKN070 29/22 Q1017,M
SBAN,2025-01-22 19:00,77.00,68.00,73.78,310.00,6.00,0.00,30.09,M,6.21,M,FEW,SCT,FEW,M,1500.00,3000.00,3500.00,M,TS VCSH,M,M,M,M,M,M,77.00,SBAN 221900Z 31006KT 9999 TS VCSH FEW015 SCT030 FEW035CB 25/20 Q1019,M
SBAN,2025-01-22 20:00,75.20,66.20,73.61,280.00,5.00,0.00,30.06,M,6.21,M,SCT,FEW,SCT,M,3000.00,3500.00,8000.00,M,VCSH VCTS,M,M,M,M,M,M,75.20,SBAN 222000Z 28005KT 9999 VCSH VCTS SCT030 FEW035CB SCT080 24/19 Q1018 RETS,M
SBGR,2025-01-22 20:00,84.20,69.80,62.03,150.00,8.00,0.00,30.03,M,5.59,M,FEW,BKN,M,M,4500.00,7000.00,M,M,M,M,M,M,M,M,M,88.43,SBGR 222000Z 15008KT 9000 FEW045TCU BKN070 29/21 Q1017,M
SBGR,2025-01-22 20:45,80.60,68.00,65.54,160.00,8.00,0.00,30.06,M,6.21,M,BKN,FEW,M,M,3500.00,4000.00,M,M,TS VCSH,M,M,M,M,M,M,83.29,SBGR 222045Z 16008KT 9999 TS VCSH BKN035 FEW040CB 27/20 Q1018 WS R28R,M
SBAN,2025-01-22 21:00,73.40,64.40,73.44,250.00,6.00,0.00,30.06,M,6.21,M,SCT,FEW,SCT,M,3000.00,3500.00,8000.00,M,M,M,M,M,M,M,M,73.40,SBAN 222100Z 25006KT 9999 SCT030 FEW035TCU SCT080 23/18 Q1018,M
SBGR,2025-01-22 21:00,80.60,68.00,65.54,170.00,10.00,0.00,30.06,M,6.21,M,BKN,FEW,M,M,3500.00,4000.00,M,M,TS VCSH,M,M,M,M,M,M,83.29,SBGR 222100Z 17010KT 9999 TS VCSH BKN035 FEW040CB 27/20 Q1018 WS R28R,M
SBGR,2025-01-22 21:15,75.20,68.00,78.34,220.00,8.00,0.00,30.09,M,2.49,19.00,BKN,FEW,M,M,3000.00,4000.00,M,M,TSRA,M,M,M,M,M,M,75.20,SBGR 222115Z 22008G19KT 4000 TSRA BKN030 FEW040CB 24/20 Q1019,M
SBGR,2025-01-22 21:40,71.60,68.00,88.43,150.00,6.00,0.00,30.06,M,4.35,M,SCT,FEW,BKN,M,3000.00,4000.00,10000.00,M,-TSRA,M,M,M,M,M,M,71.60,SBGR 222140Z 15006KT 7000 -TSRA SCT030 FEW040CB BKN100 22/20 Q1018 RERA,M
SBGR,2025-01-22 22:00,71.60,68.00,88.43,170.00,5.00,0.00,30.09,M,6.21,M,FEW,FEW,SCT,M,2000.00,4000.00,8000.00,M,TS,M,M,M,M,M,M,71.60,SBGR 222200Z 17005KT 9999 TS FEW020 FEW040CB SCT080 22/20 Q1019 RERA,M
SBAN,2025-01-22 22:00,71.60,64.40,78.04,180.00,4.00,0.00,30.06,M,6.21,M,FEW,FEW,SCT,M,3000.00,3500.00,8000.00,M,M,M,M,M,M,M,M,71.60,SBAN 222200Z 18004KT 9999 FEW030 FEW035TCU SCT080 22/18 Q1018,M
SBAN,2025-01-22 23:00,71.60,62.60,73.27,220.00,4.00,0.00,30.12,M,6.21,M,FEW,FEW,SCT,M,3000.00,3500.00,8000.00,M,VCTS,M,M,M,M,M,M,71.60,SBAN 222300Z 22004KT 9999 VCTS FEW030 FEW035CB SCT080 22/17 Q1020,M
SBGR,2025-01-22 23:00,73.40,69.80,88.51,100.00,2.00,0.00,30.12,M,6.21,M,FEW,FEW,M,M,1500.00,4000.00,M,M,VCTS,M,M,M,M,M,M,73.40,SBGR 222300Z 10002KT 9999 VCTS FEW015 FEW040CB 23/21 Q1020 RETS,M
SBGR,2025-01-23 00:00,73.40,71.60,94.10,130.00,5.00,0.00,30.15,M,6.21,M,BKN,M,M,M,1300.00,M,M,M,M,M,M,M,M,M,M,73.40,SBGR 230000Z 13005KT 9999 BKN013 23/22 Q1021,M
SBAN,2025-01-23 00:00,71.60,64.40,78.04,200.00,2.00,0.00,30.12,M,6.21,M,FEW,FEW,SCT,M,3000.00,3500.00,8000.00,M,VCTS,M,M,M,M,M,M,71.60,SBAN 230000Z 20002KT 9999 VCTS FEW030 FEW035CB SCT080 22/18 Q1020,M
SBAN,2025-01-23 01:00,69.80,66.20,88.34,30.00,7.00,0.00,30.18,M,6.21,M,SCT,FEW,SCT,M,3000.00,3500.00,8000.00,M,TS VCSH,M,M,M,M,M,M,69.80,SBAN 230100Z 03007KT 9999 TS VCSH SCT030 FEW035CB SCT080 21/19 Q1022,M
SBGR,2025-01-23 01:00,73.40,69.80,88.51,180.00,5.00,0.00,30.15,M,6.21,M,BKN,M,M,M,1300.00,M,M,M,M,M,M,M,M,M,M,73.40,SBGR 230100Z 18005KT 9999 BKN013 23/21 Q1021,M
SBAN,2025-01-23 01:05,69.80,68.00,94.01,80.00,11.00,0.00,30.21,M,1.24,M,BKN,FEW,SCT,M,3000.00,3500.00,8000.00,M,TSRA,M,M,M,M,M,M,69.80,SBAN 230105Z 08011KT 2000 TSRA BKN030 FEW035CB SCT080 21/20 Q1023,M
SBAN,2025-01-23 02:00,68.00,64.40,88.26,310.00,4.00,0.00,30.18,M,6.21,M,SCT,FEW,SCT,M,3000.00,3500.00,8000.00,M,VCTS,M,M,M,M,M,M,68.00,SBAN 230200Z 31004KT 9999 VCTS SCT030 FEW035CB SCT080 20/18 Q1022 RETSRA,M
SBGR,2025-01-23 02:00,71.60,69.80,94.06,0.00,0.00,0.00,30.12,M,6.21,M,FEW,M,M,M,2000.00,M,M,M,M,M,M,M,M,M,M,71.60,SBGR 230200Z 00000KT 9999 FEW020 22/21 Q1020,M
SBGR,2025-01-23 03:00,71.60,69.80,94.06,0.00,0.00,0.00,30.12,M,6.21,M,SCT,FEW,BKN,M,2000.00,5000.00,10000.00,M,TS,M,M,M,M,M,M,71.60,SBGR 230300Z 00000KT 9999 TS SCT020 FEW050CB BKN100 22/21 Q1020,M
SBAN,2025-01-23 03:00,64.40,64.40,100.00,320.00,2.00,0.00,30.18,M,6.21,M,SCT,FEW,SCT,M,3000.00,3500.00,8000.00,M,VCTS,M,M,M,M,M,M,64.40,SBAN 230300Z 32002KT 9999 VCTS SCT030 FEW035CB SCT080 18/18 Q1022,M
SBAN,2025-01-23 04:00,66.20,64.40,93.92,330.00,3.00,0.00,30.18,M,6.21,M,FEW,SCT,M,M,3000.00,10000.00,M,M,M,M,M,M,M,M,M,66.20,SBAN 230400Z 33003KT 9999 FEW030 SCT100 19/18 Q1022,M
SBGR,2025-01-23 04:00,73.40,69.80,88.51,320.00,12.00,0.00,30.15,M,6.21,M,SCT,FEW,BKN,M,2000.00,5000.00,8000.00,M,TS,M,M,M,M,M,M,73.40,SBGR 230400Z 32012KT 9999 TS SCT020 FEW050CB BKN080 23/21 Q1021,M
SBAN,2025-01-23 05:00,66.20,64.40,93.92,340.00,2.00,0.00,30.18,M,6.21,M,FEW,SCT,M,M,3000.00,10000.00,M,M,M,M,M,M,M,M,M,66.20,SBAN 230500Z 34002KT 9999 FEW030 SCT100 19/18 Q1022,M
SBGR,2025-01-23 05:00,71.60,62.60,73.27,350.00,15.00,0.00,30.09,M,6.21,30.00,SCT,FEW,BKN,M,2000.00,5000.00,8000.00,M,TS,M,M,M,M,M,M,71.60,SBGR 230500Z 35015G30KT 9999 TS SCT020 FEW050CB BKN080 22/17 Q1019,M
SBGR,2025-01-23 06:00,71.60,60.80,68.75,320.00,13.00,0.00,30.03,M,6.21,M,SCT,OVC,M,M,2000.00,8000.00,M,M,-RA,M,M,M,M,M,M,71.60,SBGR 230600Z 32013KT 9999 -RA SCT020 OVC080 22/16 Q1017 RETS WS R28R,M
SBAN,2025-01-23 06:00,64.40,64.40,100.00,350.00,4.00,0.00,30.18,M,6.21,M,FEW,SCT,M,M,3000.00,10000.00,M,M,M,M,M,M,M,M,M,64.40,SBAN 230600Z 35004KT 9999 FEW030 SCT100 18/18 Q1022,M
SBAN,2025-01-23 07:00,64.40,64.40,100.00,360.00,2.00,0.00,30.18,M,6.21,M,FEW,SCT,M,M,3000.00,10000.00,M,M,M,M,M,M,M,M,M,64.40,SBAN 230700Z 36002KT 9999 FEW030 SCT100 18/18 Q1022,M
SBGR,2025-01-23 07:00,73.40,60.80,64.69,70.00,6.00,0.00,30.00,M,6.21,M,M,M,M,M,M,M,M,M,M,M,M,M,M,M,M,73.40,SBGR 230700Z 07006KT CAVOK 23/16 Q1016,M
SBGR,2025-01-23 08:00,71.60,62.60,73.27,120.00,5.00,0.00,30.06,M,6.21,M,M,M,M,M,M,M,M,M,M,M,M,M,M,M,M,71.60,SBGR 230800Z 12005KT CAVOK 22/17 Q1018,M
SBAN,2025-01-23 08:00,64.40,64.40,100.00,10.00,3.00,0.00,30.18,M,6.21,M,FEW,SCT,M,M,3000.00,10000.00,M,M,M,M,M,M,M,M,M,64.40,SBAN 230800Z 01003KT 9999 FEW030 SCT100 18/18 Q1022,M
SBAN,2025-01-23 09:00,64.40,62.60,93.88,0.00,0.00,0.00,30.09,M,6.21,M,FEW,SCT,M,M,3000.00,8000.00,M,M,M,M,M,M,M,M,M,64.40,SBAN 230900Z 00000KT 9999 FEW030 SCT080 18/17 Q1019,M
SBGR,2025-01-23 09:00,69.80,62.60,77.90,110.00,4.00,0.00,30.06,M,6.21,M,M,M,M,M,M,M,M,M,M,M,M,M,M,M,M,69.80,SBGR 230900Z 11004KT CAVOK 21/17 Q1018,M
SBAN,2025-01-23 10:00,66.20,62.60,88.18,170.00,3.00,0.00,30.06,M,6.21,M,FEW,BKN,M,M,3000.00,10000.00,M,M,M,M,M,M,M,M,M,66.20,SBAN 231000Z 17003KT 9999 FEW030 BKN100 19/17 Q1018,M
SBGR,2025-01-23 10:00,69.80,62.60,77.90,130.00,4.00,0.00,30.09,M,6.21,M,M,M,M,M,M,M,M,M,M,M,M,M,M,M,M,69.80,SBGR 231000Z 13004KT CAVOK 21/17 Q1019,M
SBAN,2025-01-23 11:00,69.80,62.60,77.90,190.00,3.00,0.00,30.15,M,6.21,M,FEW,BKN,M,M,3000.00,10000.00,M,M,M,M,M,M,M,M,M,69.80,SBAN 231100Z 19003KT 9999 FEW030 BKN100 21/17 Q1021,M
SBGR,2025-01-23 11:00,71.60,64.40,78.04,250.00,3.00,0.00,30.09,M,6.21,M,M,M,M,M,M,M,M,M,M,M,M,M,M,M,M,71.60,SBGR 231100Z 25003KT CAVOK 22/18 Q1019,M
SBAN,2025-01-23 12:00,75.20,60.80,60.90,330.00,3.00,0.00,30.18,M,6.21,M,FEW,SCT,M,M,3000.00,10000.00,M,M,M,M,M,M,M,M,M,75.20,SBAN 231200Z 33003KT 9999 FEW030 SCT100 24/16 Q1022,M
SBGR,2025-01-23 12:00,77.00,64.40,65.12,170.00,7.00,0.00,30.12,M,6.21,M,M,M,M,M,M,M,M,M,M,M,M,M,M,M,M,77.00,SBGR 231200Z 17007KT CAVOK 25/18 Q1020,M
SBGR,2025-01-23 13:00,78.80,66.20,65.33,140.00,5.00,0.00,30.12,M,6.21,M,SCT,M,M,M,2600.00,M,M,M,M,M,M,M,M,M,M,78.80,SBGR 231300Z 14005KT 9999 SCT026 26/19 Q1020,M
SBAN,2025-01-23 13:00,78.80,62.60,57.60,260.00,5.00,0.00,30.18,M,6.21,M,FEW,M,M,M,3000.00,M,M,M,M,M,M,M,M,M,M,78.80,SBAN 231300Z 26005KT 9999 FEW030 26/17 Q1022,M
SBAN,2025-01-23 14:00,80.60,62.60,54.30,310.00,5.00,0.00,30.18,M,6.21,M,FEW,M,M,M,3000.00,M,M,M,M,M,M,M,M,M,M,81.84,SBAN 231400Z 31005KT 9999 FEW030 27/17 Q1022,M
SBGR,2025-01-23 14:00,80.60,68.00,65.54,100.00,6.00,0.00,30.12,M,6.21,M,SCT,M,M,M,3000.00,M,M,M,M,M,M,M,M,M,M,83.29,SBGR 231400Z 10006KT 9999 SCT030 27/20 Q1020,M
SBGR,2025-01-23 15:00,84.20,66.20,54.80,10.00,5.00,0.00,30.12,M,6.21,M,FEW,SCT,M,M,3000.00,4000.00,M,M,M,M,M,M,M,M,M,86.50,SBGR 231500Z 01005KT 9999 FEW030 SCT040 29/19 Q1020,M
SBAN,2025-01-23 15:00,80.60,64.40,57.84,270.00,5.00,0.00,30.18,M,6.21,M,FEW,M,M,M,2500.00,M,M,M,M,M,M,M,M,M,M,82.27,SBAN 231500Z 27005KT 9999 FEW025 27/18 Q1022,M
SBAN,2025-01-23 16:00,82.40,64.40,54.55,280.00,3.00,0.00,30.15,M,6.21,M,FEW,FEW,M,M,3000.00,3500.00,M,M,VCSH,M,M,M,M,M,M,83.98,SBAN 231600Z 28003KT 9999 VCSH FEW030 FEW035TCU 28/18 Q1021,M
SBGR,2025-01-23 16:00,84.20,66.20,54.80,30.00,7.00,0.00,30.09,M,6.21,M,FEW,SCT,M,M,3600.00,4000.00,M,M,M,M,M,M,M,M,M,86.50,SBGR 231600Z 03007KT 9999 FEW036 SCT040 29/19 Q1019,M
SBAN,2025-01-23 17:00,78.80,68.00,69.52,160.00,5.00,0.00,30.15,M,6.21,M,FEW,BKN,FEW,M,1300.00,3000.00,3500.00,M,-RA,M,M,M,M,M,M,78.80,SBAN 231700Z 16005KT 9999 -RA FEW013 BKN030 FEW035TCU 26/20 Q1021,M
SBGR,2025-01-23 17:00,84.20,64.40,51.47,70.00,3.00,0.00,30.06,M,6.21,M,SCT,M,M,M,4000.00,M,M,M,M,M,M,M,M,M,M,85.71,SBGR 231700Z 07003KT 9999 SCT040 29/18 Q1018,M
SBGR,2025-01-23 18:00,82.40,68.00,61.81,140.00,7.00,0.00,30.06,M,6.21,17.00,BKN,M,M,M,4000.00,M,M,M,M,M,M,M,M,M,M,85.38,SBGR 231800Z 14007G17KT 9999 BKN040 28/20 Q1018,M
SBAN,2025-01-23 18:00,78.80,66.20,65.33,190.00,5.00,0.00,30.12,M,6.21,M,BKN,FEW,M,M,3500.00,4000.00,M,M,VCSH,M,M,M,M,M,M,78.80,SBAN 231800Z 19005KT 9999 VCSH BKN035 FEW040TCU 26/19 Q1020 RETS,M
SBAN,2025-01-23 19:00,82.40,64.40,54.55,160.00,4.00,0.00,30.09,M,6.21,M,SCT,FEW,M,M,3500.00,4000.00,M,M,VCSH,M,M,M,M,M,M,83.98,SBAN 231900Z 16004KT 9999 VCSH SCT035 FEW040TCU 28/18 Q1019,M
SBGR,2025-01-23 19:00,77.00,69.80,78.48,140.00,8.00,0.00,30.03,M,6.21,M,BKN,BKN,M,M,4500.00,10000.00,M,M,M,M,M,M,M,M,M,77.00,SBGR 231900Z 14008KT 9999 BKN045 BKN100 25/21 Q1017,M
SBAN,2025-01-23 20:00,80.60,64.40,57.84,160.00,4.00,0.00,30.06,M,6.21,M,SCT,FEW,M,M,3500.00,4000.00,M,M,M,M,M,M,M,M,M,82.27,SBAN 232000Z 16004KT 9999 SCT035 FEW040TCU 27/18 Q1018,M
SBGR,2025-01-23 20:00,78.80,71.60,78.62,120.00,5.00,0.00,30.03,M,6.21,M,SCT,M,M,M,4500.00,M,M,M,M,M,M,M,M,M,M,78.80,SBGR 232000Z 12005KT 9999 SCT045 26/22 Q1017,M
SBAN,2025-01-23 21:00,82.40,64.40,54.55,170.00,5.00,0.00,30.06,M,6.21,M,FEW,FEW,M,M,3500.00,4000.00,M,M,M,M,M,M,M,M,M,83.98,SBAN 232100Z 17005KT 9999 FEW035 FEW040TCU 28/18 Q1018,M
SBGR,2025-01-23 21:00,80.60,69.80,69.71,120.00,8.00,0.00,30.03,M,6.21,M,SCT,M,M,M,3000.00,M,M,M,M,M,M,M,M,M,M,83.90,SBGR 232100Z 12008KT 9999 SCT030 27/21 Q1017,M
SBGR,2025-01-23 22:00,77.00,68.00,73.78,120.00,6.00,0.00,30.06,M,6.21,M,FEW,M,M,M,4500.00,M,M,M,M,M,M,M,M,M,M,77.00,SBGR 232200Z 12006KT 9999 FEW045 25/20 Q1018,M
SBAN,2025-01-23 22:00,78.80,66.20,65.33,190.00,4.00,0.00,30.06,M,6.21,M,FEW,M,M,M,3000.00,M,M,M,M,M,M,M,M,M,M,78.80,SBAN 232200Z 19004KT 9999 FEW030 26/19 Q1018,M
SBAN,2025-01-23 23:00,75.20,66.20,73.61,180.00,5.00,0.00,30.06,M,6.21,M,FEW,FEW,M,M,3000.00,3500.00,M,M,VCTS,M,M,M,M,M,M,75.20,SBAN 232300Z 18005KT 9999 VCTS FEW030 FEW035CB 24/19 Q1018,M
SBGR,2025-01-23 23:00,75.20,68.00,78.34,120.00,5.00,0.00,30.09,M,6.21,M,FEW,FEW,M,M,4500.00,5000.00,M,M,VCTS,M,M,M,M,M,M,75.20,SBGR 232300Z 12005KT 9999 VCTS FEW045 FEW050CB 24/20 Q1019,M
SBAN,2025-01-24 00:00,73.40,69.80,88.51,200.00,7.00,0.00,30.09,M,6.21,M,FEW,FEW,M,M,3000.00,3500.00,M,M,VCTS,M,M,M,M,M,M,73.40,SBAN 240000Z 20007KT 9999 VCTS FEW030 FEW035CB 23/21 Q1019,M
SBGR,2025-01-24 00:00,73.40,68.00,83.21,140.00,2.00,0.00,30.09,M,6.21,M,FEW,M,M,M,2300.00,M,M,M,M,M,M,M,M,M,M,73.40,SBGR 240000Z 14002KT 9999 FEW023 23/20 Q1019,M
SBAN,2025-01-24 01:00,73.40,69.80,88.51,220.00,7.00,0.00,30.12,M,6.21,M,FEW,M,M,M,3000.00,M,M,M,M,M,M,M,M,M,M,73.40,SBAN 240100Z 22007KT 9999 FEW030 23/21 Q1020,M
SBGR,2025-01-24 01:00,73.40,69.80,88.51,140.00,3.00,0.00,30.09,M,6.21,M,FEW,M,M,M,2000.00,M,M,M,M,M,M,M,M,M,M,73.40,SBGR 240100Z 14003KT 9999 FEW020 23/21 Q1019,M
SBAN,2025-01-24 02:00,71.60,69.80,94.06,190.00,6.00,0.00,30.15,M,6.21,M,FEW,M,M,M,3000.00,M,M,M,M,M,M,M,M,M,M,71.60,SBAN 240200Z 19006KT 9999 FEW030 22/21 Q1021,M
SBGR,2025-01-24 02:00,73.40,69.80,88.51,120.00,3.00,0.00,30.12,M,6.21,M,SCT,M,M,M,1700.00,M,M,M,M,M,M,M,M,M,M,73.40,SBGR 240200Z 12003KT 9999 SCT017 23/21 Q1020,M
SBAN,2025-01-24 03:00,71.60,69.80,94.06,190.00,8.00,0.00,30.12,M,6.21,M,FEW,M,M,M,3000.00,M,M,M,M,M,M,M,M,M,M,71.60,SBAN 240300Z 19008KT 9999 FEW030 22/21 Q1020,M
SBGR,2025-01-24 03:00,71.60,68.00,88.43,120.00,2.00,0.00,30.12,M,6.21,M,SCT,M,M,M,1700.00,M,M,M,M,M,M,M,M,M,M,71.60,SBGR 240300Z 12002KT 9999 SCT017 22/20 Q1020,M
SBGR,2025-01-24 04:00,71.60,68.00,88.43,80.00,5.00,0.00,30.09,M,6.21,M,FEW,M,M,M,1700.00,M,M,M,M,M,M,M,M,M,M,71.60,SBGR 240400Z 08005KT 9999 FEW017 22/20 Q1019,M
SBAN,2025-01-24 04:00,68.00,66.20,93.97,150.00,4.00,0.00,30.15,M,6.21,M,FEW,M,M,M,3000.00,M,M,M,M,M,M,M,M,M,M,68.00,SBAN 240400Z 15004KT 9999 FEW030 20/19 Q1021,M
SBAN,2025-01-24 05:00,66.20,64.40,93.92,170.00,5.00,0.00,30.18,M,6.21,M,FEW,M,M,M,3000.00,M,M,M,M,M,M,M,M,M,M,66.20,SBAN 240500Z 17005KT 9999 FEW030 19/18 Q1022,M
SBGR,2025-01-24 05:00,68.00,68.00,100.00,140.00,2.00,0.00,30.09,M,6.21,M,M,M,M,M,M,M,M,M,M,M,M,M,M,M,M,68.00,SBGR 240500Z 14002KT CAVOK 20/20 Q1019,M
SBAN,2025-01-24 06:00,69.80,68.00,94.01,160.00,8.00,0.00,30.09,M,6.21,M,FEW,M,M,M,3000.00,M,M,M,M,M,M,M,M,M,M,69.80,SBAN 240600Z 16008KT 9999 FEW030 21/20 Q1019,M
SBGR,2025-01-24 06:00,69.80,68.00,94.01,200.00,1.00,0.00,30.09,M,6.21,M,BKN,M,M,M,3000.00,M,M,M,M,M,M,M,M,M,M,69.80,SBGR 240600Z 20001KT 9999 BKN030 21/20 Q1019,M
SBGR,2025-01-24 07:00,71.60,68.00,88.43,220.00,2.00,0.00,30.06,M,6.21,M,BKN,BKN,M,M,1700.00,3000.00,M,M,M,M,M,M,M,M,M,71.60,SBGR 240700Z 22002KT 9999 BKN017 BKN030 22/20 Q1018,M
SBAN,2025-01-24 07:00,66.20,64.40,93.92,170.00,4.00,0.00,30.15,M,6.21,M,FEW,M,M,M,3000.00,M,M,M,M,M,M,M,M,M,M,66.20,SBAN 240700Z 17004KT 9999 FEW030 19/18 Q1021,M
SBGR,2025-01-24 08:00,69.80,68.00,94.01,190.00,2.00,0.00,30.06,M,4.97,M,SCT,M,M,M,3000.00,M,M,M,M,M,M,M,M,M,M,69.80,SBGR 240800Z 19002KT 8000 SCT030 21/20 Q1018,M
SBAN,2025-01-24 08:00,69.80,68.00,94.01,150.00,8.00,0.00,30.09,M,6.21,M,FEW,M,M,M,3000.00,M,M,M,M,M,M,M,M,M,M,69.80,SBAN 240800Z 15008KT 9999 FEW030 21/20 Q1019,M
SBAN,2025-01-24 09:00,68.00,68.00,100.00,170.00,6.00,0.00,30.09,M,6.21,M,FEW,M,M,M,4000.00,M,M,M,M,M,M,M,M,M,M,68.00,SBAN 240900Z 17006KT 9999 FEW040 20/20 Q1019,M
SBGR,2025-01-24 09:00,69.80,66.20,88.34,0.00,0.00,0.00,30.06,M,4.97,M,FEW,M,M,M,1500.00,M,M,M,M,M,M,M,M,M,M,69.80,SBGR 240900Z 00000KT 8000 FEW015 21/19 Q1018,M
SBAN,2025-01-24 10:00,69.80,68.00,94.01,130.00,7.00,0.00,30.12,M,6.21,M,FEW,M,M,M,4000.00,M,M,M,M,M,M,M,M,M,M,69.80,SBAN 241000Z 13007KT 9999 FEW040 21/20 Q1020,M
SBGR,2025-01-24 10:00,71.60,68.00,88.43,40.00,4.00,0.00,30.09,M,4.97,M,BKN,M,M,M,1300.00,M,M,M,M,M,M,M,M,M,M,71.60,SBGR 241000Z 04004KT 8000 BKN013 22/20 Q1019,M
SBGR,2025-01-24 11:00,73.40,68.00,83.21,70.00,3.00,0.00,30.09,M,5.59,M,BKN,M,M,M,1300.00,M,M,M,M,M,M,M,M,M,M,73.40,SBGR 241100Z 07003KT 9000 4000E BKN013 23/20 Q1019,M
SBAN,2025-01-24 11:00,69.80,68.00,94.01,130.00,8.00,0.00,30.15,M,6.21,M,FEW,SCT,M,M,900.00,10000.00,M,M,M,M,M,M,M,M,M,69.80,SBAN 241100Z 13008KT 100V160 9999 FEW009 SCT100 21/20 Q1021,M
SBGR,2025-01-24 12:00,75.20,68.00,78.34,40.00,2.00,0.00,30.09,M,3.73,M,SCT,BKN,M,M,1300.00,2100.00,M,M,M,M,M,M,M,M,M,75.20,SBGR 241200Z 04002KT 6000 SCT013 BKN021 24/20 Q1019,M
SBAN,2025-01-24 12:00,75.20,66.20,73.61,120.00,12.00,0.00,30.15,M,6.21,M,M,M,M,M,M,M,M,M,M,M,M,M,M,M,M,75.20,SBAN 241200Z 12012KT 090V150 CAVOK 24/19 Q1021,M
SBAN,2025-01-24 13:00,77.00,66.20,69.33,100.00,10.00,0.00,30.15,M,6.21,M,M,M,M,M,M,M,M,M,M,M,M,M,M,M,M,77.00,SBAN 241300Z 10010KT 080V140 CAVOK 25/19 Q1021,M
SBGR,2025-01-24 13:00,78.80,68.00,69.52,120.00,4.00,0.00,30.09,M,3.73,M,FEW,BKN,M,M,2300.00,2600.00,M,M,M,M,M,M,M,M,M,78.80,SBGR 241300Z 12004KT 6000 FEW023 BKN026 26/20 Q1019,M
SBGR,2025-01-24 14:00,82.40,68.00,61.81,80.00,7.00,0.00,30.09,M,4.35,M,BKN,M,M,M,3000.00,M,M,M,M,M,M,M,M,M,M,85.38,SBGR 241400Z 08007KT 7000 BKN030 28/20 Q1019,M
SBAN,2025-01-24 14:00,80.60,68.00,65.54,100.00,10.00,0.00,30.15,M,6.21,M,FEW,M,M,M,2000.00,M,M,M,M,M,M,M,M,M,M,83.29,SBAN 241400Z 10010KT 060V130 9999 FEW020 27/20 Q1021,M
SBGR,2025-01-24 15:00,84.20,68.00,58.32,150.00,5.00,0.00,30.06,M,6.21,M,BKN,M,M,M,3600.00,M,M,M,M,M,M,M,M,M,M,87.40,SBGR 241500Z 15005KT 9999 BKN036 29/20 Q1018,M
SBAN,2025-01-24 15:00,80.60,68.00,65.54,80.00,11.00,0.00,30.12,M,6.21,M,SCT,M,M,M,2500.00,M,M,M,M,M,M,M,M,M,M,83.29,SBAN 241500Z 08011KT 050V110 9999 SCT025 27/20 Q1020,M
SBGR,2025-01-24 16:00,84.20,66.20,54.80,230.00,3.00,0.00,30.03,M,6.21,M,BKN,FEW,M,M,4000.00,5000.00,M,M,M,M,M,M,M,M,M,86.50,SBGR 241600Z 23003KT 9999 BKN040 FEW050TCU 29/19 Q1017,M
SBAN,2025-01-24 16:00,82.40,66.20,58.08,50.00,7.00,0.00,30.09,M,6.21,M,SCT,SCT,M,M,3000.00,4000.00,M,M,M,M,M,M,M,M,M,84.63,SBAN 241600Z 05007KT 350V120 9999 SCT030 SCT040 28/19 Q1019,M
SBAN,2025-01-24 17:00,84.20,66.20,54.80,60.00,9.00,0.00,30.09,M,6.21,M,SCT,BKN,M,M,3000.00,4000.00,M,M,M,M,M,M,M,M,M,86.50,SBAN 241700Z 06009KT 010V090 9999 SCT030 BKN040 29/19 Q1019,M
SBGR,2025-01-24 17:00,87.80,66.20,48.84,130.00,3.00,0.00,30.00,M,6.21,M,BKN,M,M,M,4000.00,M,M,M,M,M,M,M,M,M,M,90.31,SBGR 241700Z 13003KT 9999 BKN040 31/19 Q1016,M
SBAN,2025-01-24 18:00,84.20,66.20,54.80,70.00,6.00,0.00,30.06,M,6.21,M,SCT,BKN,M,M,3000.00,4000.00,M,M,M,M,M,M,M,M,M,86.50,SBAN 241800Z 07006KT 350V110 9999 SCT030 BKN040 29/19 Q1018,M
SBGR,2025-01-24 18:00,86.00,66.20,51.72,110.00,5.00,0.00,29.97,M,6.21,M,BKN,FEW,M,M,4000.00,5000.00,M,M,M,M,M,M,M,M,M,88.39,SBGR 241800Z 11005KT 9999 BKN040 FEW050TCU 30/19 Q1015,M
SBGR,2025-01-24 18:06,82.40,66.20,58.08,20.00,15.00,0.00,30.00,M,2.49,25.00,BKN,FEW,M,M,4000.00,5000.00,M,M,TSRA,M,M,M,M,M,M,84.63,SBGR 241806Z 02015G25KT 4000 TSRA BKN040 FEW050CB 28/19 Q1016,M
SBGR,2025-01-24 18:26,69.80,68.00,94.01,330.00,22.00,0.00,29.97,M,1.86,38.00,BKN,SCT,M,M,2000.00,4500.00,M,M,+TSRA,M,M,M,M,M,M,69.80,SBGR 241826Z 33022G38KT 3000 +TSRA BKN020 SCT045CB 21/20 Q1015 RERA,M
SBGR,2025-01-24 18:45,66.20,66.20,100.00,220.00,9.00,0.00,30.03,M,1.55,19.00,BKN,SCT,M,M,2000.00,4500.00,M,M,TSRA,M,M,M,M,M,M,66.20,SBGR 241845Z 22009G19KT 2500 TSRA BKN020 SCT045CB 19/19 Q1017 RERA,M
SBAN,2025-01-24 19:00,84.20,66.20,54.80,80.00,6.00,0.00,30.03,M,6.21,M,SCT,BKN,M,M,3000.00,4000.00,M,M,M,M,M,M,M,M,M,86.50,SBAN 241900Z 08006KT 040V110 9999 SCT030 BKN040 29/19 Q1017,M
SBGR,2025-01-24 19:00,68.00,68.00,100.00,150.00,8.00,0.00,30.03,M,2.49,M,BKN,SCT,M,M,2000.00,4500.00,M,M,-TSRA,M,M,M,M,M,M,68.00,SBGR 241900Z 15008KT 4000 -TSRA BKN020 SCT045CB 20/20 Q1017 RERA,M
SBAN,2025-01-24 20:00,82.40,68.00,61.81,110.00,6.00,0.00,30.03,M,6.21,M,BKN,M,M,M,4000.00,M,M,M,M,M,M,M,M,M,M,85.38,SBAN 242000Z 11006KT 070V140 9999 BKN040 28/20 Q1017,M
SBGR,2025-01-24 20:00,68.00,68.00,100.00,240.00,6.00,0.00,30.03,M,4.35,M,SCT,OVC,M,M,2000.00,8000.00,M,M,-RA,M,M,M,M,M,M,68.00,SBGR 242000Z 24006KT 7000 -RA SCT020 OVC080 20/20 Q1017 RETS,M
SBGR,2025-01-24 21:00,69.80,68.00,94.01,70.00,2.00,0.00,30.03,M,4.35,M,SCT,OVC,M,M,2000.00,8000.00,M,M,-RA,M,M,M,M,M,M,69.80,SBGR 242100Z 07002KT 7000 -RA SCT020 OVC080 21/20 Q1017,M
SBAN,2025-01-24 21:00,82.40,64.40,54.55,120.00,8.00,0.00,30.00,M,6.21,M,FEW,FEW,M,M,4000.00,4200.00,M,M,M,M,M,M,M,M,M,83.98,SBAN 242100Z 12008KT 090V150 9999 FEW040 FEW042TCU 28/18 Q1016,M
SBGR,2025-01-24 22:00,69.80,68.00,94.01,0.00,0.00,0.00,30.03,M,4.35,M,FEW,BKN,M,M,2000.00,8000.00,M,M,-RA,M,M,M,M,M,M,69.80,SBGR 242200Z 00000KT 7000 -RA FEW020 BKN080 21/20 Q1017,M
SBAN,2025-01-24 22:00,77.00,64.40,65.12,120.00,6.00,0.00,30.03,M,6.21,M,FEW,FEW,M,M,4000.00,4500.00,M,M,M,M,M,M,M,M,M,77.00,SBAN 242200Z 12006KT 9999 FEW040 FEW045TCU 25/18 Q1017,M
SBAN,2025-01-24 23:00,75.20,64.40,69.14,120.00,6.00,0.00,30.03,M,6.21,M,FEW,FEW,M,M,4000.00,4500.00,M,M,VCTS,M,M,M,M,M,M,75.20,SBAN 242300Z 12006KT 9999 VCTS FEW040 FEW045CB 24/18 Q1017,M
SBGR,2025-01-24 23:00,69.80,68.00,94.01,110.00,3.00,0.00,30.03,M,6.21,M,M,M,M,M,M,M,M,M,M,M,M,M,M,M,M,69.80,SBGR 242300Z 11003KT CAVOK 21/20 Q1017,M
SBAN,2025-01-25 00:00,73.40,64.40,73.44,110.00,5.00,0.00,30.09,M,6.21,M,FEW,FEW,M,M,4000.00,4500.00,M,M,VCTS,M,M,M,M,M,M,73.40,SBAN 250000Z 11005KT 9999 VCTS FEW040 FEW045CB 23/18 Q1019,M
SBGR,2025-01-25 00:00,69.80,68.00,94.01,120.00,2.00,0.00,30.06,M,6.21,M,BKN,M,M,M,900.00,M,M,M,M,M,M,M,M,M,M,69.80,SBGR 250000Z 12002KT 9999 BKN009 21/20 Q1018,M
SBGR,2025-01-25 01:00,69.80,68.00,94.01,60.00,5.00,0.00,30.06,M,6.21,M,BKN,M,M,M,900.00,M,M,M,M,M,M,M,M,M,M,69.80,SBGR 250100Z 06005KT 9999 BKN009 21/20 Q1018,M
SBAN,2025-01-25 01:00,73.40,64.40,73.44,150.00,4.00,0.00,30.09,M,6.21,M,FEW,FEW,M,M,4000.00,4500.00,M,M,VCTS,M,M,M,M,M,M,73.40,SBAN 250100Z 15004KT 9999 VCTS FEW040 FEW045CB 23/18 Q1019,M
SBGR,2025-01-25 01:10,69.80,68.00,94.01,60.00,5.00,0.00,30.09,M,6.21,M,SCT,M,M,M,900.00,M,M,M,M,M,M,M,M,M,M,69.80,SBGR 250110Z 06005KT 9999 SCT009 21/20 Q1019,M
SBGR,2025-01-25 02:00,69.80,68.00,94.01,90.00,3.00,0.00,30.09,M,6.21,M,FEW,M,M,M,1000.00,M,M,M,M,M,M,M,M,M,M,69.80,SBGR 250200Z 09003KT 9999 FEW010 21/20 Q1019,M
SBAN,2025-01-25 02:00,71.60,64.40,78.04,120.00,4.00,0.00,30.12,M,6.21,M,FEW,M,M,M,3000.00,M,M,M,M,M,M,M,M,M,M,71.60,SBAN 250200Z 12004KT 9999 FEW030 22/18 Q1020,M
SBGR,2025-01-25 02:30,69.80,68.00,94.01,80.00,2.00,0.00,30.06,M,6.21,M,BKN,M,M,M,1300.00,M,M,M,M,M,M,M,M,M,M,69.80,SBGR 250230Z 08002KT 9999 BKN013 21/20 Q1018,M
SBGR,2025-01-25 03:00,69.80,68.00,94.01,170.00,2.00,0.00,30.06,M,6.21,M,BKN,M,M,M,1100.00,M,M,M,M,M,M,M,M,M,M,69.80,SBGR 250300Z 17002KT 9999 BKN011 21/20 Q1018,M
SBAN,2025-01-25 03:00,69.80,66.20,88.34,140.00,4.00,0.00,30.12,M,6.21,M,FEW,M,M,M,2000.00,M,M,M,M,M,M,M,M,M,M,69.80,SBAN 250300Z 14004KT 9999 FEW020 21/19 Q1020,M
SBGR,2025-01-25 04:00,69.80,68.00,94.01,0.00,0.00,0.00,30.06,M,6.21,M,BKN,M,M,M,900.00,M,M,M,M,M,M,M,M,M,M,69.80,SBGR 250400Z 00000KT 9999 BKN009 21/20 Q1018,M
SBAN,2025-01-25 04:00,69.80,64.40,82.98,130.00,3.00,0.00,30.12,M,6.21,M,FEW,M,M,M,2000.00,M,M,M,M,M,M,M,M,M,M,69.80,SBAN 250400Z 13003KT 9999 FEW020 21/18 Q1020,M
SBGR,2025-01-25 05:00,69.80,68.00,94.01,130.00,2.00,0.00,30.03,M,6.21,M,BKN,M,M,M,900.00,M,M,M,M,M,M,M,M,M,M,69.80,SBGR 250500Z 13002KT 9999 BKN009 21/20 Q1017,M
SBAN,2025-01-25 05:00,69.80,64.40,82.98,120.00,2.00,0.00,30.12,M,6.21,M,FEW,M,M,M,2000.00,M,M,M,M,M,M,M,M,M,M,69.80,SBAN 250500Z 12002KT 9999 FEW020 21/18 Q1020,M
SBAN,2025-01-25 06:00,68.00,62.60,82.86,110.00,4.00,0.00,30.06,M,6.21,M,FEW,M,M,M,2000.00,M,M,M,M,M,M,M,M,M,M,68.00,SBAN 250600Z 11004KT 9999 FEW020 20/17 Q1018,M
SBGR,2025-01-25 06:00,69.80,68.00,94.01,60.00,7.00,0.00,30.00,M,6.21,M,BKN,M,M,M,800.00,M,M,M,M,M,M,M,M,M,M,69.80,SBGR 250600Z 06007KT 9999 BKN008 21/20 Q1016,M
SBAN,2025-01-25 07:00,68.00,62.60,82.86,120.00,4.00,0.00,30.09,M,6.21,M,FEW,M,M,M,2000.00,M,M,M,M,M,M,M,M,M,M,68.00,SBAN 250700Z 12004KT 9999 FEW020 20/17 Q1019,M
SBGR,2025-01-25 07:00,69.80,68.00,94.01,90.00,5.00,0.00,30.00,M,4.97,M,BKN,M,M,M,800.00,M,M,M,M,M,M,M,M,M,M,69.80,SBGR 250700Z 09005KT 8000 BKN008 21/20 Q1016,M
SBAN,2025-01-25 08:00,68.00,62.60,82.86,110.00,4.00,0.00,30.09,M,6.21,M,FEW,M,M,M,2000.00,M,M,M,M,M,M,M,M,M,M,68.00,SBAN 250800Z 11004KT 9999 FEW020 20/17 Q1019,M
SBGR,2025-01-25 08:00,69.80,68.00,94.01,70.00,6.00,0.00,30.00,M,4.97,M,BKN,M,M,M,700.00,M,M,M,M,M,M,M,M,M,M,69.80,SBGR 250800Z 07006KT 8000 BKN007 21/20 Q1016,M
SBGR,2025-01-25 09:00,68.00,68.00,100.00,70.00,3.00,0.00,30.03,M,3.73,M,BKN,M,M,M,600.00,M,M,M,M,M,M,M,M,M,M,68.00,SBGR 250900Z 07003KT 6000 BKN006 20/20 Q1017,M
SBAN,2025-01-25 09:00,68.00,62.60,82.86,80.00,5.00,0.00,30.09,M,6.21,M,FEW,M,M,M,1500.00,M,M,M,M,M,M,M,M,M,M,68.00,SBAN 250900Z 08005KT 9999 FEW015 20/17 Q1019,M
SBGR,2025-01-25 10:00,69.80,68.00,94.01,80.00,3.00,0.00,30.06,M,4.97,M,SCT,M,M,M,600.00,M,M,M,M,M,M,M,M,M,M,69.80,SBGR 251000Z 08003KT 8000 3500E SCT006 21/20 Q1018,M
SBAN,2025-01-25 10:00,69.80,62.60,77.90,90.00,5.00,0.00,30.12,M,6.21,M,FEW,M,M,M,1500.00,M,M,M,M,M,M,M,M,M,M,69.80,SBAN 251000Z 09005KT 9999 FEW015 21/17 Q1020,M
SBGR,2025-01-25 11:00,73.40,69.80,88.51,70.00,5.00,0.00,30.06,M,6.21,M,M,M,M,M,M,M,M,M,M,M,M,M,M,M,M,73.40,SBGR 251100Z 07005KT CAVOK 23/21 Q1018,M
SBAN,2025-01-25 11:00,73.40,64.40,73.44,70.00,7.00,0.00,30.15,M,6.21,M,M,M,M,M,M,M,M,M,M,M,M,M,M,M,M,73.40,SBAN 251100Z 07007KT CAVOK 23/18 Q1021,M
SBAN,2025-01-25 12:00,78.80,64.40,61.36,60.00,8.00,0.00,30.18,M,6.21,M,M,M,M,M,M,M,M,M,M,M,M,M,M,M,M,78.80,SBAN 251200Z 06008KT CAVOK 26/18 Q1022,M
SBGR,2025-01-25 12:00,78.80,69.80,73.95,70.00,3.00,0.00,30.06,M,6.21,M,M,M,M,M,M,M,M,M,M,M,M,M,M,M,M,78.80,SBGR 251200Z 07003KT CAVOK 26/21 Q1018,M
SBGR,2025-01-25 13:00,82.40,69.80,65.74,320.00,9.00,0.00,30.06,M,6.21,21.00,M,M,M,M,M,M,M,M,M,M,M,M,M,M,M,86.22,SBGR 251300Z 32009G21KT CAVOK 28/21 Q1018,M
SBAN,2025-01-25 13:00,78.80,64.40,61.36,80.00,6.00,0.00,30.18,M,6.21,M,M,M,M,M,M,M,M,M,M,M,M,M,M,M,M,78.80,SBAN 251300Z 08006KT CAVOK 26/18 Q1022,M
SBGR,2025-01-25 14:00,86.00,69.80,58.55,330.00,12.00,0.00,30.03,M,6.21,M,FEW,M,M,M,3000.00,M,M,M,M,M,M,M,M,M,M,90.58,SBGR 251400Z 33012KT 9999 FEW030 30/21 Q1017,M
SBAN,2025-01-25 14:00,84.20,62.60,48.32,40.00,6.00,0.00,30.18,M,6.21,M,SCT,M,M,M,3500.00,M,M,M,M,M,M,M,M,M,M,85.03,SBAN 251400Z 04006KT 9999 SCT035 29/17 Q1022,M
SBGR,2025-01-25 15:00,86.00,68.00,55.04,320.00,10.00,0.00,30.03,M,6.21,M,SCT,M,M,M,4000.00,M,M,M,M,M,M,M,M,M,M,89.41,SBGR 251500Z 32010KT 9999 SCT040 30/20 Q1017,M
SBAN,2025-01-25 15:00,84.20,62.60,48.32,30.00,5.00,0.00,30.15,M,6.21,M,SCT,FEW,M,M,3500.00,4500.00,M,M,M,M,M,M,M,M,M,85.03,SBAN 251500Z 03005KT 9999 SCT035 FEW045TCU 29/17 Q1021,M
SBAN,2025-01-25 16:00,84.20,64.40,51.47,50.00,4.00,0.00,30.12,M,6.21,M,SCT,FEW,M,M,3500.00,4500.00,M,M,M,M,M,M,M,M,M,85.71,SBAN 251600Z 05004KT 9999 SCT035 FEW045TCU 29/18 Q1020,M
SBGR,2025-01-25 16:00,89.60,68.00,49.10,300.00,10.00,0.00,30.00,M,6.21,M,BKN,M,M,M,4000.00,M,M,M,M,M,M,M,M,M,M,93.47,SBGR 251600Z 30010KT 9999 BKN040 32/20 Q1016,M
SBAN,2025-01-25 17:00,84.20,62.60,48.32,340.00,4.00,0.00,30.09,M,6.21,M,SCT,FEW,M,M,3500.00,4500.00,M,M,M,M,M,M,M,M,M,85.03,SBAN 251700Z 34004KT 9999 SCT035 FEW045TCU 29/17 Q1019,M
SBGR,2025-01-25 17:00,89.60,68.00,49.10,300.00,10.00,0.00,29.97,M,6.21,M,SCT,FEW,M,M,4900.00,5000.00,M,M,M,M,M,M,M,M,M,93.47,SBGR 251700Z 30010KT 9999 SCT049 FEW050TCU 32/20 Q1015,M
SBAN,2025-01-25 18:00,86.00,62.60,45.61,350.00,4.00,0.00,30.06,M,6.21,M,SCT,FEW,M,M,3500.00,4500.00,M,M,M,M,M,M,M,M,M,86.72,SBAN 251800Z 35004KT 9999 SCT035 FEW045TCU 30/17 Q1018,M
SBGR,2025-01-25 18:00,91.40,66.20,43.61,290.00,11.00,0.00,29.94,M,6.21,M,SCT,FEW,M,M,4900.00,5000.00,M,M,M,M,M,M,M,M,M,94.29,SBGR 251800Z 29011KT 9999 SCT049 FEW050TCU 33/19 Q1014,M
SBGR,2025-01-25 19:00,89.60,68.00,49.10,280.00,10.00,0.00,29.91,M,6.21,M,M,M,M,M,M,M,M,M,M,M,M,M,M,M,M,93.47,SBGR 251900Z 28010KT CAVOK 32/20 Q1013,M
SBAN,2025-01-25 19:00,86.00,60.80,42.80,340.00,4.00,0.00,30.03,M,6.21,M,SCT,FEW,M,M,3500.00,4500.00,M,M,M,M,M,M,M,M,M,86.05,SBAN 251900Z 34004KT 9999 SCT035 FEW045TCU 30/16 Q1017,M
SBGR,2025-01-25 20:00,89.60,64.40,43.34,290.00,13.00,0.00,29.91,M,6.21,M,M,M,M,M,M,M,M,M,M,M,M,M,M,M,M,91.23,SBGR 252000Z 29013KT CAVOK 32/18 Q1013,M
SBAN,2025-01-25 20:00,84.20,62.60,48.32,300.00,3.00,0.00,30.03,M,6.21,M,SCT,FEW,M,M,3500.00,4500.00,M,M,M,M,M,M,M,M,M,85.03,SBAN 252000Z 30003KT 9999 SCT035 FEW045TCU 29/17 Q1017,M
SBAN,2025-01-25 21:00,82.40,66.20,58.08,240.00,4.00,0.00,30.03,M,6.21,M,SCT,FEW,M,M,3500.00,4500.00,M,M,VCSH,M,M,M,M,M,M,84.63,SBAN 252100Z 24004KT 9999 VCSH SCT035 FEW045TCU 28/19 Q1017,M
SBGR,2025-01-25 21:00,84.20,66.20,54.80,130.00,12.00,0.00,29.94,M,6.21,M,BKN,FEW,SCT,M,5000.00,5000.00,10000.00,M,VCTS,M,M,M,M,M,M,86.50,SBGR 252100Z 13012KT 9999 VCTS BKN050 FEW050CB SCT100 29/19 Q1014,M
SBGR,2025-01-25 22:00,77.00,68.00,73.78,80.00,7.00,0.00,29.97,M,6.21,M,BKN,FEW,SCT,M,4000.00,5000.00,10000.00,M,-RA VCTS,M,M,M,M,M,M,77.00,SBGR 252200Z 08007KT 9999 4000SW -RA VCTS BKN040 FEW050CB SCT100 25/20 Q1015,M
SBAN,2025-01-25 22:00,68.00,68.00,100.00,340.00,11.00,0.00,30.03,M,6.21,21.00,FEW,BKN,FEW,M,1500.00,4000.00,4500.00,M,TSRA,M,M,M,M,M,M,68.00,SBAN 252200Z 34011G21KT 9999 4000NW TSRA FEW015 BKN040 FEW045CB 20/20 Q1017,M
SBGR,2025-01-25 23:00,71.60,66.20,83.09,280.00,5.00,0.00,30.00,M,3.73,M,FEW,BKN,FEW,M,1300.00,4000.00,5000.00,M,-RA VCTS,M,M,M,M,M,M,71.60,SBGR 252300Z 28005KT 6000 -RA VCTS FEW013 BKN040 FEW050CB 22/19 Q1016,M
SBAN,2025-01-25 23:00,68.00,68.00,100.00,300.00,3.00,0.00,30.06,M,6.21,M,SCT,FEW,M,M,4000.00,4500.00,M,M,VCTS,M,M,M,M,M,M,68.00,SBAN 252300Z 30003KT 9999 VCTS SCT040 FEW045CB 20/20 Q1018 RETSRA,M
SBGR,2025-01-25 23:02,71.60,66.20,83.09,110.00,10.00,0.00,30.03,M,6.21,M,FEW,BKN,FEW,BKN,1300.00,4000.00,5000.00,8000.00,-TSRA,M,M,M,M,M,M,71.60,SBGR 252302Z 11010KT 9999 4000SW -TSRA FEW013 BKN040 FEW050CB BKN080 22/19 Q1017 WS R10R,M
SBGR,2025-01-25 23:10,71.60,66.20,83.09,110.00,10.00,0.00,30.03,M,2.49,M,FEW,BKN,FEW,BKN,1300.00,4000.00,5000.00,8000.00,+TSRA,M,M,M,M,M,M,71.60,SBGR 252310Z 11010KT 4000 +TSRA FEW013 BKN040 FEW050CB BKN080 22/19 Q1017 WS R10R,M
SBGR,2025-01-25 23:36,71.60,68.00,88.43,50.00,5.00,0.00,30.00,M,6.21,M,M,M,M,M,M,M,M,M,M,M,M,M,M,M,M,71.60,SBGR 252336Z 05005KT CAVOK 22/20 Q1016 RETSRA WS R10R,M
SBGR,2025-01-26 00:00,71.60,68.00,88.43,70.00,7.00,0.00,30.00,M,6.21,M,M,M,M,M,M,M,M,M,M,M,M,M,M,M,M,71.60,SBGR 260000Z 07007KT CAVOK 22/20 Q1016 RETSRA,M
SBAN,2025-01-26 00:00,68.00,66.20,93.97,350.00,2.00,0.00,30.06,M,6.21,M,FEW,FEW,M,M,4000.00,4500.00,M,M,VCTS,M,M,M,M,M,M,68.00,SBAN 260000Z 35002KT 9999 VCTS FEW040 FEW045CB 20/19 Q1018,M
SBAN,2025-01-26 01:00,69.80,66.20,88.34,40.00,4.00,0.00,30.12,M,6.21,M,SCT,FEW,M,M,4000.00,4500.00,M,M,VCTS,M,M,M,M,M,M,69.80,SBAN 260100Z 04004KT 9999 VCTS SCT040 FEW045CB 21/19 Q1020,M
SBGR,2025-01-26 01:00,71.60,68.00,88.43,90.00,10.00,0.00,30.03,M,6.21,M,SCT,M,M,M,4500.00,M,M,M,M,M,M,M,M,M,M,71.60,SBGR 260100Z 09010KT 9999 SCT045 22/20 Q1017,M
SBAN,2025-01-26 02:00,71.60,64.40,78.04,70.00,3.00,0.00,30.12,M,6.21,M,SCT,FEW,M,M,4000.00,4500.00,M,M,VCTS,M,M,M,M,M,M,71.60,SBAN 260200Z 07003KT 9999 VCTS SCT040 FEW045CB 22/18 Q1020,M
SBGR,2025-01-26 02:00,69.80,68.00,94.01,80.00,8.00,0.00,30.03,M,6.21,M,FEW,M,M,M,4500.00,M,M,M,M,M,M,M,M,M,M,69.80,SBGR 260200Z 08008KT 9999 FEW045 21/20 Q1017,M
SBGR,2025-01-26 03:00,69.80,68.00,94.01,70.00,6.00,0.00,30.03,M,6.21,M,M,M,M,M,M,M,M,M,M,M,M,M,M,M,M,69.80,SBGR 260300Z 07006KT CAVOK 21/20 Q1017,M
SBAN,2025-01-26 03:00,68.00,66.20,93.97,40.00,2.00,0.00,30.12,M,6.21,M,SCT,FEW,M,M,4000.00,4500.00,M,M,M,M,M,M,M,M,M,68.00,SBAN 260300Z 04002KT 9999 SCT040 FEW045TCU 20/19 Q1020,M
SBAN,2025-01-26 04:00,71.60,64.40,78.04,70.00,3.00,0.00,30.12,M,6.21,M,FEW,M,M,M,4000.00,M,M,M,M,M,M,M,M,M,M,71.60,SBAN 260400Z 07003KT 9999 FEW040 22/18 Q1020,M
SBGR,2025-01-26 04:00,71.60,68.00,88.43,180.00,7.00,0.00,30.06,M,6.21,M,BKN,M,M,M,1100.00,M,M,M,M,M,M,M,M,M,M,71.60,SBGR 260400Z 18007KT 9999 BKN011 22/20 Q1018,M
SBAN,2025-01-26 05:00,68.00,64.40,88.26,70.00,4.00,0.00,30.09,M,6.21,M,FEW,M,M,M,4000.00,M,M,M,M,M,M,M,M,M,M,68.00,SBAN 260500Z 07004KT 9999 FEW040 20/18 Q1019,M
SBGR,2025-01-26 05:00,71.60,68.00,88.43,260.00,1.00,0.00,30.03,M,6.21,M,BKN,M,M,M,3000.00,M,M,M,M,M,M,M,M,M,M,71.60,SBGR 260500Z 26001KT 9999 BKN030 22/20 Q1017,M
SBAN,2025-01-26 06:00,68.00,68.00,100.00,330.00,4.00,0.00,30.09,M,6.21,M,SCT,M,M,M,4000.00,M,M,M,M,M,M,M,M,M,M,68.00,SBAN 260600Z 33004KT 9999 SCT040 20/20 Q1019,M
SBGR,2025-01-26 06:00,71.60,68.00,88.43,320.00,3.00,0.00,30.00,M,6.21,M,NSC,M,M,M,M,M,M,M,-RA,M,M,M,M,M,M,71.60,SBGR 260600Z 32003KT 9999 -RA NSC 22/20 Q1016,M
SBGR,2025-01-26 07:00,71.60,69.80,94.06,350.00,2.00,0.00,29.97,M,6.21,M,NSC,M,M,M,M,M,M,M,-RA,M,M,M,M,M,M,71.60,SBGR 260700Z 35002KT 9999 -RA NSC 22/21 Q1015,M
SBAN,2025-01-26 07:00,69.80,64.40,82.98,30.00,4.00,0.00,30.09,M,6.21,M,FEW,M,M,M,4000.00,M,M,M,M,M,M,M,M,M,M,69.80,SBAN 260700Z 03004KT 9999 FEW040 21/18 Q1019,M
SBAN,2025-01-26 08:00,68.00,66.20,93.97,100.00,4.00,0.00,30.09,M,6.21,M,FEW,M,M,M,4000.00,M,M,M,M,M,M,M,M,M,M,68.00,SBAN 260800Z 10004KT 9999 FEW040 20/19 Q1019,M
SBGR,2025-01-26 08:00,71.60,68.00,88.43,10.00,5.00,0.00,29.97,M,6.21,M,M,M,M,M,M,M,M,M,M,M,M,M,M,M,M,71.60,SBGR 260800Z 01005KT CAVOK 22/20 Q1015,M
SBGR,2025-01-26 09:00,69.80,68.00,94.01,140.00,2.00,0.00,30.00,M,6.21,M,M,M,M,M,M,M,M,M,M,M,M,M,M,M,M,69.80,SBGR 260900Z 14002KT CAVOK 21/20 Q1016,M
SBAN,2025-01-26 09:00,66.20,66.20,100.00,280.00,4.00,0.00,30.12,M,0.56,M,BKN,M,M,M,200.00,M,M,M,FG,M,M,M,M,M,M,66.20,SBAN 260900Z 28004KT 0900 R24R/0250U R06L/0400U FG BKN002 19/19 Q1020,M
SBGR,2025-01-26 10:00,73.40,66.20,78.19,20.00,4.00,0.00,30.00,M,6.21,M,M,M,M,M,M,M,M,M,M,M,M,M,M,M,M,73.40,SBGR 261000Z 02004KT CAVOK 23/19 Q1016,M
SBAN,2025-01-26 10:00,68.00,68.00,100.00,320.00,2.00,0.00,30.12,M,6.21,M,FEW,M,M,M,3000.00,M,M,M,M,M,M,M,M,M,M,68.00,SBAN 261000Z 32002KT 9999 FEW030 20/20 Q1020,M
SBGR,2025-01-26 11:00,75.20,66.20,73.61,30.00,5.00,0.00,30.00,M,6.21,M,M,M,M,M,M,M,M,M,M,M,M,M,M,M,M,75.20,SBGR 261100Z 03005KT CAVOK 24/19 Q1016,M
SBAN,2025-01-26 11:00,73.40,66.20,78.19,340.00,2.00,0.00,30.15,M,6.21,M,M,M,M,M,M,M,M,M,M,M,M,M,M,M,M,73.40,SBAN 261100Z 34002KT CAVOK 23/19 Q1021,M
SBGR,2025-01-26 12:00,77.00,66.20,69.33,20.00,8.00,0.00,30.03,M,6.21,M,M,M,M,M,M,M,M,M,M,M,M,M,M,M,M,77.00,SBGR 261200Z 02008KT CAVOK 25/19 Q1017,M
SBAN,2025-01-26 12:00,77.00,66.20,69.33,10.00,4.00,0.00,30.15,M,6.21,M,M,M,M,M,M,M,M,M,M,M,M,M,M,M,M,77.00,SBAN 261200Z 01004KT CAVOK 25/19 Q1021,M
SBGR,2025-01-26 13:00,80.60,68.00,65.54,310.00,3.00,0.00,30.03,M,6.21,M,M,M,M,M,M,M,M,M,M,M,M,M,M,M,M,83.29,SBGR 261300Z 31003KT CAVOK 27/20 Q1017,M
SBAN,2025-01-26 13:00,80.60,68.00,65.54,360.00,5.00,0.00,30.15,M,6.21,M,FEW,M,M,M,2000.00,M,M,M,M,M,M,M,M,M,M,83.29,SBAN 261300Z 36005KT 9999 FEW020 27/20 Q1021,M
SBAN,2025-01-26 14:00,80.60,68.00,65.54,350.00,4.00,0.00,30.15,M,6.21,M,BKN,M,M,M,3000.00,M,M,M,M,M,M,M,M,M,M,83.29,SBAN 261400Z 35004KT 9999 BKN030 27/20 Q1021,M
SBGR,2025-01-26 14:00,82.40,68.00,61.81,280.00,7.00,0.00,30.03,M,6.21,M,M,M,M,M,M,M,M,M,M,M,M,M,M,M,M,85.38,SBGR 261400Z 28007KT CAVOK 28/20 Q1017,M
SBGR,2025-01-26 15:00,86.00,69.80,58.55,280.00,7.00,0.00,30.00,M,6.21,M,BKN,M,M,M,3500.00,M,M,M,M,M,M,M,M,M,M,90.58,SBGR 261500Z 28007KT 9999 BKN035 30/21 Q1016,M
SBAN,2025-01-26 15:00,82.40,69.80,65.74,320.00,5.00,0.00,30.15,M,6.21,M,BKN,FEW,M,M,3000.00,3500.00,M,M,VCSH,M,M,M,M,M,M,86.22,SBAN 261500Z 32005KT 9999 VCSH BKN030 FEW035TCU 28/21 Q1021,M
SBGR,2025-01-26 16:00,86.00,68.00,55.04,280.00,8.00,0.00,29.97,M,6.21,M,BKN,BKN,M,M,4000.00,8000.00,M,M,M,M,M,M,M,M,M,89.41,SBGR 261600Z 28008KT 9999 BKN040 BKN080 30/20 Q1015,M
SBAN,2025-01-26 16:00,73.40,68.00,83.21,340.00,6.00,0.00,30.12,M,6.21,M,BKN,FEW,M,M,3000.00,3500.00,M,M,SHRA TS,M,M,M,M,M,M,73.40,SBAN 261600Z 34006KT 9999 4000W SHRA TS BKN030 FEW035CB 23/20 Q1020,M
SBGR,2025-01-26 17:00,75.20,69.80,83.32,160.00,15.00,0.00,29.97,M,6.21,M,BKN,SCT,M,M,1500.00,3000.00,M,M,M,M,M,M,M,M,M,75.20,SBGR 261700Z 16015KT 9999 BKN015 SCT030TCU 24/21 Q1015,M
SBAN,2025-01-26 17:00,80.60,64.40,57.84,340.00,7.00,0.00,30.09,M,6.21,M,BKN,FEW,M,M,3000.00,3500.00,M,M,TS VCSH,M,M,M,M,M,M,82.27,SBAN 261700Z 34007KT 9999 TS VCSH BKN030 FEW035CB 27/18 Q1019 RESHRA,M
SBGR,2025-01-26 17:18,71.60,69.80,94.06,140.00,9.00,0.00,30.00,M,3.73,20.00,BKN,BKN,FEW,M,1000.00,1900.00,4000.00,M,TSRA,M,M,M,M,M,M,71.60,SBGR 261718Z 14009G20KT 6000 TSRA BKN010 BKN019 FEW040CB 22/21 Q1016,M
SBGR,2025-01-26 17:34,71.60,69.80,94.06,120.00,8.00,0.00,30.00,M,5.59,M,BKN,BKN,FEW,M,700.00,2300.00,5000.00,M,-TSRA,M,M,M,M,M,M,71.60,SBGR 261734Z 12008KT 9000 -TSRA BKN007 BKN023 FEW050CB 22/21 Q1016 RERA WS R28R,M
SBGR,2025-01-26 18:00,71.60,69.80,94.06,130.00,5.00,0.00,30.00,M,5.59,M,SCT,BKN,FEW,OVC,700.00,2000.00,5000.00,7000.00,-TSRA,M,M,M,M,M,M,71.60,SBGR 261800Z 13005KT 9000 -TSRA SCT007 BKN020 FEW050CB OVC070 22/21 Q1016 RERA WS R28R,M
SBAN,2025-01-26 18:00,80.60,68.00,65.54,320.00,4.00,0.00,30.06,M,6.21,M,SCT,FEW,M,M,3000.00,3500.00,M,M,VCSH,M,M,M,M,M,M,83.29,SBAN 261800Z 32004KT 9999 VCSH SCT030 FEW035TCU 27/20 Q1018 RETS,M
SBGR,2025-01-26 19:00,71.60,69.80,94.06,150.00,5.00,0.00,29.97,M,4.97,M,SCT,BKN,OVC,M,700.00,4300.00,7000.00,M,-RA,M,M,M,M,M,M,71.60,SBGR 261900Z 15005KT 8000 -RA SCT007 BKN043 OVC070 22/21 Q1015 RETS,M
SBAN,2025-01-26 19:00,80.60,68.00,65.54,330.00,6.00,0.00,30.06,M,6.21,M,SCT,FEW,M,M,3000.00,3500.00,M,M,VCSH,M,M,M,M,M,M,83.29,SBAN 261900Z 33006KT 9999 VCSH SCT030 FEW035TCU 27/20 Q1018,M
SBGR,2025-01-26 19:38,71.60,69.80,94.06,230.00,5.00,0.00,30.00,M,5.59,M,BKN,BKN,FEW,OVC,900.00,2100.00,5000.00,7000.00,+TSRA,M,M,M,M,M,M,71.60,SBGR 261938Z 23005KT 9000 2000W +TSRA BKN009 BKN021 FEW050CB OVC070 22/21 Q1016,M
SBGR,2025-01-26 19:46,68.00,68.00,100.00,280.00,15.00,0.00,30.03,M,0.93,25.00,BKN,BKN,SCT,OVC,600.00,900.00,5000.00,7000.00,+TSRA,M,M,M,M,M,M,68.00,COR SBGR 261946Z 28015G25KT 1500 R10R/2000N R10L/2000N R28R/2000N R28L/P2000N +TSRA BKN006 BKN009 SCT050CB OVC070 20/20 Q1017,M
SBGR,2025-01-26 20:00,68.00,68.00,100.00,270.00,12.00,0.00,30.03,M,0.93,23.00,BKN,BKN,SCT,OVC,700.00,1100.00,5000.00,7000.00,+TSRA,M,M,M,M,M,M,68.00,SBGR 262000Z 27012G23KT 1500 R10R/P2000 R10L/P2000 R28R/P2000 R28L/P2000 +TSRA BKN007 BKN011 SCT050CB OVC070 20/20 Q1017,M
SBAN,2025-01-26 20:00,77.00,66.20,69.33,290.00,2.00,0.00,30.03,M,6.21,M,SCT,FEW,M,M,3000.00,3500.00,M,M,M,M,M,M,M,M,M,77.00,SBAN 262000Z 29002KT 9999 SCT030 FEW035TCU 25/19 Q1017,M
SBGR,2025-01-26 20:17,66.20,66.20,100.00,250.00,4.00,0.00,30.00,M,3.11,M,SCT,FEW,OVC,M,1700.00,5000.00,7000.00,M,-TSRA,M,M,M,M,M,M,66.20,SBGR 262017Z 25004KT 5000 -TSRA SCT017 FEW050CB OVC070 19/19 Q1016 RERA,M
SBGR,2025-01-26 20:36,68.00,68.00,100.00,150.00,2.00,0.00,30.00,M,3.11,M,NSC,M,M,M,M,M,M,M,-RA BR,M,M,M,M,M,M,68.00,SBGR 262036Z 15002KT 5000 -RA BR NSC 20/20 Q1016 RETS,M
SBAN,2025-01-26 21:00,75.20,68.00,78.34,290.00,2.00,0.00,30.03,M,6.21,M,FEW,FEW,M,M,3000.00,3500.00,M,M,M,M,M,M,M,M,M,75.20,SBAN 262100Z 29002KT 9999 FEW030 FEW035TCU 24/20 Q1017,M
SBGR,2025-01-26 21:00,68.00,68.00,100.00,110.00,1.00,0.00,30.00,M,3.11,M,NSC,M,M,M,M,M,M,M,-RA BR,M,M,M,M,M,M,68.00,COR SBGR 262100Z 11001KT 5000 -RA BR NSC 20/20 Q1016 RETSRA,M
SBAN,2025-01-26 22:00,73.40,68.00,83.21,270.00,1.00,0.00,30.03,M,6.21,M,FEW,FEW,M,M,3000.00,3500.00,M,M,M,M,M,M,M,M,M,73.40,SBAN 262200Z 27001KT 9999 FEW030 FEW035TCU 23/20 Q1017,M
SBGR,2025-01-26 22:00,69.80,69.80,100.00,160.00,2.00,0.00,30.00,M,3.73,M,NSC,M,M,M,M,M,M,M,RA,M,M,M,M,M,M,69.80,SBGR 262200Z 16002KT 6000 RA NSC 21/21 Q1016,M
SBGR,2025-01-26 22:14,69.80,68.00,94.01,60.00,4.00,0.00,30.00,M,4.97,M,BKN,OVC,M,M,700.00,7000.00,M,M,-RA,M,M,M,M,M,M,69.80,SBGR 262214Z 06004KT 8000 -RA BKN007 OVC070 21/20 Q1016 RERA,M
SBAN,2025-01-26 23:00,69.80,69.80,100.00,0.00,0.00,0.00,30.06,M,6.21,M,FEW,FEW,M,M,3000.00,3500.00,M,M,M,M,M,M,M,M,M,69.80,SBAN 262300Z 00000KT 9999 FEW030 FEW035TCU 21/21 Q1018,M
SBGR,2025-01-26 23:00,69.80,68.00,94.01,60.00,3.00,0.00,30.00,M,5.59,M,BKN,OVC,M,M,700.00,7000.00,M,M,-RA,M,M,M,M,M,M,69.80,SBGR 262300Z 06003KT 9000 -RA BKN007 OVC070 21/20 Q1016 RERA,M
SBAN,2025-01-27 00:00,69.80,69.80,100.00,300.00,1.00,0.00,30.09,M,6.21,M,FEW,FEW,M,M,3000.00,3500.00,M,M,M,M,M,M,M,M,M,69.80,SBAN 270000Z 30001KT 9999 FEW030 FEW035TCU 21/21 Q1019,M
SBGR,2025-01-27 00:00,69.80,68.00,94.01,70.00,5.00,0.00,30.03,M,5.59,M,BKN,OVC,M,M,1300.00,1700.00,M,M,-RA,M,M,M,M,M,M,69.80,SBGR 270000Z 07005KT 9000 -RA BKN013 OVC017 21/20 Q1017,M
SBGR,2025-01-27 01:00,69.80,68.00,94.01,70.00,1.00,0.00,30.06,M,4.97,M,SCT,BKN,OVC,M,500.00,1000.00,1500.00,M,-RA,M,M,M,M,M,M,69.80,SBGR 270100Z 07001KT 8000 -RA SCT005 BKN010 OVC015 21/20 Q1018,M
SBAN,2025-01-27 01:00,69.80,69.80,100.00,280.00,2.00,0.00,30.09,M,6.21,M,FEW,FEW,M,M,3000.00,3500.00,M,M,M,M,M,M,M,M,M,69.80,SBAN 270100Z 28002KT 9999 FEW030 FEW035TCU 21/21 Q1019,M
SBGR,2025-01-27 02:00,69.80,68.00,94.01,60.00,4.00,0.00,30.06,M,6.21,M,FEW,BKN,OVC,M,600.00,1100.00,2000.00,M,M,M,M,M,M,M,M,69.80,SBGR 270200Z 06004KT 9999 FEW006 BKN011 OVC020 21/20 Q1018,M
SBAN,2025-01-27 02:00,69.80,68.00,94.01,0.00,0.00,0.00,30.09,M,6.21,M,FEW,FEW,M,M,3000.00,3500.00,M,M,M,M,M,M,M,M,M,69.80,SBAN 270200Z 00000KT 9999 FEW030 FEW035TCU 21/20 Q1019,M
SBGR,2025-01-27 03:00,69.80,68.00,94.01,60.00,5.00,0.00,30.06,M,4.35,M,FEW,BKN,OVC,M,700.00,1000.00,8000.00,M,-RA,M,M,M,M,M,M,69.80,SBGR 270300Z 06005KT 7000 -RA FEW007 BKN010 OVC080 21/20 Q1018,M
SBAN,2025-01-27 03:00,69.80,68.00,94.01,260.00,2.00,0.00,30.09,M,6.21,M,FEW,FEW,M,M,3000.00,3500.00,M,M,M,M,M,M,M,M,M,69.80,SBAN 270300Z 26002KT 9999 FEW030 FEW035TCU 21/20 Q1019,M
SBGR,2025-01-27 04:00,69.80,68.00,94.01,160.00,1.00,0.00,30.03,M,6.21,M,FEW,SCT,BKN,M,800.00,1300.00,3000.00,M,M,M,M,M,M,M,M,69.80,SBGR 270400Z 16001KT 9999 FEW008 SCT013 BKN030 21/20 Q1017,M
SBAN,2025-01-27 04:00,68.00,68.00,100.00,0.00,0.00,0.00,30.09,M,6.21,M,FEW,M,M,M,3000.00,M,M,M,M,M,M,M,M,M,M,68.00,SBAN 270400Z 00000KT 9999 FEW030 20/20 Q1019,M
SBAN,2025-01-27 05:00,68.00,68.00,100.00,340.00,1.00,0.00,30.06,M,6.21,M,FEW,M,M,M,3000.00,M,M,M,M,M,M,M,M,M,M,68.00,SBAN 270500Z 34001KT 9999 FEW030 20/20 Q1018,M
SBGR,2025-01-27 05:00,69.80,68.00,94.01,100.00,1.00,0.00,30.00,M,6.21,M,SCT,BKN,M,M,1000.00,3500.00,M,M,M,M,M,M,M,M,M,69.80,SBGR 270500Z 10001KT 9999 SCT010 BKN035 21/20 Q1016,M
SBGR,2025-01-27 06:00,69.80,68.00,94.01,220.00,1.00,0.00,30.00,M,6.21,M,FEW,SCT,BKN,M,800.00,1300.00,3000.00,M,M,M,M,M,M,M,M,69.80,SBGR 270600Z 22001KT 9999 FEW008 SCT013 BKN030 21/20 Q1016,M
SBAN,2025-01-27 06:00,68.00,68.00,100.00,0.00,0.00,0.00,30.03,M,6.21,M,FEW,M,M,M,3000.00,M,M,M,M,M,M,M,M,M,M,68.00,SBAN 270600Z 00000KT 9999 FEW030 20/20 Q1017,M
SBGR,2025-01-27 07:00,69.80,69.80,100.00,90.00,2.00,0.00,29.97,M,4.97,M,FEW,SCT,BKN,M,500.00,1500.00,2500.00,M,M,M,M,M,M,M,M,69.80,SBGR 270700Z 09002KT 8000 FEW005 SCT015 BKN025 21/21 Q1015,M
SBAN,2025-01-27 07:00,66.20,66.20,100.00,180.00,1.00,0.00,30.06,M,6.21,M,FEW,M,M,M,3000.00,M,M,M,M,M,M,M,M,M,M,66.20,SBAN 270700Z 18001KT 9999 FEW030 19/19 Q1018,M
SBAN,2025-01-27 08:00,66.20,66.20,100.00,160.00,1.00,0.00,30.06,M,6.21,M,FEW,M,M,M,3000.00,M,M,M,M,M,M,M,M,M,M,66.20,SBAN 270800Z 16001KT 9999 FEW030 19/19 Q1018,M
SBGR,2025-01-27 08:00,69.80,68.00,94.01,0.00,0.00,0.00,29.97,M,5.59,M,SCT,BKN,M,M,900.00,3000.00,M,M,M,M,M,M,M,M,M,69.80,SBGR 270800Z 00000KT 9000 SCT009 BKN030 21/20 Q1015,M
SBGR,2025-01-27 08:18,69.80,68.00,94.01,0.00,0.00,0.00,29.97,M,6.21,M,SCT,BKN,M,M,700.00,1300.00,M,M,M,M,M,M,M,M,M,69.80,SBGR 270818Z 00000KT 9999 SCT007 BKN013 21/20 Q1015,M
SBGR,2025-01-27 09:00,68.00,68.00,100.00,200.00,1.00,0.00,29.97,M,6.21,M,SCT,BKN,M,M,1000.00,1500.00,M,M,M,M,M,M,M,M,M,68.00,SBGR 270900Z 20001KT 9999 SCT010 BKN015 20/20 Q1015,M
SBAN,2025-01-27 09:00,66.20,66.20,100.00,180.00,1.00,0.00,30.06,M,6.21,M,FEW,M,M,M,3000.00,M,M,M,M,M,M,M,M,M,M,66.20,SBAN 270900Z 18001KT 9999 FEW030 19/19 Q1018,M
SBGR,2025-01-27 10:00,69.80,68.00,94.01,190.00,1.00,0.00,29.97,M,6.21,M,BKN,M,M,M,1700.00,M,M,M,M,M,M,M,M,M,M,69.80,SBGR 271000Z 19001KT 9999 BKN017 21/20 Q1015,M
SBAN,2025-01-27 10:00,68.00,68.00,100.00,250.00,2.00,0.00,30.09,M,6.21,M,FEW,SCT,M,M,3000.00,10000.00,M,M,M,M,M,M,M,M,M,68.00,SBAN 271000Z 25002KT 9999 FEW030 SCT100 20/20 Q1019,M
SBGR,2025-01-27 10:17,69.80,68.00,94.01,190.00,3.00,0.00,30.00,M,6.21,M,BKN,SCT,M,M,1000.00,1800.00,M,M,M,M,M,M,M,M,M,69.80,SBGR 271017Z 19003KT 9999 BKN010 SCT018 21/20 Q1016,M
SBGR,2025-01-27 11:00,71.60,68.00,88.43,30.00,2.00,0.00,30.00,M,6.21,M,FEW,BKN,M,M,1000.00,1700.00,M,M,M,M,M,M,M,M,M,71.60,SBGR 271100Z 03002KT 9999 FEW010 BKN017 22/20 Q1016,M
SBAN,2025-01-27 11:00,69.80,69.80,100.00,M,2.00,0.00,30.12,M,6.21,M,FEW,SCT,M,M,3000.00,10000.00,M,M,M,M,M,M,M,M,M,69.80,SBAN 271100Z VRB02KT 9999 FEW030 SCT100 21/21 Q1020,M
SBGR,2025-01-27 12:00,73.40,68.00,83.21,0.00,0.00,0.00,30.03,M,6.21,M,FEW,BKN,M,M,1500.00,2300.00,M,M,M,M,M,M,M,M,M,73.40,SBGR 271200Z 00000KT 9999 FEW015 BKN023 23/20 Q1017,M
SBAN,2025-01-27 12:00,75.20,69.80,83.32,M,2.00,0.00,30.12,M,6.21,M,FEW,SCT,M,M,3000.00,10000.00,M,M,M,M,M,M,M,M,M,75.20,SBAN 271200Z VRB02KT 9999 FEW030 SCT100 24/21 Q1020,M
SBGR,2025-01-27 13:00,75.20,68.00,78.34,0.00,0.00,0.00,30.03,M,4.97,M,FEW,OVC,M,M,1700.00,3000.00,M,M,M,M,M,M,M,M,M,75.20,SBGR 271300Z 00000KT 8000 FEW017 OVC030 24/20 Q1017,M
SBAN,2025-01-27 13:00,77.00,66.20,69.33,M,3.00,0.00,30.15,M,6.21,M,SCT,SCT,M,M,3000.00,10000.00,M,M,M,M,M,M,M,M,M,77.00,SBAN 271300Z VRB03KT 9999 SCT030 SCT100 25/19 Q1021,M
SBGR,2025-01-27 14:00,77.00,68.00,73.78,150.00,3.00,0.00,30.03,M,4.97,M,FEW,OVC,M,M,1700.00,4000.00,M,M,M,M,M,M,M,M,M,77.00,SBGR 271400Z 15003KT 8000 FEW017 OVC040 25/20 Q1017,M
SBAN,2025-01-27 14:00,80.60,66.20,61.58,M,4.00,0.00,30.12,M,6.21,M,SCT,FEW,BKN,BKN,2500.00,4000.00,4500.00,10000.00,M,M,M,M,M,M,M,82.75,SBAN 271400Z VRB04KT 9999 SCT025 FEW040TCU BKN045 BKN100 27/19 Q1020,M
SBGR,2025-01-27 15:00,78.80,68.00,69.52,140.00,3.00,0.00,30.03,M,4.97,M,FEW,OVC,M,M,1300.00,2300.00,M,M,M,M,M,M,M,M,M,78.80,SBGR 271500Z 14003KT 8000 FEW013 OVC023 26/20 Q1017,M
SBAN,2025-01-27 15:00,80.60,66.20,61.58,M,3.00,0.00,30.12,M,6.21,M,SCT,FEW,BKN,BKN,2500.00,4000.00,4500.00,10000.00,M,M,M,M,M,M,M,82.75,SBAN 271500Z VRB03KT 9999 SCT025 FEW040TCU BKN045 BKN100 27/19 Q1020,M
SBAN,2025-01-27 16:00,82.40,64.40,54.55,M,6.00,0.00,30.09,M,6.21,M,SCT,FEW,BKN,BKN,2500.00,4000.00,4500.00,10000.00,TS VCSH,M,M,M,M,M,M,83.98,SBAN 271600Z VRB06KT 9999 TS VCSH SCT025 FEW040CB BKN045 BKN100 28/18 Q1019,M
SBGR,2025-01-27 16:00,75.20,68.00,78.34,60.00,5.00,0.00,30.03,M,6.21,M,SCT,OVC,M,M,2300.00,3000.00,M,M,-RA,M,M,M,M,M,M,75.20,SBGR 271600Z 06005KT 9999 -RA SCT023 OVC030 24/20 Q1017,M
SBAN,2025-01-27 17:00,75.20,66.20,73.61,30.00,8.00,0.00,30.09,M,6.21,M,SCT,FEW,BKN,BKN,2500.00,4000.00,4500.00,10000.00,VCSH,M,M,M,M,M,M,75.20,SBAN 271700Z 03008KT 350V070 9999 VCSH SCT025 FEW040TCU BKN045 BKN100 24/19 Q1019 RETS,M
SBGR,2025-01-27 17:00,75.20,69.80,83.32,0.00,0.00,0.00,30.00,M,6.21,M,SCT,SCT,BKN,M,1700.00,4500.00,8000.00,M,-RA,M,M,M,M,M,M,75.20,SBGR 271700Z 00000KT 9999 -RA SCT017 SCT045 BKN080 24/21 Q1016,M
SBGR,2025-01-27 18:00,80.60,68.00,65.54,230.00,3.00,0.00,29.97,M,6.21,M,SCT,BKN,M,M,3000.00,8000.00,M,M,M,M,M,M,M,M,M,83.29,SBGR 271800Z 23003KT 9999 SCT030 BKN080 27/20 Q1015,M
SBAN,2025-01-27 18:00,75.20,66.20,73.61,10.00,5.00,0.00,30.06,M,6.21,M,SCT,FEW,BKN,BKN,3000.00,4000.00,4500.00,10000.00,VCSH,M,M,M,M,M,M,75.20,SBAN 271800Z 01005KT 330V040 9999 VCSH SCT030 FEW040TCU BKN045 BKN100 24/19 Q1018,M
SBGR,2025-01-27 19:00,73.40,69.80,88.51,160.00,10.00,0.00,29.97,M,6.21,M,SCT,BKN,OVC,M,1500.00,4000.00,8000.00,M,-RA,M,M,M,M,M,M,73.40,SBGR 271900Z 16010KT 9999 -RA SCT015 BKN040 OVC080 23/21 Q1015,M
SBAN,2025-01-27 19:00,73.40,68.00,83.21,110.00,3.00,0.00,30.06,M,6.21,M,FEW,FEW,SCT,BKN,3000.00,4000.00,4500.00,10000.00,VCSH,M,M,M,M,M,M,73.40,SBAN 271900Z 11003KT 030V160 9999 VCSH FEW030 FEW040TCU SCT045 BKN100 23/20 Q1018,M
SBAN,2025-01-27 20:00,73.40,68.00,83.21,170.00,4.00,0.00,30.03,M,6.21,M,FEW,FEW,SCT,BKN,3000.00,4000.00,4500.00,10000.00,VCSH,M,M,M,M,M,M,73.40,SBAN 272000Z 17004KT 130V200 9999 VCSH FEW030 FEW040TCU SCT045 BKN100 23/20 Q1017,M
SBGR,2025-01-27 20:00,73.40,68.00,83.21,160.00,7.00,0.00,29.97,M,6.21,M,BKN,BKN,OVC,M,1300.00,4000.00,8000.00,M,-RA,M,M,M,M,M,M,73.40,SBGR 272000Z 16007KT 9999 -RA BKN013 BKN040 OVC080 23/20 Q1015,M
SBGR,2025-01-27 20:44,69.80,68.00,94.01,160.00,4.00,0.00,29.97,M,2.17,M,BKN,BKN,OVC,M,1100.00,4000.00,8000.00,M,+RA,M,M,M,M,M,M,69.80,SBGR 272044Z 16004KT 3500 +RA BKN011 BKN040 OVC080 21/20 Q1015,M
SBGR,2025-01-27 21:00,69.80,68.00,94.01,150.00,5.00,0.00,29.97,M,2.80,M,BKN,BKN,OVC,M,1100.00,4000.00,8000.00,M,RA,M,M,M,M,M,M,69.80,SBGR 272100Z 15005KT 4500 RA BKN011 BKN040 OVC080 21/20 Q1015 RERA,M
SBAN,2025-01-27 21:00,73.40,68.00,83.21,60.00,3.00,0.00,30.03,M,6.21,M,FEW,SCT,BKN,M,3000.00,4500.00,9000.00,M,M,M,M,M,M,M,M,73.40,SBAN 272100Z 06003KT 010V090 9999 FEW030 SCT045 BKN090 23/20 Q1017,M
SBGR,2025-01-27 21:10,69.80,68.00,94.01,160.00,4.00,0.00,29.97,M,2.80,M,BKN,BKN,OVC,M,900.00,4000.00,8000.00,M,-RA,M,M,M,M,M,M,69.80,SBGR 272110Z 16004KT 4500 -RA BKN009 BKN040 OVC080 21/20 Q1015 RERA,M
SBAN,2025-01-27 22:00,71.60,69.80,94.06,120.00,4.00,0.00,30.00,M,6.21,M,SCT,BKN,M,M,4500.00,9000.00,M,M,M,M,M,M,M,M,M,71.60,SBAN 272200Z 12004KT 9999 SCT045 BKN090 22/21 Q1016,M
SBGR,2025-01-27 22:00,69.80,68.00,94.01,140.00,5.00,0.00,29.97,M,6.21,M,BKN,BKN,OVC,M,900.00,4000.00,8000.00,M,-RA,M,M,M,M,M,M,69.80,SBGR 272200Z 14005KT 9999 -RA BKN009 BKN040 OVC080 21/20 Q1015 RERA,M
SBGR,2025-01-27 23:00,69.80,68.00,94.01,150.00,5.00,0.00,30.00,M,6.21,M,OVC,M,M,M,900.00,M,M,M,M,M,M,M,M,M,M,69.80,SBGR 272300Z 15005KT 9999 OVC009 21/20 Q1016,M
SBAN,2025-01-27 23:00,69.80,68.00,94.01,120.00,3.00,0.00,30.03,M,6.21,M,FEW,BKN,M,M,4500.00,9000.00,M,M,M,M,M,M,M,M,M,69.80,SBAN 272300Z 12003KT 9999 FEW045 BKN090 21/20 Q1017,M
SBAN,2025-01-28 00:00,69.80,68.00,94.01,140.00,2.00,0.00,30.06,M,6.21,M,FEW,SCT,M,M,4500.00,9000.00,M,M,M,M,M,M,M,M,M,69.80,SBAN 280000Z 14002KT 9999 FEW045 SCT090 21/20 Q1018,M
SBGR,2025-01-28 00:00,69.80,68.00,94.01,90.00,5.00,0.00,30.00,M,6.21,M,OVC,M,M,M,900.00,M,M,M,M,M,M,M,M,M,M,69.80,SBGR 280000Z 09005KT 9999 OVC009 21/20 Q1016,M
SBGR,2025-01-28 00:30,69.80,66.20,88.34,120.00,3.00,0.00,30.03,M,6.21,M,BKN,M,M,M,2000.00,M,M,M,M,M,M,M,M,M,M,69.80,SBGR 280030Z 12003KT 9999 BKN020 21/19 Q1017,M
SBGR,2025-01-28 01:00,68.00,66.20,93.97,130.00,2.00,0.00,30.03,M,6.21,M,BKN,BKN,M,M,2300.00,3000.00,M,M,M,M,M,M,M,M,M,68.00,SBGR 280100Z 13002KT 9999 BKN023 BKN030 20/19 Q1017,M
SBAN,2025-01-28 01:00,68.00,68.00,100.00,300.00,1.00,0.00,30.12,M,6.21,M,FEW,M,M,M,4500.00,M,M,M,M,M,M,M,M,M,M,68.00,SBAN 280100Z 30001KT 9999 FEW045 20/20 Q1020,M
SBAN,2025-01-28 02:00,69.80,69.80,100.00,70.00,2.00,0.00,30.15,M,6.21,M,FEW,SCT,M,M,4500.00,8000.00,M,M,M,M,M,M,M,M,M,69.80,SBAN 280200Z 07002KT 9999 FEW045 SCT080 21/21 Q1021,M
SBGR,2025-01-28 02:00,68.00,66.20,93.97,190.00,1.00,0.00,30.03,M,6.21,M,FEW,M,M,M,2500.00,M,M,M,M,M,M,M,M,M,M,68.00,SBGR 280200Z 19001KT 9999 FEW025 20/19 Q1017,M
SBGR,2025-01-28 03:00,68.00,66.20,93.97,0.00,0.00,0.00,30.03,M,6.21,M,FEW,SCT,M,M,1100.00,2100.00,M,M,M,M,M,M,M,M,M,68.00,SBGR 280300Z 00000KT 9999 FEW011 SCT021 20/19 Q1017,M
SBAN,2025-01-28 03:00,69.80,68.00,94.01,90.00,2.00,0.00,30.12,M,6.21,M,FEW,SCT,M,M,4500.00,8000.00,M,M,M,M,M,M,M,M,M,69.80,SBAN 280300Z 09002KT 9999 FEW045 SCT080 21/20 Q1020,M
SBAN,2025-01-28 04:00,69.80,68.00,94.01,80.00,2.00,0.00,30.15,M,6.21,M,FEW,SCT,M,M,3000.00,8000.00,M,M,M,M,M,M,M,M,M,69.80,SBAN 280400Z 08002KT 9999 FEW030 SCT080 21/20 Q1021,M
SBGR,2025-01-28 04:00,66.20,66.20,100.00,0.00,0.00,0.00,30.00,M,6.21,M,M,M,M,M,M,M,M,M,M,M,M,M,M,M,M,66.20,SBGR 280400Z 00000KT CAVOK 19/19 Q1016,M
SBAN,2025-01-28 05:00,69.80,68.00,94.01,50.00,3.00,0.00,30.15,M,6.21,M,FEW,SCT,M,M,3000.00,8000.00,M,M,M,M,M,M,M,M,M,69.80,SBAN 280500Z 05003KT 9999 FEW030 SCT080 21/20 Q1021,M
SBGR,2025-01-28 05:00,66.20,66.20,100.00,180.00,1.00,0.00,29.97,M,6.21,M,M,M,M,M,M,M,M,M,M,M,M,M,M,M,M,66.20,SBGR 280500Z 18001KT CAVOK 19/19 Q1015,M
SBGR,2025-01-28 06:00,66.20,66.20,100.00,0.00,0.00,0.00,29.97,M,6.21,M,M,M,M,M,M,M,M,M,M,M,M,M,M,M,M,66.20,SBGR 280600Z 00000KT CAVOK 19/19 Q1015,M
SBAN,2025-01-28 06:00,68.00,66.20,93.97,60.00,3.00,0.00,30.15,M,6.21,M,FEW,M,M,M,3000.00,M,M,M,M,M,M,M,M,M,M,68.00,SBAN 280600Z 06003KT 9999 FEW030 20/19 Q1021,M
SBGR,2025-01-28 07:00,66.20,64.40,93.92,90.00,2.00,0.00,29.97,M,6.21,M,SCT,M,M,M,900.00,M,M,M,M,M,M,M,M,M,M,66.20,SBGR 280700Z 09002KT 9999 SCT009 19/18 Q1015,M
SBAN,2025-01-28 07:00,68.00,66.20,93.97,130.00,4.00,0.00,30.15,M,6.21,M,FEW,M,M,M,4000.00,M,M,M,M,M,M,M,M,M,M,68.00,SBAN 280700Z 13004KT 9999 FEW040 20/19 Q1021,M
SBGR,2025-01-28 08:00,66.20,66.20,100.00,290.00,1.00,0.00,29.97,M,5.59,M,BKN,M,M,M,900.00,M,M,M,M,M,M,M,M,M,M,66.20,SBGR 280800Z 29001KT 9000 BKN009 19/19 Q1015,M
SBAN,2025-01-28 08:00,66.20,66.20,100.00,150.00,5.00,0.00,30.15,M,6.21,M,FEW,M,M,M,4000.00,M,M,M,M,M,M,M,M,M,M,66.20,SBAN 280800Z 15005KT 9999 FEW040 19/19 Q1021,M
SBGR,2025-01-28 09:00,68.00,66.20,93.97,20.00,2.00,0.00,30.00,M,4.35,M,SCT,OVC,M,M,800.00,1500.00,M,M,M,M,M,M,M,M,M,68.00,SBGR 280900Z 02002KT 7000 SCT008 OVC015 20/19 Q1016,M
SBAN,2025-01-28 09:00,68.00,64.40,88.26,200.00,4.00,0.00,30.06,M,6.21,M,FEW,M,M,M,2000.00,M,M,M,M,M,M,M,M,M,M,68.00,SBAN 280900Z 20004KT 9999 FEW020 20/18 Q1018,M
SBGR,2025-01-28 10:00,68.00,66.20,93.97,110.00,2.00,0.00,30.00,M,3.73,M,BKN,M,M,M,1500.00,M,M,M,M,M,M,M,M,M,M,68.00,SBGR 281000Z 11002KT 6000 BKN015 20/19 Q1016,M
SBAN,2025-01-28 10:00,69.80,64.40,82.98,220.00,5.00,0.00,30.09,M,6.21,M,FEW,M,M,M,2000.00,M,M,M,M,M,M,M,M,M,M,69.80,SBAN 281000Z 22005KT 9999 FEW020 21/18 Q1019,M
SBGR,2025-01-28 10:25,69.80,68.00,94.01,80.00,3.00,0.00,30.00,M,2.49,M,BKN,BKN,M,M,900.00,2000.00,M,M,BR,M,M,M,M,M,M,69.80,SBGR 281025Z 08003KT 4000 BR BKN009 BKN020 21/20 Q1016,M
SBAN,2025-01-28 11:00,71.60,66.20,83.09,170.00,3.00,0.00,30.12,M,6.21,M,FEW,M,M,M,2000.00,M,M,M,M,M,M,M,M,M,M,71.60,SBAN 281100Z 17003KT 9999 FEW020 22/19 Q1020,M
SBGR,2025-01-28 11:00,71.60,68.00,88.43,170.00,2.00,0.00,30.00,M,2.80,M,BKN,BKN,M,M,1000.00,2000.00,M,M,BR,M,M,M,M,M,M,71.60,SBGR 281100Z 17002KT 4500 BR BKN010 BKN020 22/20 Q1016,M
SBGR,2025-01-28 12:00,73.40,68.00,83.21,150.00,2.00,0.00,30.03,M,3.11,M,SCT,BKN,M,M,1300.00,2500.00,M,M,BR,M,M,M,M,M,M,73.40,SBGR 281200Z 15002KT 5000 BR SCT013 BKN025 23/20 Q1017,M
SBAN,2025-01-28 12:00,73.40,66.20,78.19,140.00,3.00,0.00,30.12,M,6.21,M,FEW,M,M,M,2000.00,M,M,M,M,M,M,M,M,M,M,73.40,SBAN 281200Z 14003KT 9999 FEW020 23/19 Q1020,M
SBAN,2025-01-28 13:00,73.40,68.00,83.21,130.00,4.00,0.00,30.15,M,6.21,M,FEW,M,M,M,2000.00,M,M,M,M,M,M,M,M,M,M,73.40,SBAN 281300Z 13004KT 9999 FEW020 23/20 Q1021,M
SBGR,2025-01-28 13:00,75.20,68.00,78.34,0.00,0.00,0.00,30.03,M,4.97,M,SCT,BKN,M,M,1500.00,2500.00,M,M,M,M,M,M,M,M,M,75.20,SBGR 281300Z 00000KT 8000 SCT015 BKN025 24/20 Q1017,M
SBAN,2025-01-28 14:00,77.00,68.00,73.78,180.00,4.00,0.00,30.15,M,6.21,M,SCT,M,M,M,2000.00,M,M,M,M,M,M,M,M,M,M,77.00,SBAN 281400Z 18004KT 9999 SCT020 25/20 Q1021,M
SBGR,2025-01-28 14:00,78.80,68.00,69.52,360.00,4.00,0.00,30.00,M,6.21,M,BKN,M,M,M,2500.00,M,M,M,M,M,M,M,M,M,M,78.80,SBGR 281400Z 36004KT 9999 BKN025 26/20 Q1016,M
SBGR,2025-01-28 15:00,82.40,68.00,61.81,340.00,7.00,0.00,30.00,M,6.21,M,BKN,M,M,M,3000.00,M,M,M,M,M,M,M,M,M,M,85.38,SBGR 281500Z 34007KT 9999 BKN030 28/20 Q1016,M
SBAN,2025-01-28 15:00,78.80,68.00,69.52,130.00,4.00,0.00,30.12,M,6.21,M,SCT,FEW,M,M,2000.00,3500.00,M,M,M,M,M,M,M,M,M,78.80,SBAN 281500Z 13004KT 9999 SCT020 FEW035TCU 26/20 Q1020,M
SBAN,2025-01-28 16:00,82.40,68.00,61.81,40.00,4.00,0.00,30.09,M,6.21,M,SCT,FEW,M,M,2000.00,3500.00,M,M,M,M,M,M,M,M,M,85.38,SBAN 281600Z 04004KT 9999 SCT020 FEW035TCU 28/20 Q1019,M
SBGR,2025-01-28 16:00,75.20,71.60,88.59,110.00,6.00,0.00,29.97,M,6.21,M,BKN,FEW,M,M,3000.00,4000.00,M,M,M,M,M,M,M,M,M,75.20,SBGR 281600Z 11006KT 9999 BKN030 FEW040TCU 24/22 Q1015,M
SBGR,2025-01-28 16:15,75.20,69.80,83.32,130.00,7.00,0.00,29.97,M,6.21,M,BKN,FEW,M,M,3000.00,4000.00,M,M,TS VCSH,M,M,M,M,M,M,75.20,SBGR 281615Z 13007KT 9999 TS VCSH BKN030 FEW040CB 24/21 Q1015,M
SBAN,2025-01-28 17:00,80.60,64.40,57.84,200.00,3.00,0.00,30.06,M,6.21,M,SCT,FEW,SCT,M,2000.00,3500.00,7000.00,M,M,M,M,M,M,M,M,82.27,SBAN 281700Z 20003KT 9999 SCT020 FEW035TCU SCT070 27/18 Q1018,M
SBGR,2025-01-28 17:00,75.20,69.80,83.32,130.00,6.00,0.00,29.94,M,3.73,M,BKN,FEW,M,M,3000.00,4000.00,M,M,-TSRA,M,M,M,M,M,M,75.20,SBGR 281700Z 13006KT 6000 -TSRA BKN030 FEW040CB 24/21 Q1014,M
SBGR,2025-01-28 17:10,73.40,69.80,88.51,90.00,8.00,0.00,29.97,M,1.86,M,BKN,FEW,M,M,3000.00,4000.00,M,M,TSRA,M,M,M,M,M,M,73.40,SBGR 281710Z 09008KT 3000 TSRA BKN030 FEW040CB 23/21 Q1015,M
SBGR,2025-01-28 18:00,73.40,69.80,88.51,60.00,9.00,0.00,29.94,M,3.73,M,FEW,BKN,FEW,M,700.00,3000.00,4000.00,M,-RA,M,M,M,M,M,M,73.40,SBGR 281800Z 06009KT 6000 -RA FEW007 BKN030 FEW040TCU 23/21 Q1014 RETSRA,M
SBAN,2025-01-28 18:00,75.20,66.20,73.61,70.00,5.00,0.00,30.03,M,6.21,M,BKN,FEW,BKN,M,2000.00,3500.00,7000.00,M,SHRA,M,M,M,M,M,M,75.20,SBAN 281800Z 07005KT 9999 SHRA BKN020 FEW035TCU BKN070 24/19 Q1017,M
SBGR,2025-01-28 18:40,73.40,71.60,94.10,180.00,2.00,0.00,29.94,M,3.11,M,BKN,FEW,BKN,M,800.00,4000.00,10000.00,M,-RA BR,M,M,M,M,M,M,73.40,SBGR 281840Z 18002KT 5000 -RA BR BKN008 FEW040TCU BKN100 23/22 Q1014,M
SBGR,2025-01-28 19:00,73.40,71.60,94.10,110.00,5.00,0.00,29.94,M,2.49,M,BKN,FEW,BKN,M,900.00,4000.00,10000.00,M,-RA BR,M,M,M,M,M,M,73.40,SBGR 281900Z 11005KT 4000 -RA BR BKN009 FEW040TCU BKN100 23/22 Q1014,M
SBAN,2025-01-28 19:00,77.00,69.80,78.48,80.00,3.00,0.00,30.00,M,6.21,M,SCT,FEW,BKN,M,2000.00,3500.00,7000.00,M,TS VCSH,M,M,M,M,M,M,77.00,SBAN 281900Z 08003KT 9999 TS VCSH SCT020 FEW035CB BKN070 25/21 Q1016,M
SBAN,2025-01-28 20:00,75.20,68.00,78.34,170.00,2.00,0.00,29.97,M,6.21,M,SCT,FEW,BKN,M,2000.00,3500.00,7000.00,M,VCTS,M,M,M,M,M,M,75.20,SBAN 282000Z 17002KT 9999 VCTS SCT020 FEW035CB BKN070 24/20 Q1015 RETS,M
SBGR,2025-01-28 20:00,73.40,71.60,94.10,130.00,4.00,0.00,29.94,M,3.04,M,BKN,FEW,BKN,M,800.00,4000.00,7000.00,M,-RA BR,M,M,M,M,M,M,73.40,SBGR 282000Z 13004KT 4900 -RA BR BKN008 FEW040TCU BKN070 23/22 Q1014,M
SBAN,2025-01-28 21:00,77.00,68.00,73.78,110.00,2.00,0.00,29.97,M,6.21,M,SCT,FEW,BKN,M,2000.00,3500.00,7000.00,M,M,M,M,M,M,M,M,77.00,SBAN 282100Z 11002KT 9999 SCT020 FEW035TCU BKN070 25/20 Q1015,M
SBGR,2025-01-28 21:00,73.40,71.60,94.10,140.00,1.00,0.00,29.94,M,3.73,M,BKN,OVC,M,M,800.00,7000.00,M,M,-RA,M,M,M,M,M,M,73.40,SBGR 282100Z 14001KT 6000 -RA BKN008 OVC070 23/22 Q1014,M
SBGR,2025-01-28 22:00,71.60,69.80,94.06,120.00,3.00,0.00,29.94,M,3.11,M,FEW,OVC,M,M,800.00,7000.00,M,M,-RA BR,M,M,M,M,M,M,71.60,SBGR 282200Z 12003KT 5000 -RA BR FEW008 OVC070 22/21 Q1014,M
SBAN,2025-01-28 22:00,73.40,69.80,88.51,0.00,0.00,0.00,30.00,M,6.21,M,SCT,FEW,BKN,M,2000.00,3500.00,7000.00,M,VCSH,M,M,M,M,M,M,73.40,SBAN 282200Z 00000KT 9999 VCSH SCT020 FEW035TCU BKN070 23/21 Q1016,M
SBAN,2025-01-28 23:00,71.60,68.00,88.43,310.00,1.00,0.00,30.03,M,6.21,M,FEW,FEW,SCT,M,3000.00,3500.00,7000.00,M,VCTS VCSH,M,M,M,M,M,M,71.60,SBAN 282300Z 31001KT 9999 VCTS VCSH FEW030 FEW035CB SCT070 22/20 Q1017,M
SBGR,2025-01-28 23:00,71.60,69.80,94.06,110.00,3.00,0.00,29.97,M,4.35,M,FEW,BKN,M,M,800.00,7000.00,M,M,-RA,M,M,M,M,M,M,71.60,SBGR 282300Z 11003KT 7000 -RA FEW008 BKN070 22/21 Q1015,M
SBGR,2025-01-29 00:00,71.60,69.80,94.06,200.00,1.00,0.00,30.00,M,5.59,M,BKN,BKN,M,M,800.00,10000.00,M,M,-RA,M,M,M,M,M,M,71.60,SBGR 290000Z 20001KT 9000 -RA BKN008 BKN100 22/21 Q1016,M
SBAN,2025-01-29 00:00,73.40,68.00,83.21,150.00,3.00,0.00,30.06,M,6.21,M,FEW,FEW,SCT,M,3000.00,3500.00,7000.00,M,VCTS,M,M,M,M,M,M,73.40,SBAN 290000Z 15003KT 9999 VCTS FEW030 FEW035CB SCT070 23/20 Q1018,M
SBAN,2025-01-29 01:00,69.80,68.00,94.01,0.00,0.00,0.00,30.09,M,6.21,M,FEW,FEW,M,M,3000.00,3500.00,M,M,VCTS,M,M,M,M,M,M,69.80,SBAN 290100Z 00000KT 9999 VCTS FEW030 FEW035CB 21/20 Q1019,M
SBGR,2025-01-29 01:00,71.60,69.80,94.06,120.00,3.00,0.00,30.00,M,5.59,M,SCT,BKN,M,M,900.00,8000.00,M,M,-RA,M,M,M,M,M,M,71.60,SBGR 290100Z 12003KT 9000 -RA SCT009 BKN080 22/21 Q1016,M
SBAN,2025-01-29 02:00,69.80,68.00,94.01,0.00,0.00,0.00,30.09,M,6.21,M,FEW,FEW,M,M,3000.00,3500.00,M,M,VCTS,M,M,M,M,M,M,69.80,SBAN 290200Z 00000KT 9999 VCTS FEW030 FEW035CB 21/20 Q1019,M
SBGR,2025-01-29 02:00,71.60,69.80,94.06,140.00,1.00,0.00,30.00,M,5.59,M,FEW,OVC,M,M,700.00,1000.00,M,M,-RA,M,M,M,M,M,M,71.60,SBGR 290200Z 14001KT 9000 -RA FEW007 OVC010 22/21 Q1016,M
SBGR,2025-01-29 03:00,71.60,69.80,94.06,120.00,2.00,0.00,30.00,M,6.21,M,BKN,BKN,M,M,1000.00,8000.00,M,M,-RA,M,M,M,M,M,M,71.60,SBGR 290300Z 12002KT 9999 -RA BKN010 BKN080 22/21 Q1016,M
SBAN,2025-01-29 03:00,69.80,68.00,94.01,250.00,2.00,0.00,30.09,M,6.21,M,FEW,FEW,M,M,3000.00,3500.00,M,M,VCTS,M,M,M,M,M,M,69.80,SBAN 290300Z 25002KT 9999 VCTS FEW030 FEW035CB 21/20 Q1019,M
SBGR,2025-01-29 04:00,71.60,69.80,94.06,130.00,2.00,0.00,29.97,M,4.97,M,FEW,BKN,M,M,500.00,900.00,M,M,M,M,M,M,M,M,M,71.60,SBGR 290400Z 13002KT 8000 FEW005 BKN009 22/21 Q1015,M
SBAN,2025-01-29 04:00,66.20,64.40,93.92,240.00,4.00,0.00,30.09,M,6.21,M,FEW,M,M,M,3500.00,M,M,M,M,M,M,M,M,M,M,66.20,SBAN 290400Z 24004KT 9999 FEW035 19/18 Q1019,M
SBAN,2025-01-29 05:00,66.20,64.40,93.92,240.00,4.00,0.00,30.09,M,6.21,M,FEW,M,M,M,3500.00,M,M,M,M,M,M,M,M,M,M,66.20,SBAN 290500Z 24004KT 9999 FEW035 19/18 Q1019,M
SBGR,2025-01-29 05:00,71.60,69.80,94.06,110.00,2.00,0.00,29.97,M,4.97,M,SCT,OVC,M,M,600.00,1000.00,M,M,M,M,M,M,M,M,M,71.60,SBGR 290500Z 11002KT 8000 SCT006 OVC010 22/21 Q1015,M
SBGR,2025-01-29 06:00,71.60,69.80,94.06,130.00,3.00,0.00,29.94,M,4.97,M,SCT,OVC,M,M,500.00,900.00,M,M,-RA,M,M,M,M,M,M,71.60,SBGR 290600Z 13003KT 8000 -RA SCT005 OVC009 22/21 Q1014,M
SBAN,2025-01-29 06:00,68.00,68.00,100.00,160.00,5.00,0.00,30.06,M,6.21,M,FEW,FEW,M,M,3000.00,3500.00,M,M,VCTS VCSH,M,M,M,M,M,M,68.00,SBAN 290600Z 16005KT 9999 VCTS VCSH FEW030 FEW035CB 20/20 Q1018,M
SBAN,2025-01-29 06:08,68.00,68.00,100.00,180.00,4.00,0.00,30.06,M,6.21,M,FEW,BKN,FEW,M,700.00,2000.00,3500.00,M,SHRA TS,M,M,M,M,M,M,68.00,SBAN 290608Z 18004KT 9999 4000S SHRA TS FEW007 BKN020 FEW035CB 20/20 Q1018,M
SBAN,2025-01-29 07:00,64.40,64.40,100.00,180.00,7.00,0.00,30.06,M,1.86,M,BKN,BKN,FEW,M,400.00,2000.00,3500.00,M,TSRA,M,M,M,M,M,M,64.40,SBAN 290700Z 18007KT 3000 TSRA BKN004 BKN020 FEW035CB 18/18 Q1018,M
SBGR,2025-01-29 07:00,71.60,69.80,94.06,120.00,3.00,0.00,29.94,M,6.21,M,SCT,BKN,M,M,600.00,1100.00,M,M,M,M,M,M,M,M,M,71.60,SBGR 290700Z 12003KT 9999 SCT006 BKN011 22/21 Q1014,M
SBAN,2025-01-29 08:00,64.40,64.40,100.00,310.00,4.00,0.00,30.06,M,3.11,M,SCT,BKN,FEW,M,400.00,2000.00,3500.00,M,-TSRA,M,M,M,M,M,M,64.40,SBAN 290800Z 31004KT 5000 -TSRA SCT004 BKN020 FEW035CB 18/18 Q1018 RERA,M
SBGR,2025-01-29 08:00,71.60,69.80,94.06,120.00,2.00,0.00,29.94,M,4.35,M,SCT,BKN,M,M,500.00,900.00,M,M,-RA,M,M,M,M,M,M,71.60,SBGR 290800Z 12002KT 7000 -RA SCT005 BKN009 22/21 Q1014,M
SBAN,2025-01-29 09:00,66.20,66.20,100.00,270.00,7.00,0.00,30.06,M,3.11,M,FEW,FEW,BKN,M,3000.00,3500.00,8000.00,M,-RA,M,M,M,M,M,M,66.20,SBAN 290900Z 27007KT 5000 -RA FEW030 FEW035TCU BKN080 19/19 Q1018 RETS,M
SBGR,2025-01-29 09:00,71.60,69.80,94.06,90.00,3.00,0.00,29.94,M,5.59,M,BKN,BKN,M,M,900.00,8000.00,M,M,-RA,M,M,M,M,M,M,71.60,SBGR 290900Z 09003KT 9000 -RA BKN009 BKN080 22/21 Q1014,M
SBAN,2025-01-29 10:00,66.20,64.40,93.92,180.00,8.00,0.00,30.06,M,6.21,M,FEW,FEW,BKN,M,3000.00,3500.00,8000.00,M,-RA,M,M,M,M,M,M,66.20,SBAN 291000Z 18008KT 9999 -RA FEW030 FEW035TCU BKN080 19/18 Q1018,M
SBGR,2025-01-29 10:00,71.60,69.80,94.06,60.00,5.00,0.00,29.97,M,4.97,M,BKN,BKN,M,M,1100.00,8000.00,M,M,M,M,M,M,M,M,M,71.60,SBGR 291000Z 06005KT 8000 BKN011 BKN080 22/21 Q1015,M
SBAN,2025-01-29 11:00,68.00,66.20,93.97,200.00,5.00,0.00,30.09,M,6.21,M,FEW,BKN,M,M,3000.00,9000.00,M,M,M,M,M,M,M,M,M,68.00,SBAN 291100Z 20005KT 160V260 9999 FEW030 BKN090 20/19 Q1019,M
SBGR,2025-01-29 11:00,71.60,69.80,94.06,60.00,5.00,0.00,29.97,M,5.59,M,BKN,BKN,M,M,1100.00,8000.00,M,M,M,M,M,M,M,M,M,71.60,SBGR 291100Z 06005KT 9000 BKN011 BKN080 22/21 Q1015,M
SBGR,2025-01-29 12:00,75.20,69.80,83.32,90.00,5.00,0.00,29.97,M,6.21,M,BKN,M,M,M,1300.00,M,M,M,M,M,M,M,M,M,M,75.20,SBGR 291200Z 09005KT 9999 BKN013 24/21 Q1015,M
SBAN,2025-01-29 12:00,69.80,64.40,82.98,220.00,4.00,0.00,30.12,M,6.21,M,FEW,BKN,M,M,3000.00,10000.00,M,M,M,M,M,M,M,M,M,69.80,SBAN 291200Z 22004KT 9999 FEW030 BKN100 21/18 Q1020,M
SBGR,2025-01-29 13:00,77.00,69.80,78.48,80.00,3.00,0.00,30.00,M,6.21,M,SCT,M,M,M,1700.00,M,M,M,M,M,M,M,M,M,M,77.00,SBGR 291300Z 08003KT 9999 SCT017 25/21 Q1016,M
SBGR,2025-01-29 14:00,80.60,69.80,69.71,20.00,5.00,0.00,29.97,M,6.21,M,SCT,M,M,M,2100.00,M,M,M,M,M,M,M,M,M,M,83.90,SBGR 291400Z 02005KT 9999 SCT021 27/21 Q1015,M
SBAN,2025-01-29 14:00,75.20,66.20,73.61,100.00,4.00,0.00,30.12,M,6.21,M,M,M,M,M,M,M,M,M,M,M,M,M,M,M,M,75.20,SBAN 291400Z 10004KT 060V140 CAVOK 24/19 Q1020,M
SBGR,2025-01-29 14:42,77.00,71.60,83.44,190.00,4.00,0.00,29.97,M,6.21,M,SCT,FEW,M,M,2100.00,4000.00,M,M,TS,M,M,M,M,M,M,77.00,SBGR 291442Z 19004KT 9999 TS SCT021 FEW040CB 25/22 Q1015,M
SBAN,2025-01-29 15:00,78.80,68.00,69.52,40.00,6.00,0.00,30.09,M,6.21,M,FEW,BKN,M,M,3500.00,10000.00,M,M,M,M,M,M,M,M,M,78.80,SBAN 291500Z 04006KT 010V080 9999 FEW035 BKN100 26/20 Q1019,M
SBGR,2025-01-29 15:00,75.20,69.80,83.32,70.00,9.00,0.00,29.97,M,3.11,M,SCT,FEW,M,M,2100.00,4000.00,M,M,-TSRA,M,M,M,M,M,M,75.20,SBGR 291500Z 07009KT 5000 -TSRA SCT021 FEW040CB 24/21 Q1015,M
SBAN,2025-01-29 16:00,80.60,68.00,65.54,M,4.00,0.00,30.09,M,6.21,M,FEW,BKN,M,M,3500.00,10000.00,M,M,M,M,M,M,M,M,M,83.29,SBAN 291600Z VRB04KT 9999 FEW035 BKN100 27/20 Q1019,M
SBGR,2025-01-29 16:00,71.60,68.00,88.43,260.00,4.00,0.00,29.97,M,2.49,M,BKN,FEW,BKN,M,2000.00,4000.00,9000.00,M,-TSRA BR,M,M,M,M,M,M,71.60,COR SBGR 291600Z 26004KT 4000 -TSRA BR BKN020 FEW040CB BKN090 22/20 Q1015 WS R10R,M
SBAN,2025-01-29 17:00,82.40,66.20,58.08,340.00,7.00,0.00,30.03,M,6.21,M,BKN,FEW,BKN,M,3500.00,4000.00,10000.00,M,VCTS,M,M,M,M,M,M,84.63,SBAN 291700Z 34007KT 290V040 9999 VCTS BKN035 FEW040CB BKN100 28/19 Q1017,M
SBGR,2025-01-29 17:00,69.80,68.00,94.01,170.00,2.00,0.00,29.94,M,3.73,M,SCT,BKN,M,M,4000.00,8000.00,M,M,-RA,M,M,M,M,M,M,69.80,SBGR 291700Z 17002KT 6000 -RA SCT040 BKN080 21/20 Q1014 RETS,M
SBAN,2025-01-29 18:00,78.80,68.00,69.52,260.00,4.00,0.00,30.00,M,6.21,M,BKN,FEW,BKN,M,3500.00,4000.00,9000.00,M,-RA,M,M,M,M,M,M,78.80,SBAN 291800Z 26004KT 200V320 9999 -RA BKN035 FEW040TCU BKN090 26/20 Q1016,M
SBGR,2025-01-29 18:00,71.60,69.80,94.06,230.00,3.00,0.00,29.94,M,4.35,M,SCT,SCT,OVC,M,700.00,4000.00,8000.00,M,-RA,M,M,M,M,M,M,71.60,SBGR 291800Z 23003KT 7000 -RA SCT007 SCT040 OVC080 22/21 Q1014,M
SBGR,2025-01-29 18:22,71.60,69.80,94.06,240.00,5.00,0.00,29.94,M,2.49,M,BKN,SCT,OVC,M,900.00,3000.00,8000.00,M,-RA BR,M,M,M,M,M,M,71.60,SBGR 291822Z 24005KT 4000 -RA BR BKN009 SCT030 OVC080 22/21 Q1014,M
SBAN,2025-01-29 19:00,80.60,62.60,54.30,290.00,3.00,0.00,29.97,M,6.21,M,BKN,FEW,BKN,M,3500.00,4000.00,9000.00,M,VCSH,M,M,M,M,M,M,81.84,SBAN 291900Z 29003KT 230V010 9999 VCSH BKN035 FEW040TCU BKN090 27/17 Q1015,M
SBGR,2025-01-29 19:00,71.60,69.80,94.06,170.00,3.00,0.00,29.91,M,3.11,M,BKN,SCT,OVC,M,900.00,3000.00,8000.00,M,BR,M,M,M,M,M,M,71.60,SBGR 291900Z 17003KT 5000 BR BKN009 SCT030 OVC080 22/21 Q1013,M
SBGR,2025-01-29 20:00,73.40,69.80,88.51,0.00,0.00,0.00,29.91,M,2.80,M,BKN,OVC,M,M,1300.00,8000.00,M,M,BR,M,M,M,M,M,M,73.40,SBGR 292000Z 00000KT 4500 BR BKN013 OVC080 23/21 Q1013,M
SBAN,2025-01-29 20:00,80.60,64.40,57.84,M,3.00,0.00,29.97,M,6.21,M,BKN,FEW,BKN,M,3500.00,4000.00,9000.00,M,M,M,M,M,M,M,M,82.27,SBAN 292000Z VRB03KT 9999 BKN035 FEW040TCU BKN090 27/18 Q1015,M
SBGR,2025-01-29 21:00,73.40,69.80,88.51,170.00,3.00,0.00,29.91,M,2.80,M,BKN,SCT,BKN,M,1300.00,2300.00,10000.00,M,BR,M,M,M,M,M,M,73.40,SBGR 292100Z 17003KT 4500 BR BKN013 SCT023 BKN100 23/21 Q1013,M
SBAN,2025-01-29 21:00,78.80,64.40,61.36,M,3.00,0.00,29.97,M,6.21,M,SCT,FEW,M,M,3500.00,4000.00,M,M,M,M,M,M,M,M,M,78.80,SBAN 292100Z VRB03KT 9999 SCT035 FEW040TCU 26/18 Q1015,M
SBGR,2025-01-29 22:00,73.40,69.80,88.51,100.00,5.00,0.00,29.94,M,4.97,M,BKN,SCT,OVC,M,1300.00,2300.00,9000.00,M,M,M,M,M,M,M,M,73.40,SBGR 292200Z 10005KT 8000 BKN013 SCT023 OVC090 23/21 Q1014,M
SBAN,2025-01-29 22:00,75.20,68.00,78.34,280.00,1.00,0.00,30.00,M,6.21,M,SCT,FEW,M,M,3500.00,4000.00,M,M,M,M,M,M,M,M,M,75.20,SBAN 292200Z 28001KT 9999 SCT035 FEW040TCU 24/20 Q1016,M
SBAN,2025-01-29 23:00,73.40,66.20,78.19,250.00,1.00,0.00,30.03,M,6.21,M,SCT,FEW,M,M,3500.00,4000.00,M,M,VCTS,M,M,M,M,M,M,73.40,SBAN 292300Z 25001KT 9999 VCTS SCT035 FEW040CB 23/19 Q1017,M
SBGR,2025-01-29 23:00,71.60,68.00,88.43,110.00,5.00,0.00,29.94,M,6.21,M,OVC,M,M,M,2100.00,M,M,M,M,M,M,M,M,M,M,71.60,SBGR 292300Z 11005KT 9999 OVC021 22/20 Q1014,M
SBGR,2025-01-30 00:00,71.60,68.00,88.43,80.00,9.00,0.00,29.94,M,6.21,M,BKN,OVC,M,M,1100.00,2500.00,M,M,-RA,M,M,M,M,M,M,71.60,SBGR 300000Z 08009KT 9999 -RA BKN011 OVC025 22/20 Q1014,M
SBAN,2025-01-30 00:00,73.40,68.00,83.21,150.00,4.00,0.00,30.06,M,6.21,M,FEW,FEW,M,M,3500.00,4000.00,M,M,VCTS,M,M,M,M,M,M,73.40,SBAN 300000Z 15004KT 9999 VCTS FEW035 FEW040CB 23/20 Q1018,M
SBGR,2025-01-30 01:00,71.60,68.00,88.43,80.00,5.00,0.00,29.97,M,6.21,M,BKN,M,M,M,1100.00,M,M,M,M,M,M,M,M,M,M,71.60,SBGR 300100Z 08005KT 9999 BKN011 22/20 Q1015,M
SBAN,2025-01-30 01:00,71.60,68.00,88.43,100.00,3.00,0.00,30.06,M,6.21,M,SCT,FEW,M,M,3500.00,4000.00,M,M,VCTS,M,M,M,M,M,M,71.60,SBAN 300100Z 10003KT 9999 VCTS SCT035 FEW040CB 22/20 Q1018,M
SBAN,2025-01-30 02:00,71.60,69.80,94.06,100.00,4.00,0.00,30.09,M,6.21,M,SCT,FEW,M,M,3500.00,4000.00,M,M,VCTS,M,M,M,M,M,M,71.60,SBAN 300200Z 10004KT 9999 VCTS SCT035 FEW040CB 22/21 Q1019,M
SBGR,2025-01-30 02:00,69.80,68.00,94.01,90.00,3.00,0.00,29.97,M,6.21,M,BKN,BKN,M,M,800.00,3300.00,M,M,M,M,M,M,M,M,M,69.80,SBGR 300200Z 09003KT 9999 BKN008 BKN033 21/20 Q1015,M
SBGR,2025-01-30 03:00,69.80,68.00,94.01,110.00,3.00,0.00,29.94,M,6.21,M,BKN,BKN,M,M,900.00,7000.00,M,M,M,M,M,M,M,M,M,69.80,SBGR 300300Z 11003KT 9999 BKN009 BKN070 21/20 Q1014,M
SBAN,2025-01-30 03:00,69.80,68.00,94.01,60.00,8.00,0.00,30.09,M,6.21,M,FEW,SCT,FEW,M,1000.00,3500.00,4000.00,M,VCTS,M,M,M,M,M,M,69.80,SBAN 300300Z 06008KT 9999 VCTS FEW010 SCT035 FEW040CB 21/20 Q1019,M
SBGR,2025-01-30 03:10,69.80,68.00,94.01,110.00,2.00,0.00,29.94,M,6.21,M,FEW,BKN,M,M,900.00,7000.00,M,M,M,M,M,M,M,M,M,69.80,SBGR 300310Z 11002KT 9999 FEW009 BKN070 21/20 Q1014,M
SBAN,2025-01-30 04:00,66.20,66.20,100.00,340.00,6.00,0.00,30.06,M,6.21,M,FEW,SCT,FEW,M,500.00,3500.00,4000.00,M,M,M,M,M,M,M,M,66.20,SBAN 300400Z 34006KT 9999 FEW005 SCT035 FEW040TCU 19/19 Q1018,M
SBGR,2025-01-30 04:00,69.80,68.00,94.01,0.00,0.00,0.00,29.94,M,6.21,M,BKN,M,M,M,1300.00,M,M,M,M,M,M,M,M,M,M,69.80,SBGR 300400Z 00000KT 9999 BKN013 21/20 Q1014,M
SBGR,2025-01-30 05:00,69.80,68.00,94.01,160.00,2.00,0.00,29.91,M,6.21,M,SCT,BKN,M,M,900.00,1300.00,M,M,M,M,M,M,M,M,M,69.80,SBGR 300500Z 16002KT 9999 SCT009 BKN013 21/20 Q1013,M
SBAN,2025-01-30 05:00,66.20,66.20,100.00,340.00,5.00,0.00,30.06,M,6.21,M,FEW,BKN,M,M,500.00,3500.00,M,M,M,M,M,M,M,M,M,66.20,SBAN 300500Z 34005KT 9999 FEW005 BKN035 19/19 Q1018,M
SBGR,2025-01-30 06:00,69.80,68.00,94.01,80.00,1.00,0.00,29.91,M,6.21,M,BKN,BKN,M,M,900.00,1500.00,M,M,M,M,M,M,M,M,M,69.80,SBGR 300600Z 08001KT 9999 BKN009 BKN015 21/20 Q1013,M
SBAN,2025-01-30 06:00,64.40,64.40,100.00,160.00,3.00,0.00,30.00,M,6.21,M,FEW,SCT,M,M,500.00,3500.00,M,M,M,M,M,M,M,M,M,64.40,SBAN 300600Z 16003KT 9999 FEW005 SCT035 18/18 Q1016,M
SBAN,2025-01-30 07:00,64.40,64.40,100.00,180.00,4.00,0.00,30.03,M,6.21,M,BKN,M,M,M,3500.00,M,M,M,M,M,M,M,M,M,M,64.40,SBAN 300700Z 18004KT 9999 BKN035 18/18 Q1017,M
SBGR,2025-01-30 07:00,69.80,68.00,94.01,0.00,0.00,0.00,29.91,M,6.21,M,BKN,BKN,M,M,500.00,2000.00,M,M,M,M,M,M,M,M,M,69.80,SBGR 300700Z 00000KT 9999 BKN005 BKN020 21/20 Q1013,M
SBAN,2025-01-30 08:00,64.40,64.40,100.00,190.00,5.00,0.00,30.03,M,6.21,M,BKN,M,M,M,3500.00,M,M,M,M,M,M,M,M,M,M,64.40,SBAN 300800Z 19005KT 9999 BKN035 18/18 Q1017,M
SBGR,2025-01-30 08:00,69.80,68.00,94.01,70.00,2.00,0.00,29.91,M,6.21,M,BKN,BKN,M,M,900.00,5000.00,M,M,M,M,M,M,M,M,M,69.80,SBGR 300800Z 07002KT 9999 BKN009 BKN050 21/20 Q1013,M
SBGR,2025-01-30 09:00,69.80,68.00,94.01,0.00,0.00,0.00,29.91,M,3.73,M,BKN,BKN,M,M,900.00,3300.00,M,M,M,M,M,M,M,M,M,69.80,SBGR 300900Z 00000KT 6000 BKN009 BKN033 21/20 Q1013,M
SBAN,2025-01-30 09:00,66.20,66.20,100.00,30.00,3.00,0.00,30.03,M,2.49,M,BKN,SCT,M,M,2000.00,3500.00,M,M,RA BR,M,M,M,M,M,M,66.20,SBAN 300900Z 03003KT 4000 RA BR BKN020 SCT035 19/19 Q1017,M
SBAN,2025-01-30 10:00,66.20,66.20,100.00,40.00,4.00,0.00,30.06,M,6.21,M,FEW,BKN,FEW,BKN,1000.00,1500.00,3500.00,7000.00,SHRA,M,M,M,M,M,M,66.20,COR SBAN 301000Z 04004KT 9999 3500E SHRA FEW010 BKN015 FEW035TCU BKN070 19/19 Q1018,M
SBGR,2025-01-30 10:00,71.60,68.00,88.43,60.00,3.00,0.00,29.94,M,4.35,M,SCT,BKN,BKN,M,800.00,1000.00,3500.00,M,-DZ,M,M,M,M,M,M,71.60,SBGR 301000Z 06003KT 7000 3000NE -DZ SCT008 BKN010 BKN035 22/20 Q1014,M
SBGR,2025-01-30 11:00,71.60,68.00,88.43,90.00,4.00,0.00,29.94,M,4.97,M,BKN,BKN,OVC,M,1000.00,3000.00,8000.00,M,M,M,M,M,M,M,M,71.60,SBGR 301100Z 09004KT 8000 BKN010 BKN030 OVC080 22/20 Q1014,M
SBAN,2025-01-30 11:00,64.40,64.40,100.00,330.00,4.00,0.00,30.09,M,0.62,M,BKN,BKN,FEW,BKN,200.00,1500.00,3500.00,7000.00,RA,M,M,M,M,M,M,64.40,SBAN 301100Z 33004KT 1000 R06L/P2000 R24R/P2000 RA BKN002 BKN015 FEW035TCU BKN070 18/18 Q1019 RERA,M
SBAN,2025-01-30 12:00,64.40,64.40,100.00,20.00,7.00,0.00,30.12,M,0.93,M,BKN,BKN,FEW,BKN,400.00,800.00,3500.00,7000.00,RA,M,M,M,M,M,M,64.40,SBAN 301200Z 02007KT 1500 R06L/P2000 R24R/P2000 RA BKN004 BKN008 FEW035TCU BKN070 18/18 Q1020 RERA,M
SBGR,2025-01-30 12:00,71.60,69.80,94.06,110.00,2.00,0.00,29.94,M,4.35,M,BKN,OVC,M,M,1100.00,2000.00,M,M,-DZ,M,M,M,M,M,M,71.60,SBGR 301200Z 11002KT 7000 -DZ BKN011 OVC020 22/21 Q1014,M
SBAN,2025-01-30 13:00,64.40,64.40,100.00,10.00,8.00,0.00,30.15,M,2.49,M,SCT,SCT,FEW,BKN,200.00,400.00,3500.00,7000.00,-RA,M,M,M,M,M,M,64.40,SBAN 301300Z 01008KT 4000 -RA SCT002 SCT004 FEW035TCU BKN070 18/18 Q1021 RERA,M
SBGR,2025-01-30 13:00,75.20,69.80,83.32,340.00,2.00,0.00,29.97,M,6.21,M,SCT,OVC,M,M,1100.00,3000.00,M,M,-DZ,M,M,M,M,M,M,75.20,SBGR 301300Z 34002KT 9999 3000E -DZ SCT011 OVC030 24/21 Q1015,M
SBGR,2025-01-30 13:20,73.40,69.80,88.51,40.00,5.00,0.00,29.97,M,2.49,M,BKN,OVC,M,M,1000.00,2000.00,M,M,-RA BR,M,M,M,M,M,M,73.40,SBGR 301320Z 04005KT 4000 -RA BR BKN010 OVC020 23/21 Q1015,M
SBAN,2025-01-30 14:00,69.80,68.00,94.01,350.00,7.00,0.00,30.12,M,6.21,M,FEW,BKN,BKN,M,300.00,500.00,7000.00,M,M,M,M,M,M,M,M,69.80,SBAN 301400Z 35007KT 9999 FEW003 BKN005 BKN070 21/20 Q1020,M
SBGR,2025-01-30 14:00,73.40,69.80,88.51,70.00,3.00,0.00,29.97,M,6.21,M,SCT,BKN,BKN,FEW,600.00,1500.00,3000.00,4000.00,VCSH,M,M,M,M,M,M,73.40,SBGR 301400Z 07003KT 9999 4000E VCSH SCT006 BKN015 BKN030 FEW040TCU 23/21 Q1015,M
SBGR,2025-01-30 15:00,73.40,69.80,88.51,310.00,4.00,0.00,29.94,M,6.21,M,FEW,SCT,BKN,M,1300.00,2500.00,3500.00,M,-RA,M,M,M,M,M,M,73.40,SBGR 301500Z 31004KT 9999 -RA FEW013 SCT025 BKN035 23/21 Q1014,M
SBAN,2025-01-30 15:00,71.60,68.00,88.43,350.00,9.00,0.00,30.12,M,6.21,M,BKN,BKN,FEW,BKN,500.00,800.00,3500.00,7000.00,M,M,M,M,M,M,M,71.60,SBAN 301500Z 35009KT 9999 BKN005 BKN008 FEW035TCU BKN070 22/20 Q1020,M
SBAN,2025-01-30 16:00,73.40,66.20,78.19,340.00,7.00,0.00,30.09,M,6.21,M,FEW,BKN,BKN,M,800.00,1200.00,7000.00,M,M,M,M,M,M,M,M,73.40,SBAN 301600Z 34007KT 9999 FEW008 BKN012 BKN070 23/19 Q1019,M
SBGR,2025-01-30 16:00,77.00,69.80,78.48,10.00,6.00,0.00,29.91,M,6.21,M,BKN,BKN,FEW,M,1700.00,3000.00,3500.00,M,VCSH,M,M,M,M,M,M,77.00,SBGR 301600Z 01006KT 9999 VCSH BKN017 BKN030 FEW035TCU 25/21 Q1013,M
SBAN,2025-01-30 17:00,77.00,66.20,69.33,360.00,8.00,0.00,30.06,M,6.21,M,BKN,SCT,M,M,1200.00,1500.00,M,M,M,M,M,M,M,M,M,77.00,SBAN 301700Z 36008KT 9999 BKN012 SCT015 25/19 Q1018,M
SBGR,2025-01-30 17:00,77.00,69.80,78.48,340.00,8.00,0.00,29.91,M,6.21,M,BKN,FEW,BKN,M,2000.00,3500.00,7000.00,M,VCSH,M,M,M,M,M,M,77.00,SBGR 301700Z 34008KT 9999 VCSH BKN020 FEW035TCU BKN070 25/21 Q1013,M
SBGR,2025-01-30 17:42,77.00,69.80,78.48,280.00,9.00,0.00,29.91,M,1.86,19.00,BKN,FEW,M,M,2000.00,3500.00,M,M,TSRA HZ,M,M,M,M,M,M,77.00,SBGR 301742Z 28009G19KT 3000 TSRA HZ BKN020 FEW035CB 25/21 Q1013,M
SBAN,2025-01-30 18:00,77.00,66.20,69.33,340.00,8.00,0.00,30.03,M,6.21,M,SCT,BKN,M,M,1200.00,1500.00,M,M,M,M,M,M,M,M,M,77.00,SBAN 301800Z 34008KT 9999 SCT012 BKN015 25/19 Q1017,M
SBGR,2025-01-30 18:00,71.60,68.00,88.43,320.00,14.00,0.00,29.91,M,1.12,M,BKN,FEW,M,M,2000.00,3500.00,M,M,+TSRA BR,M,M,M,M,M,M,71.60,SBGR 301800Z 32014KT 1800 R10R/P2000 R10L/P2000 R28R/P2000 R28L/P2000 +TSRA BR BKN020 FEW035CB 22/20 Q1013 RERA,M
SBGR,2025-01-30 18:10,71.60,68.00,88.43,290.00,8.00,0.00,29.91,M,1.86,M,BKN,BKN,M,M,4500.00,7000.00,M,M,-RA BR,M,M,M,M,M,M,71.60,SBGR 301810Z 29008KT 3000 -RA BR BKN045 BKN070 22/20 Q1013 RETSRA,M
SBGR,2025-01-30 18:28,71.60,68.00,88.43,280.00,5.00,0.00,29.88,M,6.21,M,NSC,M,M,M,M,M,M,M,-RA,M,M,M,M,M,M,71.60,SBGR 301828Z 28005KT 9999 4900E -RA NSC 22/20 Q1012 RETSRA,M
SBGR,2025-01-30 19:00,71.60,69.80,94.06,250.00,2.00,0.00,29.88,M,6.21,M,NSC,M,M,M,M,M,M,M,-RA,M,M,M,M,M,M,71.60,SBGR 301900Z 25002KT 9999 4000E -RA NSC 22/21 Q1012 RETSRA,M
SBAN,2025-01-30 19:00,77.00,68.00,73.78,330.00,6.00,0.00,30.00,M,6.21,M,FEW,BKN,M,M,1200.00,1800.00,M,M,M,M,M,M,M,M,M,77.00,SBAN 301900Z 33006KT 9999 FEW012 BKN018 25/20 Q1016,M
SBGR,2025-01-30 19:10,71.60,69.80,94.06,230.00,3.00,0.00,29.88,M,1.86,M,FEW,BKN,BKN,M,1300.00,4000.00,7000.00,M,RA BR,M,M,M,M,M,M,71.60,SBGR 301910Z 23003KT 3000 RA BR FEW013 BKN040 BKN070 22/21 Q1012,M
SBAN,2025-01-30 20:00,77.00,66.20,69.33,330.00,5.00,0.00,29.97,M,6.21,M,BKN,M,M,M,2000.00,M,M,M,M,M,M,M,M,M,M,77.00,SBAN 302000Z 33005KT 9999 BKN020 25/19 Q1015,M
SBGR,2025-01-30 20:00,71.60,69.80,94.06,170.00,2.00,0.00,29.88,M,2.80,M,OVC,M,M,M,3000.00,M,M,M,-RA BR,M,M,M,M,M,M,71.60,SBGR 302000Z 17002KT 4500 -RA BR OVC030 22/21 Q1012 RERA,M
SBGR,2025-01-30 20:18,71.60,69.80,94.06,340.00,1.00,0.00,29.88,M,1.37,M,SCT,OVC,M,M,1100.00,2000.00,M,M,RA BR,M,M,M,M,M,M,71.60,SBGR 302018Z 34001KT 2200 RA BR SCT011 OVC020 22/21 Q1012,M
SBGR,2025-01-30 20:30,69.80,69.80,100.00,240.00,7.00,0.00,29.88,M,1.37,M,SCT,BKN,FEW,M,1100.00,2000.00,4000.00,M,TSRA BR,M,M,M,M,M,M,69.80,SBGR 302030Z 24007KT 2200 TSRA BR SCT011 BKN020 FEW040CB 21/21 Q1012,M
SBGR,2025-01-30 20:36,69.80,68.00,94.01,240.00,7.00,0.00,29.88,M,0.50,M,SCT,BKN,FEW,M,700.00,2000.00,4000.00,M,+TSRA,M,M,M,M,M,M,69.80,COR SBGR 302036Z 24007KT 0800 R10R/P2000 R10L/P2000 +TSRA SCT007 BKN020 FEW040CB 21/20 Q1012 RERA,M
SBAN,2025-01-30 21:00,75.20,66.20,73.61,330.00,5.00,0.00,29.97,M,6.21,M,SCT,M,M,M,2000.00,M,M,M,M,M,M,M,M,M,M,75.20,SBAN 302100Z 33005KT 9999 SCT020 24/19 Q1015,M
SBGR,2025-01-30 21:00,69.80,68.00,94.01,290.00,3.00,0.00,29.88,M,1.86,M,SCT,BKN,FEW,M,600.00,3000.00,4000.00,M,+TSRA,M,M,M,M,M,M,69.80,SBGR 302100Z 29003KT 3000 +TSRA SCT006 BKN030 FEW040CB 21/20 Q1012 RERA,M
SBGR,2025-01-30 21:18,71.60,69.80,94.06,270.00,4.00,0.00,29.91,M,1.86,M,OVC,///,M,M,1100.00,M,M,M,TSRA,M,M,M,M,M,M,71.60,SBGR 302118Z 27004KT 3000 TSRA OVC011 //////CB 22/21 Q1013 RERA,M
SBAN,2025-01-30 22:00,71.60,68.00,88.43,340.00,3.00,0.00,30.00,M,6.21,M,FEW,FEW,M,M,2000.00,3000.00,M,M,M,M,M,M,M,M,M,71.60,SBAN 302200Z 34003KT 9999 FEW020 FEW030TCU 22/20 Q1016,M
SBGR,2025-01-30 22:00,69.80,69.80,100.00,180.00,2.00,0.00,29.91,M,2.80,M,FEW,OVC,M,M,1100.00,7000.00,M,M,RA,M,M,M,M,M,M,69.80,SBGR 302200Z 18002KT 4500 RA FEW011 OVC070 21/21 Q1013 RETS RETSRA,M
SBAN,2025-01-30 23:00,69.80,68.00,94.01,340.00,2.00,0.00,30.03,M,6.21,M,FEW,FEW,M,M,2000.00,3000.00,M,M,M,M,M,M,M,M,M,69.80,SBAN 302300Z 34002KT 9999 FEW020 FEW030TCU 21/20 Q1017,M
SBGR,2025-01-30 23:00,69.80,68.00,94.01,190.00,2.00,0.00,29.91,M,3.73,M,FEW,OVC,M,M,1100.00,7000.00,M,M,-RA,M,M,M,M,M,M,69.80,SBGR 302300Z 19002KT 6000 -RA FEW011 OVC070 21/20 Q1013 RERA,M
